abc,country,target_groups,contracts,name,street,city,postal_code,phone,fax,web,email,services,latitude,longitude,garage_id,sources
abc,ESP,Tyre Service,Vulco,NEUMÁTICOS IRUÑA (VITORIA),"Calle Jundiz, 4 Pol.Ind.Jundiz Pab.6A",Vitoria,01015,945292735,945292735,https://www.vulco.es/neumaticos-iruna-vitoria/,,| Wheel alignment | Change Tires | Tire balancing | Puncture proof tires | Wheel alignment | Change Tires | Tire balancing | Anti-puncture tires | Changing shock absorbers | Brake discs | Windshield wiper blades | Brake pads | Changing shock absorbers | Brake discs | Wiper blades | Brake pads | Battery | Oil change | Oil filter | Cabin filter | Coolant | Tires | Exhaust pipes | Sale of accessories | Battery | Oil change | Oil filter | Cabin filter | Coolant | Tires | Exhaust pipes | Sale of accessories | Mobile Workshop Unit | Mobile Workshop Unit | Waiting room | Parking | Waiting room | Parking |,,,,https://www.vulco.es/
abc,ESP,Tyre Service,Vulco,GAMARRA PNEUMATIKOAK,"C/Portal de Gamarra, 27 Pabellón 6",Vitoria-Gasteiz,01013,945258483|682759587,34913291015,https://www.vulco.es/gamarra-pneumatikoak/,,| Wheel alignment | Change Tires | Tire balancing | Puncture proof tires | Wheel alignment | Change Tires | Tire balancing | Puncture proof tires | Changing shock absorbers | Brake discs | Windshield wiper blades | Brake pads | Change of shock absorbers | Brake discs | Windshield wiper blades | Brake pads | Battery | Oil change | Oil filter | Cabin filter | Coolant | Tires | Exhaust pipes | Sale of accessories | Battery | Oil change | Oil filter | Cabin filter | Coolant | Tires | Exhaust pipes | Sale of accessories | Waiting room | Complimentary drinks | Free WiFi | Parking | Suitable for babies | Suitable for animals | Parking familiar | Parking for people with disabilities | Waiting room | Complimentary drinks | Free WiFi | Parking | Suitable for babies | Suitable for animals | Parking familiar | Parking for people with disabilities |,,,,https://www.vulco.es/
abc,ESP,Tyre Service,Vulco,NEUMÁTICOS Y SERVICIOS MILLÁN,"Calle San José, 29 ",Almansa,02640,967311819,967311819,https://www.vulco.es/neumaticos-y-servicios-millan/,,| Wheel alignment | Change Tires | Tire balancing | Inflated with nitrogen | Puncture proof tires | Wheel alignment | Change Tires | Tire balancing | Inflated with nitrogen | Puncture proof tires | Changing shock absorbers | Brake discs | Windshield wiper blades | brake pads | Changing shock absorbers | Brake discs | Windshield wiper blades | Brake pads | Battery | Oil change | Timing belt | Oil filter | Cabin filter | Coolant | Tires | Exhaust pipes | Battery | Oil change | Timing belt | Oil filter | Cabin filter | Coolant | Tires | exhaust pipes | Air-conditioning | Air-conditioning |,,,,https://www.vulco.es/
abc,ESP,Tyre Service,Vulco,NEUMÁTICOS DANI,"Avenida de Elx, 43 ",Alcoy,03801,965541022,965542156,https://www.vulco.es/neumaticos-dani/,,| Wheel alignment | Change Tires | Tire balancing | Inflated with nitrogen | Anti-puncture tires | Wheel alignment | Change Tires | Tire balancing | Inflated with nitrogen | Puncture proof tires | Changing shock absorbers | brake discs | Windshield wiper blades | Brake pads | Changing shock absorbers | Brake discs | Windshield wiper blades | Brake pads | Battery | Oil change | Oil filter | Cabin filter | Coolant | Tires | Exhaust pipes | Sale of accessories | Battery | Oil change | Oil filter | Cabin filter | Coolant | Tires | Exhaust pipes | Sale of accessories | Pre ITV | Pre ITV |,,,,https://www.vulco.es/
abc,ESP,Tyre Service,Vulco,NEUMATICOS SURESTE 2,"Polígono Industrial las Atalayas - Avenida Antigua Peseta, 81 ",Alicante,03114,662658199,965111628,https://www.vulco.es/neumaticos-sureste-2/,,| Wheel alignment | Change Tires | Tire balancing | Inflated with nitrogen | Puncture proof tires | Steering alignment | Change Tires | Tire balancing | Inflated with nitrogen | Puncture proof tires | Changing shock absorbers | brake discs | Windshield wiper blades | Brake pads | Headlight adjustment | Changing shock absorbers | Brake discs | Windshield wiper blades | Brake pads | Headlight adjustment | Battery | Oil change | timing belt | Oil filter | Cabin filter | Coolant | Exhaust pipes | Sale of accessories | Battery | Oil change | timing belt | Oil filter | Cabin filter | Coolant | Exhaust pipes | Sale of accessories | Air-conditioning | Pre ITV | Mobile Workshop Unit | Air-conditioning | Pre ITV | Mobile Workshop Unit | Waiting room | Free WiFi | Parking | Parking for people with disabilities | Waiting room | Free WiFi | Parking | Parking for people with disabilities |,,,,https://www.vulco.es/
abc,ESP,Tyre Service,Vulco,MARCELINO GATO MARTÍN E HIJOS,"Avenida de Europa, 17 ",Benisa,03720,965731072|665524556,34913291015,https://www.vulco.es/marcelino-gato-martin-e-hijos/,,| Wheel alignment | Change Tires | Tire balancing | Inflated with nitrogen | Anti-puncture tires | Wheel alignment | Change Tires | Tire balancing | Inflated with nitrogen | Puncture proof tires | Changing shock absorbers | Brake discs | Windshield wiper blades | Brake pads | Headlight adjustment | Changing shock absorbers | Brake discs | Windshield wiper blades | Brake pads | Headlight adjustment | Battery | Oil change | Oil filter | Cabin filter | Coolant | Tires | Exhaust pipes | Sale of accessories | Battery | Oil change | Oil filter | Cabin filter | Coolant | Tires | Exhaust pipes | Sale of accessories | Air-conditioning | Pre ITV | Mobile Workshop Unit | Replacement vehicle | Air-conditioning | Pre ITV | Mobile Workshop Unit | Replacement vehicle | Waiting room | Complimentary drinks | Free WiFi | Suitable for babies | Suitable for animals | Waiting room | Complimentary drinks | Free WiFi | Suitable for babies | Suitable for animals |,,,,https://www.vulco.es/
abc,ESP,Tyre Service,Vulco,GARAJE GADEA,"San Isidro, 10 ",Callosa den Sarria,03510,965881227|652584849,34913291015,https://www.vulco.es/garaje-gadea/,,| Wheel alignment | Change Tires | Tire balancing | Puncture proof tires | Wheel alignment | Change Tires | Tire balancing | Puncture proof tires | Changing shock absorbers | Brake discs | Windshield wiper blades | Brake pads | Headlight adjustment | Change of shock absorbers | Brake discs | Windshield wiper blades | Brake pads | Headlight adjustment | Battery | Oil change | Timing belt | Oil filter | Cabin filter | Coolant | Tires | Exhaust pipes | Sale of accessories | Battery | Oil change | Timing belt | Oil filter | Cabin filter | Coolant | Tires | Exhaust pipes | Sale of accessories | Air-conditioning | Exterior washing | Interior wash | Interior cleaning with ozone | Pre ITV | Air-conditioning | Exterior washing | Interior wash | Interior cleaning with ozone | Pre ITV |,,,,https://www.vulco.es/
abc,ESP,Tyre Service,Vulco,NEUMÁTICOS F.J.GIL 2,"Carrer de Pere Joan Perpinyá, 56 ",Elche,03204,966634363,966634363,https://www.vulco.es/neumaticos-f-j-gil-2/,,| Wheel alignment | Change Tires | Tire balancing | Anti-puncture tires | Wheel alignment | Change Tires | Tire balancing | Puncture proof tires | Change of shock absorbers | brake discs | Windshield wiper blades | Brake pads | Headlight adjustment | Changing shock absorbers | Brake discs | Windshield wiper blades | Brake pads | Headlight adjustment | Battery | Oil change | Timing belt | Oil filter | Cabin filter | Coolant | Tires | Exhaust pipes | Sale of accessories | Battery | Oil change | Timing belt | Oil filter | Cabin filter | Coolant | Tires | exhaust pipes | Sale of accessories | Air-conditioning | Pre ITV | Air-conditioning | Pre ITV |,,,,https://www.vulco.es/
abc,ESP,Tyre Service,Vulco,NEUMATICOS F.J.GIL 1,"Carrer d'Antonio Sansano Franco, 14 ",Elche,03204,966632947,966634363,https://www.vulco.es/neumaticos-f-j-gil-1/,,| Wheel alignment | Change Tires | Tire balancing | Puncture proof tires | Wheel alignment | Change Tires | Tire balancing | Puncture proof tires | Changing shock absorbers | Brake discs | Brake pads | Headlight adjustment | Change of shock absorbers | Brake discs | Brake pads | Headlight adjustment | Battery | Oil change | Timing belt | Oil filter | Cabin filter | Coolant | Tires | exhaust pipes | Sale of accessories | Battery | Oil change | Timing belt | Oil filter | Cabin filter | Coolant | Tires | Exhaust pipes | Sale of accessories | Air-conditioning | Pre ITV | Air-conditioning | Pre ITV |,,,,https://www.vulco.es/
abc,ESP,Tyre Service,Vulco,NEUMATICOS VALDIVIESO,"C/ Cádiz, 70 Pol. ALFAÇ III",Ibi,03440,965550312,34913291015,https://www.vulco.es/neumaticos-valdivieso/,,| Wheel alignment | Change Tires | Tire balancing | Puncture proof tires | Wheel alignment | Change Tires | Tire balancing | Puncture proof tires | Changing shock absorbers | Brake discs | Windshield wiper blades | Brake pads | Headlight adjustment | Changing shock absorbers | Brake discs | Windshield wiper blades | Brake pads | Headlight adjustment | Battery | Oil change | Timing belt | Oil filter | Cabin filter | Coolant | Tires | exhaust pipes | Sale of accessories | Battery | Oil change | Timing belt | Oil filter | Cabin filter | Coolant | Tires | Exhaust pipes | Sale of accessories | Pre ITV | Pre ITV | Suitable for animals | Suitable for animals |,,,,https://www.vulco.es/
abc,ESP,Tyre Service,Vulco,JOSE LUIS VALDIVIESO TORTOSA,"Avenida de la Provincia, 15 ",Ibi,03440,965550312,34913291015,https://www.vulco.es/jose-luis-valdivieso-tortosa/,,| Wheel alignment | Change Tires | Tire balancing | Puncture proof tires | Wheel alignment | Change Tires | Tire balancing | Puncture proof tires | Changing shock absorbers | Brake discs | Windshield wiper blades | Brake pads | Headlight adjustment | Changing shock absorbers | Brake discs | Windshield wiper blades | Brake pads | Headlight adjustment | Battery | Oil change | Timing belt | Oil filter | Cabin filter | Coolant | Tires | exhaust pipes | Sale of accessories | Battery | Oil change | Timing belt | Oil filter | Cabin filter | Coolant | Tires | exhaust pipes | Sale of accessories | Pre ITV | Pre ITV | Suitable for animals | Suitable for animals |,,,,https://www.vulco.es/
abc,ESP,Tyre Service,Vulco,LA MEZQUIDA XÀBIA,"C/ Roma, nº 11, Km. 2 Apartado de Correos 394",Jávea,03730,965790716,965797186,https://www.vulco.es/la-mezquida-xabia/,,| Wheel alignment | Change Tires | Tire balancing | Puncture proof tires | Wheel alignment | Change Tires | Tire balancing | Puncture proof tires | Changing shock absorbers | Brake discs | Windshield wiper blades | Brake pads | Headlight adjustment | Change of shock absorbers | Brake discs | Windshield wiper blades | Brake pads | Headlight adjustment | Battery | Oil change | Timing belt | Oil filter | Cabin filter | Coolant | Tires | Exhaust pipes | Sale of accessories | Battery | Oil change | Timing belt | Oil filter | Cabin filter | Coolant | Tires | Exhaust pipes | Sale of accessories | Air-conditioning | Financing | Exterior washing | Interior wash | Pick & Drop | Pre ITV | Air-conditioning | Financing | Exterior washing | Interior wash | Pick & Drop | Pre ITV |,,,,https://www.vulco.es/
abc,ESP,Tyre Service,Vulco,AUTOLAVADO SAN CRISTÓBAL,"Carrer del Doctor Barraquer, 20 ",Ondara,03760,965766389,965766389,https://www.vulco.es/autolavado-san-cristobal/,,| Wheel alignment | Change Tires | Tire balancing | Puncture proof tires | Wheel alignment | Change Tires | Tire balancing | Anti-puncture tires | Changing shock absorbers | Brake discs | Windshield wiper blades | Brake pads | Headlight adjustment | Changing shock absorbers | brake discs | Windshield wiper blades | Brake pads | Headlight adjustment | Battery | Oil change | Timing belt | Oil filter | Cabin filter | Coolant | Tires | Exhaust pipes | Sale of accessories | Battery | Oil change | Timing belt | Oil filter | Cabin filter | Coolant | Tires | Exhaust pipes | Sale of accessories | Air-conditioning | Financing | Exterior washing | Interior wash | Interior cleaning with ozone | Pre ITV | Replacement vehicle | Air-conditioning | Financing | Exterior washing | Interior wash | Interior cleaning with ozone | Pre ITV | Replacement vehicle |,,,,https://www.vulco.es/
abc,ESP,Tyre Service,Vulco,CARBURANTES ROQUE SOTO,"Pol.Ind.de Albox, Parcela 1, 148 Paraje terdiguera",Albox,04800,950120303,950633175,https://www.vulco.es/carburantes-roque-soto/,,| Change Tires | Tire balancing | Puncture proof tires | Change Tires | Tire balancing | Puncture proof tires | brake discs | Windshield wiper blades | Brake pads | brake discs | Windshield wiper blades | Brake pads | Battery | Oil change | Oil filter | Cabin filter | Coolant liquid | Tires | Sale of accessories | Battery | Oil change | Oil filter | Cabin filter | Coolant | Tires | Sale of accessories | Exterior washing | Interior wash | Exterior washing | Interior wash |,,,,https://www.vulco.es/
abc,ESP,Tyre Service,Vulco,ALMERISAN,"CTRA. NACIONAL 340, KM. 449 ",Huercal de Almeria,04230,950301111,950301113,https://www.vulco.es/almerisan/,,| Wheel alignment | Change Tires | Tire balancing | Inflated with nitrogen | Puncture proof tires | Wheel alignment | Change Tires | Tire balancing | Inflated with nitrogen | Puncture proof tires | Changing shock absorbers | Brake discs | Wiper blades | Brake pads | Headlight adjustment | Changing shock absorbers | Brake discs | Windshield wiper blades | Brake pads | Headlight adjustment | Battery | Oil change | Timing belt | Oil filter | Cabin filter | Coolant | Tires | Exhaust pipes | Sale of accessories | Battery | Oil change | Timing belt | Oil filter | Cabin filter | Coolant | Tires | Exhaust pipes | Sale of accessories | Air-conditioning | Exterior washing | Interior wash | Pre ITV | Air-conditioning | Exterior washing | Interior wash | Pre ITV |,,,,https://www.vulco.es/
abc,ESP,Tyre Service,Vulco,NEUMATICOS ARCHILLA,"Carretera de la Mojonera, 137 ",Roquetas de Mar,04740,950323702,950323702,https://www.vulco.es/neumaticos-archilla/,,| Wheel alignment | Change Tires | Tire balancing | Puncture proof tires | Wheel alignment | Change Tires | Tire balancing | Puncture proof tires | Changing shock absorbers | Brake discs | Wiper blades | Brake pads | Headlight adjustment | Changing shock absorbers | Brake discs | Windshield wiper blades | Brake pads | Headlight adjustment | Battery | Oil change | Timing belt | Oil filter | Cabin filter | Coolant | Tires | exhaust pipes | Sale of accessories | Battery | Oil change | Timing belt | Oil filter | Cabin filter | Coolant | Tires | Exhaust pipes | Sale of accessories | Air-conditioning | Pre ITV | Air-conditioning | Pre ITV |,,,,https://www.vulco.es/
abc,ESP,Tyre Service,Vulco,NEUMATICOS PACO RAMOS,"C/ San Sebastián de los Reyes, 5 ",Santa María del Aguila,04710,950581911,950581911,https://www.vulco.es/neumaticos-paco-ramos/,,| Wheel alignment | Change Tires | Tire balancing | Inflated with nitrogen | Anti-puncture tires | Wheel alignment | Change Tires | Tire balancing | Inflated with nitrogen | Anti-puncture tires | Change of shock absorbers | brake discs | Wiper blades | Brake pads | Headlight adjustment | Changing shock absorbers | Brake discs | Windshield wiper blades | Brake pads | Headlight adjustment | Battery | Oil change | Timing belt | Oil filter | Cabin filter | Coolant | Tires | Exhaust pipes | Sale of accessories | Battery | Oil change | Timing belt | Oil filter | Cabin filter | Coolant | Tires | Exhaust pipes | Sale of accessories | Air-conditioning | Interior cleaning with ozone | Pick & Drop | Pre ITV | Mobile Workshop Unit | Replacement vehicle | Air-conditioning | Interior cleaning with ozone | Pick & Drop | Pre ITV | Mobile Workshop Unit | Replacement vehicle | Free WiFi | Parking | Parking familiar | Free WiFi | Parking | Parking familiar |,,,,https://www.vulco.es/
abc,ESP,Tyre Service,Vulco,TALLER Y NEUMATICOS PEREZ MARTINEZ,"Avenida de Baria, 20 ",Vera,04620,950390641,950390641,https://www.vulco.es/taller-y-neumaticos-perez-martinez/,,| Steering alignment | Change Tires | Tire balancing | Inflated with nitrogen | Puncture proof tires | Wheel alignment | Change Tires | Tire balancing | Inflated with nitrogen | Puncture proof tires | Changing shock absorbers | Brake discs | Windshield wiper blades | Brake pads | Headlight adjustment | Changing shock absorbers | brake discs | Windshield wiper blades | Brake pads | Headlight adjustment | Battery | Oil change | timing belt | Oil filter | Cabin filter | Coolant | Tires | Exhaust pipes | Sale of accessories | Battery | Oil change | Timing belt | Oil filter | Cabin filter | Coolant | Tires | Exhaust pipes | Sale of accessories | Air-conditioning | Pre ITV | Air-conditioning | Pre ITV |,,,,https://www.vulco.es/
abc,ESP,Tyre Service,Vulco,GARAJE VALDÉS,El Coto,Gijón,33204,985338619|34684629932,34913291015,https://www.vulco.es/garaje-valdes/,,| Wheel alignment | Change Tires | Tire balancing | Inflated with nitrogen | Puncture proof tires | Wheel alignment | Change Tires | Tire balancing | Inflated with nitrogen | Puncture proof tires | Brake discs | Windshield wiper blades | Brake pads | Brake discs | Windshield wiper blades | Brake pads | Battery | Oil change | Oil filter | Cabin filter | Tires | Exhaust pipes | Battery | Oil change | Oil filter | Cabin filter | Tires | exhaust pipes | Financing | Exterior washing | Interior wash | Interior cleaning with ozone | Pick & Drop | Financing | Exterior washing | Interior wash | Interior cleaning with ozone | Pick & Drop |,,,,https://www.vulco.es/
abc,ESP,Tyre Service,Vulco,NEUMÁTICOS SIRGO,"Avenida del Campón, 52 -Castrillón",Salinas,33405,985502111,985502111,https://www.vulco.es/neumaticos-sirgo/,,| Wheel alignment | Change Tires | Tire balancing | Inflated with nitrogen | Puncture proof tires | Wheel alignment | Change Tires | Tire balancing | Inflated with nitrogen | Puncture proof tires | Changing shock absorbers | Brake discs | Windshield wiper blades | Brake pads | Headlight adjustment | Changing shock absorbers | Brake discs | Windshield wiper blades | Brake pads | Headlight adjustment | Battery | Oil change | Oil filter | Cabin filter | Coolant liquid | Tires | Exhaust pipes | Sale of accessories | Battery | Oil change | Oil filter | Cabin filter | Coolant | Tires | Exhaust pipes | Sale of accessories | Pre ITV | Pre ITV |,,,,https://www.vulco.es/
abc,ESP,Tyre Service,Vulco,TALLERES NOSTI,"Carr. el N-634 Berron, 618A Polígono Industrial Berrón Este Nº3",Siero,33519,985743122,34913291015,https://www.vulco.es/talleres-nosti/,,| Wheel alignment | Change Tires | Tire balancing | Puncture proof tires | Wheel alignment | Change Tires | Tire balancing | Puncture proof tires | Changing shock absorbers | brake discs | Wiper blades | brake pads | Headlight adjustment | Changing shock absorbers | Brake discs | Windshield wiper blades | Brake pads | Headlight adjustment | Battery | Oil change | Timing belt | Oil filter | Cabin filter | Coolant | Tires | Exhaust pipes | Battery | Oil change | Timing belt | Oil filter | Cabin filter | Coolant | Tires | Exhaust pipes | Interior cleaning with ozone | Pick & Drop | Pre ITV | Replacement vehicle | Interior cleaning with ozone | Pick & Drop | Pre ITV | Replacement vehicle |,,,,https://www.vulco.es/
abc,ESP,Tyre Service,Vulco,NEUMÁTICOS ADAJA,"Calle Fontiveros, 26 Pol. Ind. Tierra de Arévalo",Arévalo,05200,920302345,34913291015,https://www.vulco.es/neumaticos-adaja/,,| Change Tires | Steering alignment | Change Tires | Steering alignment | Changing shock absorbers | Brake discs | Changing shock absorbers | brake discs | Exhaust pipes | Tires | Sale of accessories | Exhaust pipes | Tires | Sale of accessories |,,,,https://www.vulco.es/
abc,ESP,Tyre Service,Vulco,AUTONEUMAN,"Calle del Río Duero, 14 ",Ávila,05004,920250563|687066837,34913291015,https://www.vulco.es/autoneuman/,,| Steering alignment | Change Tires | Tire balancing | Puncture proof tires | Wheel alignment | Change Tires | Tire balancing | Puncture proof tires | Changing shock absorbers | Brake discs | Wiper blades | Brake pads | Headlight adjustment | Changing shock absorbers | Brake discs | Windshield wiper blades | Brake pads | Headlight adjustment | Battery | Oil change | Timing belt | Oil filter | Cabin filter | Coolant | Tires | Exhaust pipes | Sale of accessories | Battery | Oil change | Timing belt | Oil filter | Cabin filter | Coolant | Tires | Exhaust pipes | Sale of accessories | Interior cleaning with ozone | Pre ITV | Interior cleaning with ozone | Pre ITV |,,,,https://www.vulco.es/
abc,ESP,Tyre Service,Vulco,NEUMÁTICOS GREDOS,"Camino de Soto, 3 Nave A",Piedrahita,05500,920360114|675011178,34913291015,https://www.vulco.es/neumaticos-gredos/,,| Wheel alignment | Change Tires | Tire balancing | Puncture proof tires | Wheel alignment | Change Tires | Tire balancing | Puncture proof tires | Changing shock absorbers | Brake discs | Windshield wiper blades | Brake pads | Headlight adjustment | Changing shock absorbers | brake discs | Windshield wiper blades | brake pads | Headlight adjustment | Battery | Oil change | Oil filter | Cabin filter | Coolant | Tires | Exhaust pipes | Sale of accessories | Battery | Oil change | Oil filter | Cabin filter | Coolant | Tires | exhaust pipes | Sale of accessories | Pick & Drop | Pre ITV | Mobile Workshop Unit | Pick & Drop | Pre ITV | Mobile Workshop Unit | Waiting room | Parking | Children's Corner | Parking for people with disabilities | Waiting room | Parking | Children's Corner | Parking for people with disabilities |,,,,https://www.vulco.es/
abc,ESP,Tyre Service,Vulco,PNEUMATICS ROCAFORT,"Carrer de Rocafort, 22 Eixample",Barcelona,08015,934234234,934234234,https://www.vulco.es/pneumatics-rocafort/,,| Wheel alignment | Change Tires | Tire balancing | Puncture proof tires | Wheel alignment | Change Tires | Tire balancing | Puncture proof tires | Changing shock absorbers | Brake discs | Windshield wiper blades | Brake pads | Headlight adjustment | Changing shock absorbers | Brake discs | Windshield wiper blades | Brake pads | Headlight adjustment | Battery | Oil change | Timing belt | Oil filter | Cabin filter | Coolant | Tires | Exhaust pipes | Sale of accessories | Battery | Oil change | Timing belt | Oil filter | Cabin filter | Coolant | Tires | Exhaust pipes | Sale of accessories | Air-conditioning | Financing | Interior cleaning with ozone | Pick & Drop | Pre ITV | Replacement vehicle | Air-conditioning | Financing | Interior cleaning with ozone | Pick & Drop | Pre ITV | Replacement vehicle |,,,,https://www.vulco.es/
abc,ESP,Tyre Service,Vulco,PNEUMATICS GUERRERO,"C/ Hernan Cortes, 17 ",Barcelona,08018,932317807,34913291015,https://www.vulco.es/pneumatics-guerrero/,,| Wheel alignment | Change Tires | Tire balancing | Puncture proof tires | Wheel alignment | Change Tires | Tire balancing | Anti-puncture tires | Changing shock absorbers | Brake discs | Windshield wiper blades | Brake pads | Headlight adjustment | Changing shock absorbers | brake discs | Windshield wiper blades | Brake pads | Headlight adjustment | Battery | Oil change | Timing belt | Oil filter | Cabin filter | Coolant | Tires | exhaust pipes | Sale of accessories | Battery | Oil change | Timing belt | Oil filter | Cabin filter | Coolant | Tires | exhaust pipes | Sale of accessories | Air-conditioning | Interior cleaning with ozone | Pre ITV | Air-conditioning | Interior cleaning with ozone | Pre ITV |,,,,https://www.vulco.es/
abc,ESP,Tyre Service,Vulco,PNEUMATICS LARIOS,"C/ Travesera de Gracia, 310 ",Barcelona,08025,934557435,34913291015,https://www.vulco.es/pneumatics-larios/,,| Wheel alignment | Change Tires | Tire balancing | Wheel alignment | Change Tires | Tire balancing | Changing shock absorbers | Brake discs | Brake pads | Changing shock absorbers | Brake discs | Brake pads | Battery | Oil change | Oil filter | Coolant | Tires | Exhaust pipes | Battery | Oil change | Oil filter | Coolant | Tires | exhaust pipes | Air-conditioning | Air-conditioning |,,,,https://www.vulco.es/
abc,ESP,Tyre Service,Vulco,PNEUMATICS MIQUEL,"C/ Alemanya, 2 ",Igualada,08700,938033512,34913291015,https://www.vulco.es/pneumatics-miquel/,,| Wheel alignment | Change Tires | Tire balancing | Puncture proof tires | Wheel alignment | Change Tires | Tire balancing | Puncture proof tires | Changing shock absorbers | Brake discs | Windshield wiper blades | Changing shock absorbers | Brake discs | Windshield wiper blades | Battery | Oil change | Timing belt | Oil filter | Cabin filter | Exhaust pipes | Battery | Oil change | Timing belt | Oil filter | Cabin filter | Exhaust pipes | Air-conditioning | Pre ITV | Air-conditioning | Pre ITV |,,,,https://www.vulco.es/
abc,ESP,Tyre Service,Vulco,SHERNOG,"Travesía Industrial, 205",L'Hospitalet de Llobregat,08907,933362479|603385606,34913291015,https://www.vulco.es/shernog/,,| Wheel alignment | Change Tires | Tire balancing | Puncture proof tires | Wheel alignment | Change Tires | Tire balancing | Puncture proof tires | Changing shock absorbers | Brake discs | Windshield wiper blades | Brake pads | Headlight adjustment | Changing shock absorbers | brake discs | Windshield wiper blades | Brake pads | Headlight adjustment | Battery | Oil change | Oil filter | Cabin filter | Tires | Exhaust pipes | Sale of accessories | Battery | Oil change | Oil filter | Cabin filter | Tires | Exhaust pipes | Sale of accessories |,,,,https://www.vulco.es/
abc,ESP,Tyre Service,Vulco,TOT COTXE,"Carrer Cerdanya, 57 ",Sant Boi de Llobregat,08830,936545100|689670338,34913291015,https://www.vulco.es/tot-cotxe/,,| Wheel alignment | Change Tires | Tire balancing | Puncture proof tires | Wheel alignment | Change Tires | Tire balancing | Puncture proof tires | Change of shock absorbers | Brake discs | Windshield wiper blades | Brake pads | Changing shock absorbers | Brake discs | Windshield wiper blades | Brake pads | Battery | Oil change | Timing belt | Oil filter | Cabin filter | Coolant | Tires | Exhaust pipes | Sale of accessories | Battery | Oil change | Timing belt | Oil filter | Cabin filter | Coolant | Tires | Exhaust pipes | Sale of accessories | Pre ITV | Pre ITV |,,,,https://www.vulco.es/
abc,ESP,Tyre Service,Vulco,PNEUMATICS ABAD MARCET,"Avda Abad Marcet, 250 ",Tarrasa,08225,937359034,34913291015,https://www.vulco.es/pneumatics-abad-marcet/,,| Change Tires | Tire balancing | Inflated with nitrogen | Puncture proof tires | Change Tires | Tire balancing | Inflated with nitrogen | Puncture proof tires | Changing shock absorbers | Brake discs | Windshield wiper blades | Changing shock absorbers | Brake discs | Windshield wiper blades | Battery | Battery | Financing | Pre ITV | Financing | Pre ITV |,,,,https://www.vulco.es/
abc,ESP,Tyre Service,Vulco,RODASPORT PNEUMATICS,"Avinguda de Portugal, 132 ",Terrassa,08226,937314231,34913291015,https://www.vulco.es/rodasport-pneumatics/,,| Wheel alignment | Change Tires | Tire balancing | Inflated with nitrogen | Puncture proof tires | Wheel alignment | Change Tires | Tire balancing | Inflated with nitrogen | Puncture proof tires | Changing shock absorbers | Brake discs | Wiper blades | brake pads | Changing shock absorbers | Brake discs | Windshield wiper blades | Brake pads | Battery | Oil change | Oil filter | Exhaust pipes | Battery | Oil change | Oil filter | Exhaust pipes | Air-conditioning | Financing | Pre ITV | Air-conditioning | Financing | Pre ITV | Waiting room | Complimentary drinks | Free WiFi | Waiting room | Complimentary drinks | Free WiFi |,,,,https://www.vulco.es/
abc,ESP,Tyre Service,Vulco,CBF NAVARRO,"C/ Juan Luis Vives, 16 ",Viladecavalls,08232,937891322|673657418,34913291015,https://www.vulco.es/cbf-navarro/,,| Steering alignment | Change Tires | Tire balancing | Puncture proof tires | Wheel alignment | Change Tires | Tire balancing | Puncture proof tires | Changing shock absorbers | Brake discs | Windshield wiper blades | Brake pads | Headlight adjustment | Changing shock absorbers | Brake discs | Windshield wiper blades | brake pads | Headlight adjustment | Battery | Oil change | Timing belt | Oil filter | Cabin filter | Coolant | Tires | exhaust pipes | Sale of accessories | Battery | Oil change | timing belt | Oil filter | Cabin filter | Coolant | Tires | Exhaust pipes | Sale of accessories | Air-conditioning | Exterior washing | Interior wash | Pre ITV | Replacement vehicle | Air-conditioning | Exterior washing | Interior wash | Pre ITV | Replacement vehicle |,,,,https://www.vulco.es/
abc,ESP,Tyre Service,Vulco,DON NEUMÁTICO,"Carretera Madrid-Irún, Km. 243 P.I. Pentasa II",Burgos,09007,947485942,947480874,https://www.vulco.es/don-neumatico/,,| Change Tires | Wheel alignment | Change Tires | Wheel alignment | Battery | Tires | Battery | Tires | Waiting room | Parking | Waiting room | Parking |,,,,https://www.vulco.es/
abc,ESP,Tyre Service,Vulco,NEUMÁTICOS JOSÉ LUIS,Polígono Ind. los Rosales parcela 69,Coria,10800,927501538,927501538,https://www.vulco.es/neumaticos-jose-luis/,,| Wheel alignment | Change Tires | Tire balancing | Puncture proof tires | Wheel alignment | Change Tires | Tire balancing | Puncture proof tires | Brake discs | Windshield wiper blades | Brake pads | Brake discs | Windshield wiper blades | Brake pads | Battery | Oil change | Oil filter | Cabin filter | Coolant | Tires | Sale of accessories | Battery | Oil change | Oil filter | Cabin filter | Coolant | Tires | Sale of accessories | Exterior washing | Interior wash | Pre ITV | Exterior washing | Interior wash | Pre ITV |,,,,https://www.vulco.es/
abc,ESP,Tyre Service,Vulco,NEUMÁTICOS MOTOVAL JARAÍZ DE LA VERA,"Calle Hernán Cortés, 36 ",Jaraíz de la Vera,10400,927460599|605073654,34913291015,https://www.vulco.es/neumaticos-motoval-jaraiz-de-la-vera/,,| Change Tires | Wheel alignment | Change Tires | Wheel alignment | Changing shock absorbers | Changing shock absorbers | Battery | Battery | Pre ITV | Air-conditioning | Pre ITV | Air-conditioning |,,,,https://www.vulco.es/
abc,ESP,Tyre Service,Vulco,NEUMÁTICOS PLASENCIA - NEUPLASA,"Av Martin Palomino, 57 ",Plasencia,10600,927420714,34913291015,https://www.vulco.es/neumaticos-plasencia-neuplasa/,,| Steering alignment | Change Tires | Tire balancing | Puncture proof tires | Wheel alignment | Change Tires | Tire balancing | Puncture proof tires | Changing shock absorbers | Brake discs | Windshield wiper blades | Brake pads | Headlight adjustment | Changing shock absorbers | Brake discs | Windshield wiper blades | Brake pads | Headlight adjustment | Battery | Oil change | Timing belt | Oil filter | Cabin filter | Coolant | Tires | Exhaust pipes | Sale of accessories | Battery | Oil change | Timing belt | Oil filter | Cabin filter | Coolant | Tires | Exhaust pipes | Sale of accessories | Air-conditioning | Pre ITV | Mobile Workshop Unit | Replacement vehicle | Air-conditioning | Pre ITV | Mobile Workshop Unit | Replacement vehicle | Waiting room | Complimentary drinks | Free WiFi | TV | Waiting room | Complimentary drinks | Free WiFi | TV |,,,,https://www.vulco.es/
abc,ESP,Tyre Service,Vulco,NEUMÁTICOS MOTOVAL VALVERDE DEL FRESNO,"Calle el Pino, 4 ",Valverde del Fresno,10890,927510876,927510108,https://www.vulco.es/neumaticos-motoval-valverde-del-fresno/,,| Wheel alignment | Change Tires | Tire balancing | Inflated with nitrogen | Puncture proof tires | Steering alignment | Change Tires | Tire balancing | Inflated with nitrogen | Puncture proof tires | Changing shock absorbers | brake discs | Windshield wiper blades | Brake pads | Headlight adjustment | Changing shock absorbers | Brake discs | Windshield wiper blades | Brake pads | Headlight adjustment | Battery | Oil change | Timing belt | Oil filter | Cabin filter | Coolant | Exhaust pipes | Sale of accessories | Battery | Oil change | Timing belt | Oil filter | Cabin filter | Coolant | Exhaust pipes | Sale of accessories | Air-conditioning | Pre ITV | Air-conditioning | Pre ITV |,,,,https://www.vulco.es/
abc,ESP,Tyre Service,Vulco,TYRECAR,"C/ Cristalería, 21 Ctra. Jerez-Sanlúcar, Km.1 P.I. Ronda Oeste",Jerez de la Frontera,11408,956140812|619949420,34913291015,https://www.vulco.es/tyrecar/,,| Steering alignment | Change Tires | Tire balancing | Inflated with nitrogen | Puncture proof tires | Wheel alignment | Change Tires | Tire balancing | Inflated with nitrogen | Puncture proof tires | Changing shock absorbers | Brake discs | Windshield wiper blades | Brake pads | Headlight adjustment | Changing shock absorbers | Brake discs | Windshield wiper blades | Brake pads | Headlight adjustment | Battery | Oil change | Timing belt | Oil filter | Cabin filter | Coolant | Tires | Exhaust pipes | Sale of accessories | Battery | Oil change | Timing belt | Oil filter | Cabin filter | Coolant | Tires | Exhaust pipes | Sale of accessories | Air-conditioning | Interior cleaning with ozone | Pick & Drop | Pre ITV | Mobile Workshop Unit | Air-conditioning | Interior cleaning with ozone | Pick & Drop | Pre ITV | Mobile Workshop Unit |,,,,https://www.vulco.es/
abc,ESP,Tyre Service,Vulco,ROBERTO MOTOR,"Castilla, 38-40 ",Santander,39009,942544918,34913291015,https://www.vulco.es/roberto-motor/,,| Change Tires | Change Tires | Oil change | Battery | Oil change | Battery |,,,,https://www.vulco.es/
abc,ESP,Tyre Service,Vulco,TALLERES INTER,"Ctra.N-340, KM 45,7 ",Nules,12520,964673161,34913291015,https://www.vulco.es/talleres-inter/,,| Steering alignment | Change Tires | Tire balancing | Puncture proof tires | Steering alignment | Change Tires | Tire balancing | Puncture proof tires | Changing shock absorbers | Brake discs | Windshield wiper blades | Brake pads | Headlight adjustment | Changing shock absorbers | Brake discs | Windshield wiper blades | Brake pads | Headlight adjustment | Battery | Oil change | Timing belt | Oil filter | Cabin filter | Coolant | Tires | Exhaust pipes | Sale of accessories | Battery | Oil change | Timing belt | Oil filter | Cabin filter | Coolant liquid | Tires | Exhaust pipes | Sale of accessories | Air-conditioning | Pre ITV | Replacement vehicle | Air-conditioning | Pre ITV | Replacement vehicle |,,,,https://www.vulco.es/
abc,ESP,Tyre Service,Vulco,MI COCHE,"Calle Soneja, 2 ",Segorbe,12400,964711005,34913291015,https://www.vulco.es/mi-coche/,,| Wheel alignment | Change Tires | Tire balancing | Puncture proof tires | Steering alignment | Change Tires | Tire balancing | Puncture proof tires | Changing shock absorbers | Brake discs | Windshield wiper blades | Brake pads | Headlight adjustment | Changing shock absorbers | Brake discs | Windshield wiper blades | Brake pads | Headlight adjustment | Battery | Oil change | Timing belt | Oil filter | Cabin filter | Coolant | Tires | Exhaust pipes | Sale of accessories | Battery | Oil change | Timing belt | Oil filter | Cabin filter | Coolant | Tires | Exhaust pipes | Sale of accessories | Air-conditioning | Pre ITV | Air-conditioning | Pre ITV |,,,,https://www.vulco.es/
abc,ESP,Tyre Service,Vulco,RECAUCHUTADOS LUIS TEJADO,"Avda. de la Ciencia, Parcela 13 P. l. Emilio Castro",Alcazar de San Juan,13600,926545534,926542300,https://www.vulco.es/recauchutados-luis-tejado/,,| Wheel alignment | Change Tires | Tire balancing | Inflated with nitrogen | Puncture proof tires | Wheel alignment | Change Tires | Tire balancing | Inflated with nitrogen | Puncture proof tires | Windshield wiper blades | Brake pads | Wiper blades | Brake pads | Battery | Oil change | Oil filter | Coolant | Tires | Sale of accessories | Battery | Oil change | Oil filter | Coolant | Tires | Sale of accessories | Financing | Pick & Drop | Mobile Workshop Unit | Replacement vehicle | Financing | Pick & Drop | Mobile Workshop Unit | Replacement vehicle | Waiting room | Complimentary drinks | Free WiFi | TV | Parking | Suitable for babies | Suitable for animals | Children's Corner | Parking familiar | Parking for people with disabilities | Waiting room | Complimentary drinks | Free WiFi | TV | Parking | Suitable for babies | Suitable for animals | Children's Corner | Parking familiar | Parking for people with disabilities |,,,,https://www.vulco.es/
abc,ESP,Tyre Service,Vulco,NEUMATICOS RAMIREZ,"Calle Real, 59 ",Miguelturra,13170,926241279|657918583,34913291015,https://www.vulco.es/neumaticos-ramirez/,,| Wheel alignment | Change Tires | Tire balancing | Inflated with nitrogen | Anti-puncture tires | Wheel alignment | Change Tires | Tire balancing | Inflated with nitrogen | Puncture proof tires | Changing shock absorbers | Brake discs | Windshield wiper blades | Brake pads | Headlight adjustment | Changing shock absorbers | Brake discs | Wiper blades | Brake pads | Headlight adjustment | Battery | Oil change | Timing belt | Oil filter | Cabin filter | Coolant | Tires | Exhaust pipes | Sale of accessories | Battery | Oil change | Timing belt | Oil filter | Cabin filter | Coolant | Tires | Exhaust pipes | Sale of accessories | Air-conditioning | Pre ITV | Mobile Workshop Unit | Air-conditioning | Pre ITV | Mobile Workshop Unit | Waiting room | Complimentary drinks | Free WiFi | TV | Suitable for animals | Waiting room | Complimentary drinks | Free WiFi | TV | Suitable for animals |,,,,https://www.vulco.es/
abc,ESP,Tyre Service,Vulco,VULCANIZADOS CÓRDOBA,"Carretera de Toledo a Albacete, Km. 131.500 ",Tomelloso,13700,926515509,34913291015,https://www.vulco.es/vulcanizados-cordoba/,,| Wheel alignment | Change Tires | Tire balancing | Inflated with nitrogen | Puncture proof tires | Wheel alignment | Change Tires | Tire balancing | Inflated with nitrogen | Puncture proof tires | Changing shock absorbers | Brake discs | Windshield wiper blades | Brake pads | Headlight adjustment | Changing shock absorbers | Brake discs | Windshield wiper blades | Brake pads | Headlight adjustment | Battery | Oil change | Timing belt | Oil filter | Cabin filter | Coolant | Tires | Exhaust pipes | Sale of accessories | Battery | Oil change | Timing belt | Oil filter | Cabin filter | Coolant | Tires | Exhaust pipes | Sale of accessories | Air-conditioning | Pre ITV | Air-conditioning | Pre ITV |,,,,https://www.vulco.es/
abc,ESP,Tyre Service,Vulco,NEUMÁTICOS SIMÓN,"Carretera de Valdepeñas, S/N ",Torrenueva,13740,926344713|665769803,34913291015,https://www.vulco.es/neumaticos-simon/,,| Wheel alignment | Change Tires | Tire balancing | Puncture proof tires | Wheel alignment | Change Tires | Tire balancing | Puncture proof tires | Change of shock absorbers | Brake discs | Windshield wiper blades | Brake pads | Headlight adjustment | Changing shock absorbers | Brake discs | Wiper blades | Brake pads | Headlight adjustment | Battery | Oil change | timing belt | Oil filter | Cabin filter | Coolant | Tires | Exhaust pipes | Sale of accessories | Battery | Oil change | timing belt | Oil filter | Cabin filter | Coolant | Tires | Exhaust pipes | Sale of accessories | Air-conditioning | Pick & Drop | Pre ITV | Mobile Workshop Unit | Air-conditioning | Pick & Drop | Pre ITV | Mobile Workshop Unit | Waiting room | Complimentary drinks | Parking | Suitable for animals | Children's Corner | Parking familiar | Waiting room | Complimentary drinks | Parking | Suitable for animals | Children's Corner | Parking familiar |,,,,https://www.vulco.es/
abc,ESP,Tyre Service,Vulco,TALLER QUINTANA,"Calle Bocoy, 1 Polígono Industrial",Valdepeñas,13300,926311511|650812511,34913291015,https://www.vulco.es/taller-quintana/,,| Wheel alignment | Change Tires | Tire balancing | Inflated with nitrogen | Puncture proof tires | Wheel alignment | Change Tires | Tire balancing | Inflated with nitrogen | Puncture proof tires | Changing shock absorbers | Brake discs | Windshield wiper blades | Brake pads | Changing shock absorbers | Brake discs | Windshield wiper blades | Brake pads | Battery | Oil change | Timing belt | Oil filter | Cabin filter | Coolant | Tires | Exhaust pipes | Sale of accessories | Battery | Oil change | Timing belt | Oil filter | Cabin filter | Coolant | Tires | Exhaust pipes | Sale of accessories | Air-conditioning | Exterior washing | Interior wash | Interior cleaning with ozone | Pre ITV | Air-conditioning | Exterior wash | Interior wash | Interior cleaning with ozone | Pre ITV | Waiting room | Parking | Waiting room | Parking |,,,,https://www.vulco.es/
abc,ESP,Tyre Service,Vulco,TALLER QUINTANA II,"C/ Bocoy, 4 ",Valdepeñas,13300,926311511,34913291015,https://www.vulco.es/taller-quintana-ii/,,| Wheel alignment | Change Tires | Tire balancing | Inflated with nitrogen | Puncture proof tires | Steering alignment | Change Tires | Tire balancing | Inflated with nitrogen | Puncture proof tires | Changing shock absorbers | Brake discs | Windshield wiper blades | brake pads | Change of shock absorbers | Brake discs | Windshield wiper blades | Brake pads | Battery | Oil change | Timing belt | Oil filter | Cabin filter | Coolant | Tires | Exhaust pipes | Sale of accessories | Battery | Oil change | Timing belt | Oil filter | Cabin filter | Coolant | Tires | exhaust pipes | Sale of accessories | Air-conditioning | Exterior washing | Interior wash | Interior cleaning with ozone | Pre ITV | Air-conditioning | Exterior washing | Interior wash | Interior cleaning with ozone | Pre ITV |,,,,https://www.vulco.es/
abc,ESP,Tyre Service,Vulco,TALLERES SAN CRISTOBAL,"Pº del Cordon, 102 ",Villarubia de los Ojos,13670,926896227,34913291015,https://www.vulco.es/talleres-san-cristobal/,,| Wheel alignment | Change Tires | Tire balancing | Inflated with nitrogen | Puncture proof tires | Wheel alignment | Change Tires | Tire balancing | Inflated with nitrogen | Puncture proof tires | Changing shock absorbers | Brake discs | Windshield wiper blades | Brake pads | Headlight adjustment | Changing shock absorbers | Brake discs | Windshield wiper blades | Brake pads | Headlight adjustment | Battery | Oil change | Timing belt | Oil filter | Cabin filter | Coolant | Exhaust pipes | Sale of accessories | Battery | Oil change | timing belt | Oil filter | Cabin filter | Coolant | Exhaust pipes | Sale of accessories | Air-conditioning | Interior cleaning with ozone | Pre ITV | Air-conditioning | Interior cleaning with ozone | Pre ITV | Parking | Parking familiar | Parking | Parking familiar |,,,,https://www.vulco.es/
abc,ESP,Tyre Service,Vulco,NTCOS. HERMANOS TARIFA,"Avenida de Belén, 8 ",Cabra,14940,957520157|652825020,34913291015,https://www.vulco.es/ntcos-hermanos-tarifa/,,| Wheel alignment | Change Tires | Tire balancing | Nitrogen inflation | Puncture proof tires | Steering alignment | Change Tires | Tire balancing | Inflated with nitrogen | Puncture proof tires | Changing shock absorbers | Brake discs | Windshield wiper blades | Brake pads | Changing shock absorbers | brake discs | Windshield wiper blades | brake pads | Battery | Oil change | Oil filter | Cabin filter | Coolant | Tires | Exhaust pipes | Sale of accessories | Battery | Oil change | Oil filter | Cabin filter | Coolant | Tires | exhaust pipes | Sale of accessories | Interior cleaning with ozone | Interior cleaning with ozone | Free WiFi | Parking | Suitable for babies | Suitable for animals | Free WiFi | Parking | Suitable for babies | Suitable for animals |,,,,https://www.vulco.es/
abc,ESP,Tyre Service,Vulco,TALLERES FRANCISCO REPISO,"Carretera Palma del Río, Km. 14 ",Villarrubia,14710,957458296,34913291015,https://www.vulco.es/talleres-francisco-repiso/,,| Wheel alignment | Change Tires | Tire balancing | Inflated with nitrogen | Puncture proof tires | Wheel alignment | Change Tires | Tire balancing | Inflated with nitrogen | Puncture proof tires | Changing shock absorbers | Brake discs | Windshield wiper blades | Brake pads | Headlight adjustment | Changing shock absorbers | Brake discs | Windshield wiper blades | Brake pads | Headlight adjustment | Battery | Oil change | Timing belt | Oil filter | Cabin filter | Coolant | Tires | Exhaust pipes | Sale of accessories | Battery | Oil change | Timing belt | Oil filter | Cabin filter | Coolant | Tires | Exhaust pipes | Sale of accessories | Air-conditioning | Pre ITV | Air-conditioning | Pre ITV |,,,,https://www.vulco.es/
abc,ESP,Tyre Service,Vulco,NEUMATICOS ALCAZAR,Carretera Madrid - Valencia KM 82 ,Tarancón,16400,969320330,34913291015,https://www.vulco.es/neumaticos-alcazar/,,| Wheel alignment | Change Tires | Tire balancing | Puncture proof tires | Wheel alignment | Change Tires | Tire balancing | Puncture proof tires | Changing shock absorbers | Brake discs | Windshield wiper blades | Brake pads | Changing shock absorbers | Brake discs | Wiper blades | Brake pads | Battery | Oil change | Oil filter | Cabin filter | Coolant | Exhaust pipes | Battery | Oil change | Oil filter | Cabin filter | Coolant | Exhaust pipes | Exterior washing | Interior wash | Pre ITV | Exterior washing | Interior wash | Pre ITV |,,,,https://www.vulco.es/
abc,ESP,Tyre Service,Vulco,TOT RODÓ,"Carrer Nou, 237 ",Figueres,17600,972505666,34913291015,https://www.vulco.es/tot-rodo/,,| Wheel alignment | Change Tires | Tire balancing | Nitrogen inflation | Puncture proof tires | Wheel alignment | Change Tires | Tire balancing | Inflated with nitrogen | Puncture proof tires | Change of shock absorbers | Brake discs | Windshield wiper blades | Brake pads | Headlight adjustment | Changing shock absorbers | Brake discs | Windshield wiper blades | Brake pads | Headlight adjustment | Battery | Oil change | Timing belt | Oil filter | Cabin filter | Coolant | Tires | Exhaust pipes | Sale of accessories | Battery | Oil change | Timing belt | Oil filter | Cabin filter | Coolant | Tires | Exhaust pipes | Sale of accessories | Air-conditioning | Exterior washing | Interior wash | Pre ITV | Replacement vehicle | Air-conditioning | Exterior washing | Interior wash | Pre ITV | Replacement vehicle |,,,,https://www.vulco.es/
abc,ESP,Tyre Service,Vulco,NEUMÁTICOS AUTOCENTER ALHENDÍN,"Camino de Vedril, 2 Bajo 1",Alhendín,18620,958964575,34913291015,https://www.vulco.es/neumaticos-autocenter-alhendin/,,| Steering alignment | Change Tires | Tire balancing | Puncture proof tires | Wheel alignment | Change Tires | Tire balancing | Puncture proof tires | Changing shock absorbers | Brake discs | Windshield wiper blades | Brake pads | Changing shock absorbers | Brake discs | Windshield wiper blades | Brake pads | Battery | Oil change | Cabin filter | Coolant | Tires | Exhaust pipes | Sale of accessories | Battery | Oil change | Cabin filter | Coolant | Tires | Exhaust pipes | Sale of accessories |,,,,https://www.vulco.es/
abc,ESP,Tyre Service,Vulco,NEUMÁTICOS GALERA,"Calle Francisca Bustos, 7 ",Huéscar,18830,958740067|647852697,34913291015,https://www.vulco.es/neumaticos-galera/,,| Wheel alignment | Change Tires | Tire balancing | Puncture proof tires | Wheel alignment | Change Tires | Tire balancing | Puncture proof tires | Changing shock absorbers | Brake discs | Windshield wiper blades | Brake pads | Headlight adjustment | Changing shock absorbers | Brake discs | Windshield wiper blades | brake pads | Headlight adjustment | Battery | Oil change | Timing belt | Oil filter | Cabin filter | Coolant | Tires | Exhaust pipes | Sale of accessories | Battery | Oil change | Timing belt | Oil filter | Cabin filter | Coolant | Tires | Exhaust pipes | Sale of accessories | Air-conditioning | Exterior washing | Interior wash | Interior cleaning with ozone | Pre ITV | Mobile Workshop Unit | Air-conditioning | Exterior washing | Interior wash | Interior cleaning with ozone | Pre ITV | Mobile Workshop Unit |,,,,https://www.vulco.es/
abc,ESP,Tyre Service,Vulco,NEUMÁTICOS ANTONIO GOMEZ GAMIZ,"Carretera de Granada a Sevilla, s/n 2",Huetor Tajar,18360,958333060,958333060,https://www.vulco.es/neumaticos-antonio-gomez-gamiz/,,| Change Tires | Wheel alignment | Tire balancing | Anti-puncture tires | Change Tires | Wheel alignment | Tire balancing | Puncture proof tires | Windshield wiper blades | Wiper blades | Tires | Sale of accessories | Tires | Sale of accessories | Mobile Workshop Unit | Mobile Workshop Unit | Waiting room | Free WiFi | TV | Suitable for babies | Suitable for animals | Children's Corner | Parking for people with disabilities | Waiting room | Free WiFi | TV | Suitable for babies | Animal friendly | Children's Corner | Parking for people with disabilities |,,,,https://www.vulco.es/
abc,ESP,Tyre Service,Vulco,ZUBIRUEDA,"C/ Junco nº 5, Bajo 6 ",La Zubia,18140,958590869,34913291015,https://www.vulco.es/zubirueda/,,| Wheel alignment | Change Tires | Tire balancing | Puncture proof tires | Wheel alignment | Change Tires | Tire balancing | Puncture proof tires | Changing shock absorbers | Brake discs | Windshield wiper blades | Brake pads | Changing shock absorbers | Brake discs | Windshield wiper blades | Brake pads | Battery | Oil change | Oil filter | Cabin filter | Tires | exhaust pipes | Sale of accessories | Battery | Oil change | Oil filter | Cabin filter | Tires | Exhaust pipes | Sale of accessories | Complimentary drinks | Free WiFi | Complimentary drinks | Free WiFi |,,,,https://www.vulco.es/
abc,ESP,Tyre Service,Vulco,NEUMÁTICOS ARTILLO,"Carretera de Almería km 1, 4 ",Motril,18600,958600103|652936823,34913291015,https://www.vulco.es/neumaticos-artillo/,,| Change Tires | Wheel alignment | Change Tires | Wheel alignment | Changing shock absorbers | Brake discs | Changing shock absorbers | Brake discs | Oil change | exhaust pipes | Battery | Oil change | Exhaust pipes | Battery |,,,,https://www.vulco.es/
abc,ESP,Tyre Service,Vulco,NEUMATICOS EMILIO ARROYAL GAMARRA E HIJOS,"Prolongación Avda.de America Km.444, s/n ",Santa Fé,18320,958440832|619049402,34913291015,https://www.vulco.es/neumaticos-emilio-arroyal-gamarra-e-hijos/,,| Wheel alignment | Change Tires | Tire balancing | Inflated with nitrogen | Puncture proof tires | Wheel alignment | Change Tires | Tire balancing | Inflated with nitrogen | Puncture proof tires | Changing shock absorbers | Brake discs | Windshield wiper blades | Brake pads | Headlight adjustment | Changing shock absorbers | Brake discs | Windshield wiper blades | Brake pads | Headlight adjustment | Battery | Oil change | Timing belt | Oil filter | Cabin filter | Coolant | Tires | Exhaust pipes | Sale of accessories | Battery | Oil change | Timing belt | Oil filter | Cabin filter | Coolant | Tires | Exhaust pipes | Sale of accessories | Pre ITV | Replacement vehicle | Pre ITV | Replacement vehicle |,,,,https://www.vulco.es/
abc,ESP,Tyre Service,Vulco,NEUMATICOS PERMON,"C/ ZARAGOZA,, 36 ",Guadalajara,19005,949214521,34913291015,https://www.vulco.es/neumaticos-permon/,,| Wheel alignment | Change Tires | Tire balancing | Puncture proof tires | Wheel alignment | Change Tires | Tire balancing | Puncture proof tires | Changing shock absorbers | Brake discs | Windshield wiper blades | Brake pads | Headlight adjustment | Changing shock absorbers | Brake discs | Windshield wiper blades | Brake pads | Headlight adjustment | Battery | Oil change | Timing belt | Oil filter | Cabin filter | Coolant | Exhaust pipes | Sale of accessories | Battery | Oil change | Timing belt | Oil filter | Cabin filter | Coolant | Exhaust pipes | Sale of accessories | Pre ITV | Pre ITV |,,,,https://www.vulco.es/
abc,ESP,Tyre Service,Vulco,NEUMATICOS IRUÑA (ANOETA),"Errota Industrigunea Pol., 5F ",Anoeta,20270,943654608,34913291015,https://www.vulco.es/neumaticos-iruna-anoeta/,,| Wheel alignment | Change Tires | Tire balancing | Inflated with nitrogen | Puncture proof tires | Wheel alignment | Change Tires | Tire balancing | Inflated with nitrogen | Puncture proof tires | Changing shock absorbers | Brake discs | Windshield wiper blades | Brake pads | Headlight adjustment | Changing shock absorbers | Brake discs | Windshield wiper blades | Brake pads | Headlight adjustment | Battery | Oil change | Timing belt | Oil filter | Cabin filter | Coolant liquid | Tires | Exhaust pipes | Sale of accessories | Battery | Oil change | Timing belt | Oil filter | Cabin filter | Coolant liquid | Tires | Exhaust pipes | Sale of accessories | Pre ITV | Pre ITV | Waiting room | Parking | Waiting room | Parking |,,,,https://www.vulco.es/
abc,ESP,Tyre Service,Vulco,BERGARA PNEUMATIKOAK,"C/ LEIZEAGA KALEA, 1B ",Bergara,20570,943763627,34913291015,https://www.vulco.es/bergara-pneumatikoak/,,| Wheel alignment | Change Tires | Tire balancing | Anti-puncture tires | Wheel alignment | Change Tires | Tire balancing | Puncture proof tires | Changing shock absorbers | Brake discs | Windshield wiper blades | Brake pads | Headlight adjustment | Changing shock absorbers | Brake discs | Windshield wiper blades | Brake pads | Headlight adjustment | Battery | Oil change | Timing belt | Oil filter | Cabin filter | Coolant | Tires | Exhaust pipes | Sale of accessories | Battery | Oil change | Timing belt | Oil filter | Cabin filter | Coolant | Tires | Exhaust pipes | Sale of accessories | Air-conditioning | Pre ITV | Replacement vehicle | Air-conditioning | Pre ITV | Replacement vehicle |,,,,https://www.vulco.es/
abc,ESP,Tyre Service,Vulco,NEUMATICOS IRUÑA (IDIAZABAL),"Poligono Industrial Errota, 12 ",Idiazabal,20213,943187257,34913291015,https://www.vulco.es/neumaticos-iruna-idiazabal/,,| Wheel alignment | Change Tires | Tire balancing | Puncture proof tires | Wheel alignment | Change Tires | Tire balancing | Puncture proof tires | Windshield wiper blades | Brake pads | Windshield wiper blades | Brake pads | Battery | Oil change | Oil filter | Cabin filter | Coolant | Tires | Exhaust pipes | Sale of accessories | Battery | Oil change | Oil filter | Cabin filter | Coolant liquid | Tires | Exhaust pipes | Sale of accessories | Mobile Workshop Unit | Mobile Workshop Unit | Waiting room | Parking | Waiting room | Parking |,,,,https://www.vulco.es/
abc,ESP,Tyre Service,Vulco,NEUMÁTICOS IRUÑA (IRUN),"Calle Auzolan, 42 (Alto de Arretxe)",Irún,20300,943628521,943628721,https://www.vulco.es/neumaticos-iruna-irun/,,| Wheel alignment | Change Tires | Tire balancing | Inflated with nitrogen | Puncture proof tires | Wheel alignment | Change Tires | Tire balancing | Inflated with nitrogen | Puncture proof tires | Changing shock absorbers | Brake discs | Windshield wiper blades | Brake pads | Headlight adjustment | Changing shock absorbers | Brake discs | Windshield wiper blades | Brake pads | Headlight adjustment | Battery | Oil change | Timing belt | Oil filter | Cabin filter | Coolant | Tires | exhaust pipes | Sale of accessories | Battery | Oil change | timing belt | Oil filter | Cabin filter | Coolant | Tires | Exhaust pipes | Sale of accessories | Air-conditioning | Pre ITV | Air-conditioning | Pre ITV |,,,,https://www.vulco.es/
abc,ESP,Tyre Service,Vulco,NEUMATICOS KURSAAL,"Calle de Zurriola, 42 Zurriola",San Sebastián,20002,943278537,943291003,https://www.vulco.es/neumaticos-kursaal/,,| Wheel alignment | Change Tires | Tire balancing | Inflated with nitrogen | Puncture proof tires | Wheel alignment | Change Tires | Tire balancing | Inflated with nitrogen | Puncture proof tires | Changing shock absorbers | Brake discs | Windshield wiper blades | Brake pads | Headlight adjustment | Changing shock absorbers | Brake discs | Windshield wiper blades | Brake pads | Headlight adjustment | Battery | Oil change | Timing belt | Oil filter | Cabin filter | Coolant | Tires | Exhaust pipes | Sale of accessories | Battery | Oil change | Timing belt | Oil filter | Cabin filter | Coolant | Tires | Exhaust pipes | Sale of accessories | Air-conditioning | Exterior washing | Pre ITV | Air-conditioning | Exterior washing | Pre ITV |,,,,https://www.vulco.es/
abc,ESP,Tyre Service,Vulco,NEUMÁTICOS IRUÑA (SAN SEBASTIAN),"Plaza de Iruresoro, 17 Eguia",San Sebastián,20012,943274396,943297003,https://www.vulco.es/neumaticos-iruna-san-sebastian/,,| Wheel alignment | Change Tires | Tire balancing | Inflated with nitrogen | Puncture proof tires | Wheel alignment | Change Tires | Tire balancing | Inflated with nitrogen | Puncture proof tires | Changing shock absorbers | brake discs | Windshield wiper blades | Brake pads | Headlight adjustment | Changing shock absorbers | Brake discs | Windshield wiper blades | Brake pads | Headlight adjustment | Battery | Oil change | Timing belt | Oil filter | Cabin filter | Coolant | Tires | Exhaust pipes | Sale of accessories | Battery | Oil change | timing belt | Oil filter | Cabin filter | Coolant | Tires | Exhaust pipes | Sale of accessories | Air-conditioning | Pre ITV | Air-conditioning | Pre ITV |,,,,https://www.vulco.es/
abc,ESP,Tyre Service,Vulco,ZUMAIA PNEUMATIKOAK,"Santiago Auzoa, 22 ",Zumaia,20750,943143143,34913291015,https://www.vulco.es/zumaia-pneumatikoak/,,| Wheel alignment | Change Tires | Tire balancing | Puncture proof tires | Wheel alignment | Change Tires | Tire balancing | Puncture proof tires | Changing shock absorbers | Brake discs | Windshield wiper blades | Brake pads | Headlight adjustment | Changing shock absorbers | Brake discs | Windshield wiper blades | Brake pads | Headlight adjustment | Battery | Oil change | Timing belt | Oil filter | Cabin filter | Coolant | Tires | Exhaust pipes | Sale of accessories | Battery | Oil change | Timing belt | Oil filter | Cabin filter | Coolant | Tires | Exhaust pipes | Sale of accessories | Air-conditioning | Exterior washing | Interior wash | Pick & Drop | Pre ITV | Replacement vehicle | Air-conditioning | Exterior wash | Interior wash | Pick & Drop | Pre ITV | Replacement vehicle | Parking | Suitable for animals | Parking | Suitable for animals |,,,,https://www.vulco.es/
abc,ESP,Tyre Service,Vulco,NEUMATICOS J.ARAGON,"Poligono Industrial Sobrarbe Naves 13, 14",Ainsa,22330,974500248|649845442,34913291015,https://www.vulco.es/neumaticos-j-aragon/,,| Wheel alignment | Change Tires | Tire balancing | Inflated with nitrogen | Puncture proof tires | Wheel alignment | Change Tires | Tire balancing | Inflated with nitrogen | Anti-puncture tires | Brake discs | Windshield wiper blades | Brake pads | Brake discs | Wiper blades | Brake pads | Battery | Oil change | Oil filter | Cabin filter | Sale of accessories | Battery | Oil change | Oil filter | Cabin filter | Sale of accessories | Replacement vehicle | Replacement vehicle |,,,,https://www.vulco.es/
abc,ESP,Tyre Service,Vulco,NEUMÁTICOS Y SERVICIOS LOYPE,"C/ La Bobila, 10 P.I. de La Cerámica",Barbastro,22300,974311725|675585145,34913291015,https://www.vulco.es/neumaticos-y-servicios-loype/,,| Steering alignment | Change Tires | Tire balancing | Anti-puncture tires | Wheel alignment | Change Tires | Tire balancing | Puncture proof tires | Changing shock absorbers | Brake discs | Windshield wiper blades | Brake pads | Changing shock absorbers | Brake discs | Windshield wiper blades | Brake pads | Battery | Oil change | Oil filter | Cabin filter | Coolant | Tires | Exhaust pipes | Battery | Oil change | Oil filter | Cabin filter | Coolant | Tires | Exhaust pipes | Financing | Pre ITV | Mobile Workshop Unit | Financing | Pre ITV | Mobile Workshop Unit |,,,,https://www.vulco.es/
abc,ESP,Tyre Service,Vulco,NEUMÁTICOS PALLAS,"De Miguel Cuervo Radigales, 9 ",Graus,22430,974540836,34913291015,https://www.vulco.es/neumaticos-pallas/,,| Change Tires | Wheel alignment | Change Tires | Wheel alignment |,,,,https://www.vulco.es/
abc,ESP,Tyre Service,Vulco,TALLERES MURILLO,"Jose Maria Peñaranda esquina Valle del Cinca, s/n Polígono Industrial Paules 71",Monzón,22400,974402012|615992463,34913291015,https://www.vulco.es/talleres-murillo/,,| Steering alignment | Change Tires | Tire balancing | Inflated with nitrogen | Puncture proof tires | Wheel alignment | Change Tires | Tire balancing | Inflated with nitrogen | Puncture proof tires | Changing shock absorbers | Brake discs | Windshield wiper blades | Brake pads | Headlight adjustment | Changing shock absorbers | Brake discs | Windshield wiper blades | Brake pads | Headlight adjustment | Battery | Oil change | Timing belt | Oil filter | Cabin filter | Coolant | Tires | Exhaust pipes | Sale of accessories | Battery | Oil change | Timing belt | Oil filter | Cabin filter | Coolant | Tires | Exhaust pipes | Sale of accessories | Air-conditioning | Exterior washing | Interior wash | Interior cleaning with ozone | Pick & Drop | Pre ITV | Mobile Workshop Unit | Replacement vehicle | Air-conditioning | Exterior washing | Interior wash | Interior cleaning with ozone | Pick & Drop | Pre ITV | Mobile Workshop Unit | Replacement vehicle |,,,,https://www.vulco.es/
abc,ESP,Tyre Service,Vulco,EIVISSA LAN,"Avenida Sant Josep de Sa Talaia, 59 Nave 3",Eivissa,07800,971394554,34913291015,https://www.vulco.es/eivissa-lan/,,| Wheel alignment | Change Tires | Tire balancing | Puncture proof tires | Wheel alignment | Change Tires | Tire balancing | Puncture proof tires | Changing shock absorbers | Brake discs | Windshield wiper blades | Brake pads | Headlight adjustment | Changing shock absorbers | Brake discs | Windshield wiper blades | Brake pads | Headlight adjustment | Battery | Oil change | Timing belt | Oil filter | Cabin filter | Coolant | Tires | Exhaust pipes | Battery | Oil change | timing belt | Oil filter | Cabin filter | Coolant | Tires | Exhaust pipes | Air-conditioning | Exterior washing | Interior wash | Pre ITV | Air-conditioning | Exterior washing | Interior wash | Pre ITV |,,,,https://www.vulco.es/
abc,ESP,Tyre Service,Vulco,PNEUMATICS SERVERA,"C/ Ronda Migjorn, 127 ",Llucmajor,07620,971660089|971660463,34913291015,https://www.vulco.es/pneumatics-servera/,,| Wheel alignment | Change Tires | Tire balancing | Puncture proof tires | Wheel alignment | Change Tires | Tire balancing | Puncture proof tires | Changing shock absorbers | Brake discs | Windshield wiper blades | Brake pads | Headlight adjustment | Changing shock absorbers | Brake discs | Windshield wiper blades | brake pads | Headlight adjustment | Battery | Oil change | Timing belt | Oil filter | Cabin filter | Coolant | Exhaust pipes | Sale of accessories | Battery | Oil change | Timing belt | Oil filter | Cabin filter | Coolant | Exhaust pipes | Sale of accessories | Air-conditioning | Pre ITV | Mobile Workshop Unit | Air-conditioning | Pre ITV | Mobile Workshop Unit |,,,,https://www.vulco.es/
abc,ESP,Tyre Service,Vulco,PNEUMATICS CIUTADELLA,"Dels Ferrers Poligono Industrial Ciutadella, 12 ",Menorca,07760,971384308|609921510,34913291015,https://www.vulco.es/pneumatics-ciutadella/,,| Wheel alignment | Change Tires | Tire balancing | Inflated with nitrogen | Puncture proof tires | Wheel alignment | Change Tires | Tire balancing | Nitrogen inflation | Puncture proof tires | Changing shock absorbers | Brake discs | Windshield wiper blades | Brake pads | Headlight adjustment | Changing shock absorbers | Brake discs | Windshield wiper blades | Brake pads | Headlight adjustment | Battery | Oil change | Timing belt | Oil filter | Cabin filter | Coolant | Tires | Exhaust pipes | Battery | Oil change | Timing belt | Oil filter | Cabin filter | Coolant | Tires | Exhaust pipes | Air-conditioning | Pre ITV | Air-conditioning | Pre ITV | Waiting room | Free WiFi | Parking | Waiting room | Free WiFi | Parking |,,,,https://www.vulco.es/
abc,ESP,Tyre Service,Vulco,TALLERES CARDONA,P.I.Son Castelló,Palma de Mallorca,07009,971751899,971757802,https://www.vulco.es/talleres-cardona/,,| Wheel alignment | Change Tires | Tire balancing | Anti-puncture tires | Wheel alignment | Change Tires | Tire balancing | Puncture proof tires | Change of shock absorbers | brake discs | Windshield wiper blades | Brake pads | Headlight adjustment | Changing shock absorbers | Brake discs | Windshield wiper blades | Brake pads | Headlight adjustment | Battery | Oil change | Timing belt | Oil filter | Cabin filter | Coolant | Tires | Exhaust pipes | Sale of accessories | Battery | Oil change | Timing belt | Oil filter | Cabin filter | Coolant | Tires | Exhaust pipes | Sale of accessories | Pre ITV | Pre ITV |,,,,https://www.vulco.es/
abc,ESP,Tyre Service,Vulco,NEUMATICOS FEMENIA,"Calle de Juan Alcover, 1 ",Palma Nova,07181,971683583,34913291015,https://www.vulco.es/neumaticos-femenia/,,| Change Tires | Tire balancing | Anti-puncture tires | Change Tires | Tire balancing | Puncture proof tires | Tires | Tires |,,,,https://www.vulco.es/
abc,ESP,Tyre Service,Vulco,AUTOCENTRO M.G.,"Avenida de Juan Carlos I, 45 ",Peal Becerro,23460,953730252,34913291015,https://www.vulco.es/autocentro-m-g/,,| Wheel alignment | Change Tires | Tire balancing | Inflated with nitrogen | Anti-puncture tires | Wheel alignment | Change Tires | Tire balancing | Inflated with nitrogen | Puncture proof tires | Changing shock absorbers | Brake discs | Windshield wiper blades | Brake pads | Headlight adjustment | Changing shock absorbers | Brake discs | Windshield wiper blades | Brake pads | Headlight adjustment | Battery | Oil change | timing belt | Oil filter | Cabin filter | Coolant | Tires | Exhaust pipes | Sale of accessories | Battery | Oil change | Timing belt | Oil filter | Cabin filter | Coolant | Tires | Exhaust pipes | Sale of accessories | Air-conditioning | Exterior washing | Interior wash | Pre ITV | Mobile Workshop Unit | Air-conditioning | Exterior washing | Interior wash | Pre ITV | Mobile Workshop Unit |,,,,https://www.vulco.es/
abc,ESP,Tyre Service,Vulco,NEUMATICOS CAVILA,P.I. Los Cerros,Úbeda,23400,953756141,953756141,https://www.vulco.es/neumaticos-cavila/,,| Wheel alignment | Change Tires | Tire balancing | Inflated with nitrogen | Puncture proof tires | Wheel alignment | Change Tires | Tire balancing | Inflated with nitrogen | Puncture proof tires | Changing shock absorbers | Brake discs | Windshield wiper blades | Brake pads | Headlight adjustment | Changing shock absorbers | Brake discs | Windshield wiper blades | Brake pads | Headlight adjustment | Battery | Oil change | Timing belt | Oil filter | Cabin filter | Coolant | Tires | Exhaust pipes | Sale of accessories | Battery | Oil change | Timing belt | Oil filter | Cabin filter | Coolant | Tires | Exhaust pipes | Sale of accessories | Air-conditioning | Exterior washing | Interior wash | Pre ITV | Replacement vehicle | Air-conditioning | Exterior washing | Interior wash | Pre ITV | Replacement vehicle |,,,,https://www.vulco.es/
abc,ESP,Tyre Service,Vulco,SALCO TALLERES LEDOÑO,"C/ Alcalde José Aldao Limia, 2-3 Ctro. Log. Tte. Ledoño",A Coruña,15199,981101776|672035953,34913291015,https://www.vulco.es/salco-talleres-ledono/,,| Wheel alignment | Change Tires | Tire balancing | Puncture proof tires | Wheel alignment | Change Tires | Tire balancing | Puncture proof tires | Changing shock absorbers | Brake discs | Wiper blades | Brake pads | Changing shock absorbers | Brake discs | Windshield wiper blades | Brake pads | Battery | Oil change | Oil filter | Cabin filter | Coolant | Tires | Exhaust pipes | Sale of accessories | Battery | Oil change | Oil filter | Cabin filter | Coolant | Tires | Exhaust pipes | Sale of accessories |,,,,https://www.vulco.es/
abc,ESP,Tyre Service,Vulco,NEUMATICOS MAS Q RUEDAS,"Ronda de Outeiro, 27 Bajo",A Coruña,15009,981132275,981132275,https://www.vulco.es/neumaticos-mas-q-ruedas/,,| Wheel alignment | Change Tires | Tire balancing | Inflated with nitrogen | Puncture proof tires | Wheel alignment | Change Tires | Tire balancing | Inflated with nitrogen | Puncture proof tires | Change of shock absorbers | Brake discs | Wiper blades | Brake pads | Changing shock absorbers | Brake discs | Windshield wiper blades | Brake pads | Battery | Oil change | Timing belt | Oil filter | Cabin filter | Coolant | Tires | Exhaust pipes | Sale of accessories | Battery | Oil change | Timing belt | Oil filter | Cabin filter | Coolant | Tires | Exhaust pipes | Sale of accessories |,,,,https://www.vulco.es/
abc,ESP,Tyre Service,Vulco,NEUMATICOS DEPOR-CAR,"Rúa Rodrigo Alfredo de Santiago, Bajo drcha. Bajo derecha",A Coruña,15010,981925396,34913291015,https://www.vulco.es/neumaticos-depor-car/,,| Wheel alignment | Change Tires | Wheel alignment | Change Tires | Changing shock absorbers | Brake discs | Brake pads | Changing shock absorbers | Brake discs | Brake pads | Oil change | Oil filter | Tires | Exhaust pipes | Oil change | Oil filter | Tires | exhaust pipes | Air-conditioning | Air-conditioning |,,,,https://www.vulco.es/
abc,ESP,Tyre Service,Vulco,SALCO TALLERES ARTEIXO,"Avenida del Alcalde Manuel Platas Varela, 203C ",Arteixo,15142,981602257,34913291015,https://www.vulco.es/salco-talleres-arteixo/,,| Change Tires | Change Tires |,,,,https://www.vulco.es/
abc,ESP,Tyre Service,Vulco,E.S. GARLOU,"Calle de Cimadevila, 14 ",Boiro,15930,630050884,981846980,https://www.vulco.es/e-s-garlou/,,| Wheel alignment | Change Tires | Tire balancing | Inflated with nitrogen | Anti-puncture tires | Wheel alignment | Change Tires | Tire balancing | Inflated with nitrogen | Puncture proof tires | Changing shock absorbers | Brake discs | Windshield wiper blades | Brake pads | Headlight adjustment | Changing shock absorbers | Brake discs | Windshield wiper blades | Brake pads | Headlight adjustment | Battery | Oil change | Timing belt | Oil filter | Cabin filter | Coolant | Battery | Oil change | Timing belt | Oil filter | Cabin filter | Coolant | Air-conditioning | Replacement vehicle | Air-conditioning | Replacement vehicle |,,,,https://www.vulco.es/
abc,ESP,Tyre Service,Vulco,SALCO TALLERES CARBALLO,"Ctra. AC-552, Km 28 Bertoa",Carballo,15108,635702986,34913291015,https://www.vulco.es/salco-talleres-carballo/,,| Change Tires | Change Tires |,,,,https://www.vulco.es/
abc,ESP,Tyre Service,Vulco,SALCO TALLERES FERROL,"Carretera Catabois, 762 -Ferrol",Catabois,15405,981104537,34913291015,https://www.vulco.es/salco-talleres-ferrol/,,| Wheel alignment | Change Tires | Tire balancing | Puncture proof tires | Wheel alignment | Change Tires | Tire balancing | Puncture proof tires | Changing shock absorbers | Brake discs | Brake pads | Changing shock absorbers | Brake discs | Brake pads | Battery | Oil change | Oil filter | Tires | Exhaust pipes | Sale of accessories | Battery | Oil change | Oil filter | Tires | Exhaust pipes | Sale of accessories |,,,,https://www.vulco.es/
abc,ESP,Tyre Service,Vulco,NEUMATICOS ARES,"Travesia de Orillamar, 5 ",La Coruña,15001,981221188,34913291015,https://www.vulco.es/neumaticos-ares/,,| Wheel alignment | Change Tires | Tire balancing | Inflated with nitrogen | Puncture proof tires | Wheel alignment | Change Tires | Tire balancing | Inflated with nitrogen | Puncture proof tires | Changing shock absorbers | brake discs | Windshield wiper blades | Brake pads | Headlight adjustment | Changing shock absorbers | Brake discs | Windshield wiper blades | brake pads | Headlight adjustment | Battery | Oil change | Timing belt | Oil filter | Cabin filter | Coolant | Tires | Exhaust pipes | Battery | Oil change | Timing belt | Oil filter | Cabin filter | Coolant | Tires | Exhaust pipes | Air-conditioning | Pre ITV | Air-conditioning | Pre ITV |,,,,https://www.vulco.es/
abc,ESP,Tyre Service,Vulco,NEUMÁTICOS MELIDE,"Avenida de Lugo, 115 ",Melide,15800,981505157,34913291015,https://www.vulco.es/neumaticos-melide/,,| Steering alignment | Change Tires | Tire balancing | Inflated with nitrogen | Puncture proof tires | Steering alignment | Change Tires | Tire balancing | Inflated with nitrogen | Puncture proof tires | Changing shock absorbers | brake discs | Windshield wiper blades | brake pads | Changing shock absorbers | brake discs | Windshield wiper blades | Brake pads | Battery | Oil change | Timing belt | Oil filter | Cabin filter | Coolant | Tires | Exhaust pipes | Sale of accessories | Battery | Oil change | Timing belt | Oil filter | Cabin filter | Coolant | Tires | Exhaust pipes | Sale of accessories | Pre ITV | Pre ITV |,,,,https://www.vulco.es/
abc,ESP,Tyre Service,Vulco,SALCO TALLERES NARON,"Avda. Gonzalo Navarro, 58 - 59 P.I. Do Pozo",Narón,15578,981101760,34913291015,https://www.vulco.es/salco-talleres-naron/,,| Wheel alignment | Change Tires | Tire balancing | Puncture proof tires | Wheel alignment | Change Tires | Tire balancing | Puncture proof tires | Change of shock absorbers | Brake discs | Windshield wiper blades | Brake pads | Headlight adjustment | Change of shock absorbers | Brake discs | Windshield wiper blades | Brake pads | Headlight adjustment | Battery | Oil change | Timing belt | Oil filter | Cabin filter | Coolant | Tires | Battery | Oil change | Timing belt | Oil filter | Cabin filter | Coolant | Tires | Air-conditioning | Exterior washing | Interior wash | Air-conditioning | Exterior wash | Interior wash |,,,,https://www.vulco.es/
abc,ESP,Tyre Service,Vulco,NEUMÁTICOS PINAQUE,"Avenida da Mestra Victoria Míguez, 129 ",Santiago,15706,981522595,981522595,https://www.vulco.es/neumaticos-pinaque/,,| Wheel alignment | Change Tires | Tire balancing | Inflated with nitrogen | Puncture proof tires | Wheel alignment | Change Tires | Tire balancing | Inflated with nitrogen | Puncture proof tires | Changing shock absorbers | Brake discs | Windshield wiper blades | Brake pads | Changing shock absorbers | Brake discs | Windshield wiper blades | Brake pads | Battery | Oil change | Timing belt | Oil filter | Cabin filter | Coolant | Tires | Exhaust pipes | Sale of accessories | Battery | Oil change | Timing belt | Oil filter | Cabin filter | Coolant | Tires | Exhaust pipes | Sale of accessories | Air-conditioning | Exterior washing | Interior wash | Pre ITV | Air-conditioning | Exterior wash | Interior wash | Pre ITV |,,,,https://www.vulco.es/
abc,ESP,Tyre Service,Vulco,SALCO TALLERES SANTIAGO,"Via Ptolomeo, 8 Pol del Tambre",Santiago de Compostela,15898,981063006,981063007,https://www.vulco.es/salco-talleres-santiago/,,| Wheel alignment | Change Tires | Tire balancing | Puncture proof tires | Steering alignment | Change Tires | Tire balancing | Puncture proof tires | Changing shock absorbers | Brake discs | Windshield wiper blades | Brake pads | Changing shock absorbers | Brake discs | Windshield wiper blades | Brake pads | Battery | Oil change | Oil filter | Cabin filter | Coolant | Tires | Exhaust pipes | Sale of accessories | Battery | Oil change | Oil filter | Cabin filter | Coolant liquid | Tires | Exhaust pipes | Sale of accessories |,,,,https://www.vulco.es/
abc,ESP,Tyre Service,Vulco,NEUMATICOS PONTEVEA,"Rúa Ignacio Varela, 24 Pontevea",Teo,15883,981811675,34913291015,https://www.vulco.es/neumaticos-pontevea/,,| Wheel alignment | Change Tires | Tire balancing | Wheel alignment | Change Tires | Tire balancing | Changing shock absorbers | Brake discs | Brake pads | Changing shock absorbers | Brake discs | Brake pads | Battery | Oil change | Oil filter | Cabin filter | Coolant | Battery | Oil change | Oil filter | Cabin filter | Coolant | Pre ITV | Pre ITV |,,,,https://www.vulco.es/
abc,ESP,Tyre Service,Vulco,SIMA MOTOR,"C/Aurora Infante, 4-6 ",Logroño,26006,941581020,941581020,https://www.vulco.es/sima-motor/,,| Change Tires | Wheel alignment | Change Tires | Wheel alignment | Changing shock absorbers | Brake discs | Changing shock absorbers | Brake discs | Oil change | Exhaust pipes | Battery | Tires | Sale of accessories | Oil change | Exhaust pipes | Battery | Tires | Sale of accessories |,,,,https://www.vulco.es/
abc,ESP,Tyre Service,Vulco,BOLECA (Arinaga),"C/ De La Fragua, 67 Pol. Ind. Arinaga Sector P-3 Norte",Agüimes,35118,928183460,928183517,https://www.vulco.es/boleca-arinaga/,,| Wheel alignment | Change Tires | Tire balancing | Puncture proof tires | Wheel alignment | Change Tires | Tire balancing | Puncture proof tires | Change of shock absorbers | Brake discs | Wiper blades | Brake pads | Changing shock absorbers | Brake discs | Windshield wiper blades | Brake pads | Battery | Oil change | Timing belt | Oil filter | Cabin filter | Coolant | Tires | exhaust pipes | Sale of accessories | Battery | Oil change | Timing belt | Oil filter | Cabin filter | Coolant | Tires | Exhaust pipes | Sale of accessories | Air-conditioning | Financing | Pre ITV | Air-conditioning | Financing | Pre ITV | Waiting room | Suitable for babies | Suitable for animals | Waiting room | Suitable for babies | Suitable for animals |,,,,https://www.vulco.es/
abc,ESP,Tyre Service,Vulco,BOLECA (El Matorral),"C/ Tacha Blanca, 31 Pol. 3 Urb. El Matorral",Antigua,35600,928869088,34913291015,https://www.vulco.es/boleca-el-matorral/,,| Wheel alignment | Change Tires | Tire balancing | Puncture proof tires | Wheel alignment | Change Tires | Tire balancing | Puncture proof tires | Changing shock absorbers | Brake discs | Windshield wiper blades | Brake pads | Changing shock absorbers | brake discs | Windshield wiper blades | Brake pads | Battery | Oil change | Timing belt | Oil filter | Cabin filter | Coolant | Tires | Exhaust pipes | Sale of accessories | Battery | Oil change | Timing belt | Oil filter | Cabin filter | Coolant | Tires | Exhaust pipes | Sale of accessories | Air-conditioning | Financing | Pre ITV | Mobile Workshop Unit | Air-conditioning | Financing | Pre ITV | Mobile Workshop Unit | Waiting room | Waiting room |,,,,https://www.vulco.es/
abc,ESP,Tyre Service,Vulco,BOLECA (Miller Bajo),"C/ Rafaela de Las Casas González, 12 Pol. Ind. Miller",Las Palmas de Gran Canaria,35014,928415977,928183517,https://www.vulco.es/boleca-miller-bajo/,,| Wheel alignment | Change Tires | Tire balancing | Puncture proof tires | Steering alignment | Change Tires | Tire balancing | Puncture proof tires | Changing shock absorbers | Brake discs | Windshield wiper blades | Brake pads | Changing shock absorbers | Brake discs | Windshield wiper blades | Brake pads | Battery | Oil change | Timing belt | Oil filter | Cabin filter | Coolant | Tires | Exhaust pipes | Sale of accessories | Battery | Oil change | Timing belt | Oil filter | Cabin filter | Coolant | Tires | Exhaust pipes | Sale of accessories | Air-conditioning | Financing | Pre ITV | Replacement vehicle | Air-conditioning | Financing | Pre ITV | Replacement vehicle | Waiting room | Waiting room |,,,,https://www.vulco.es/
abc,ESP,Tyre Service,Vulco,BOLECA (El Goro I),"C/ José Maria Millares Sall, 17 Pol. Ind. El Goro",Telde,35219,928653383,34913291015,https://www.vulco.es/boleca-el-goro-i/,,| Wheel alignment | Change Tires | Tire balancing | Anti-puncture tires | Steering alignment | Change Tires | Tire balancing | Puncture proof tires | Changing shock absorbers | Brake discs | Windshield wiper blades | Brake pads | Headlight adjustment | Changing shock absorbers | Brake discs | Windshield wiper blades | Brake pads | Headlight adjustment | Battery | Oil change | Timing belt | Oil filter | Cabin filter | Coolant | Tires | Exhaust pipes | Sale of accessories | Battery | Oil change | Timing belt | Oil filter | Cabin filter | Coolant | Tires | Exhaust pipes | Sale of accessories | Air-conditioning | Financing | Pre ITV | Air-conditioning | Financing | Pre ITV | Waiting room | Waiting room |,,,,https://www.vulco.es/
abc,ESP,Tyre Service,Vulco,BOLECA (El Goro II),"C/ José Maria Millares Sall, 44 Pol. Ind. El Goro",Telde,35219,928700211,34913291015,https://www.vulco.es/boleca-el-goro-ii/,,| Wheel alignment | Change Tires | Tire balancing | Puncture proof tires | Wheel alignment | Change Tires | Tire balancing | Puncture proof tires | Change of shock absorbers | brake discs | Windshield wiper blades | Brake pads | Changing shock absorbers | Brake discs | Windshield wiper blades | Brake pads | Battery | Oil change | Oil filter | Cabin filter | Coolant | Battery | Oil change | Oil filter | Cabin filter | Coolant | Mobile Workshop Unit | Mobile Workshop Unit | Waiting room | Waiting room |,,,,https://www.vulco.es/
abc,ESP,Tyre Service,Vulco,EL TECHA - ASTORGA,"Ctra. Madrid - Coruña, 112 ",Astorga,24700,987616399,34913291015,https://www.vulco.es/el-techa-astorga/,,| Change Tires | Tire balancing | Puncture proof tires | Change Tires | Tire balancing | Puncture proof tires | Changing shock absorbers | Brake discs | Brake pads | Changing shock absorbers | Brake discs | Brake pads | Battery | Oil change | Timing belt | Oil filter | Cabin filter | Coolant | Exhaust pipes | Sale of accessories | Battery | Oil change | Timing belt | Oil filter | Cabin filter | Coolant | Exhaust pipes | Sale of accessories |,,,,https://www.vulco.es/
abc,ESP,Tyre Service,Vulco,NAVALIEGOS MOTOR,"Ctra.La Espina Km.4,5 ",Columbrianos,24490,987419599,987419511,https://www.vulco.es/navaliegos-motor/,,| Steering alignment | Change Tires | Tire balancing | Inflated with nitrogen | Puncture proof tires | Wheel alignment | Change Tires | Tire balancing | Inflated with nitrogen | Puncture proof tires | Changing shock absorbers | Brake discs | Windshield wiper blades | Brake pads | Change of shock absorbers | Brake discs | Windshield wiper blades | Brake pads | Battery | Oil change | Timing belt | Oil filter | Cabin filter | Coolant | Tires | Exhaust pipes | Sale of accessories | Battery | Oil change | Timing belt | Oil filter | Cabin filter | Coolant | Tires | Exhaust pipes | Sale of accessories | Air-conditioning | Pre ITV | Air-conditioning | Pre ITV |,,,,https://www.vulco.es/
abc,ESP,Tyre Service,Vulco,AUTORUEDAS VELMAR,"Plaza Príncipe de Asturias, s/n ",León,24007,987240333|647091980,34913291015,https://www.vulco.es/autoruedas-velmar/,,| Wheel alignment | Change Tires | Tire balancing | Nitrogen inflation | Anti-puncture tires | Wheel alignment | Change Tires | Tire balancing | Inflated with nitrogen | Puncture proof tires | Changing shock absorbers | Brake discs | Windshield wiper blades | Brake pads | Headlight adjustment | Changing shock absorbers | Brake discs | Windshield wiper blades | brake pads | Headlight adjustment | Battery | Oil change | Timing belt | Oil filter | Cabin filter | Coolant | Tires | Exhaust pipes | Battery | Oil change | Timing belt | Oil filter | Cabin filter | Coolant liquid | Tires | Exhaust pipes | Air-conditioning | Pick & Drop | Pre ITV | Replacement vehicle | Air-conditioning | Pick & Drop | Pre ITV | Replacement vehicle |,,,,https://www.vulco.es/
abc,ESP,Tyre Service,Vulco,EL TECHA - LEÓN,"Avda. Europa, 6 ",León,24005,987260496,34913291015,https://www.vulco.es/el-techa-leon/,,| Wheel alignment | Change Tires | Tire balancing | Puncture proof tires | Wheel alignment | Change Tires | Tire balancing | Anti-puncture tires | Change of shock absorbers | Brake discs | Windshield wiper blades | Brake pads | Changing shock absorbers | Brake discs | Windshield wiper blades | Brake pads | Battery | Oil change | Timing belt | Oil filter | Cabin filter | Coolant | Tires | exhaust pipes | Sale of accessories | Battery | Oil change | Timing belt | Oil filter | Cabin filter | Coolant | Tires | Exhaust pipes | Sale of accessories | Air-conditioning | Pre ITV | Mobile Workshop Unit | Replacement vehicle | Air-conditioning | Pre ITV | Mobile Workshop Unit | Replacement vehicle | Waiting room | Free WiFi | TV | Baby friendly | Suitable for animals | Waiting room | Free WiFi | TV | Suitable for babies | Suitable for animals |,,,,https://www.vulco.es/
abc,ESP,Tyre Service,Vulco,EL TECHA - TROBAJO DEL CAMINO,"Ctra. Leon - Astorga, Km 4 ",León,24010,987800220,34913291015,https://www.vulco.es/el-techa-trobajo-del-camino/,,| Wheel alignment | Change Tires | Tire balancing | Puncture proof tires | Wheel alignment | Change Tires | Tire balancing | Puncture proof tires | Changing shock absorbers | Brake discs | Windshield wiper blades | Brake pads | Headlight adjustment | Changing shock absorbers | Brake discs | Windshield wiper blades | brake pads | Headlight adjustment | Battery | Oil change | Timing belt | Oil filter | Cabin filter | Coolant | Tires | Exhaust pipes | Sale of accessories | Battery | Oil change | Timing belt | Oil filter | Cabin filter | Coolant liquid | Tires | Exhaust pipes | Sale of accessories | Air-conditioning | Pre ITV | Mobile Workshop Unit | Replacement vehicle | Air-conditioning | Pre ITV | Mobile Workshop Unit | Replacement vehicle | Waiting room | Free WiFi | TV | Parking | Suitable for babies | Suitable for animals | Parking familiar | Parking for people with disabilities | Waiting room | Free WiFi | TV | Parking | Suitable for babies | Suitable for animals | Parking familiar | Parking for people with disabilities |,,,,https://www.vulco.es/
abc,ESP,Tyre Service,Vulco,NEUMATICOS SANS,"Avda. Lleida, 36 ",Bellpuig,25250,973320061|636983854,34913291015,https://www.vulco.es/neumaticos-sans/,,| Wheel alignment | Change Tires | Tire balancing | Puncture proof tires | Wheel alignment | Change Tires | Tire balancing | Anti-puncture tires | Changing shock absorbers | Brake discs | Windshield wiper blades | Brake pads | Headlight adjustment | Changing shock absorbers | Brake discs | Wiper blades | brake pads | Headlight adjustment | Battery | Oil change | Timing belt | Oil filter | Cabin filter | Coolant | Tires | Exhaust pipes | Sale of accessories | Battery | Oil change | Timing belt | Oil filter | Cabin filter | Coolant | Tires | Exhaust pipes | Sale of accessories | Air-conditioning | Mobile Workshop Unit | Air-conditioning | Mobile Workshop Unit | Waiting room | Parking | Waiting room | Parking |,,,,https://www.vulco.es/
abc,ESP,Tyre Service,Vulco,EUROPEA DE NEUMATICOS,"Carretera LL-11, Km 13 ",Lleida,25191,973201480|636983852,34913291015,https://www.vulco.es/europea-de-neumaticos/,,| Wheel alignment | Change Tires | Tire balancing | Puncture proof tires | Wheel alignment | Change Tires | Tire balancing | Puncture proof tires | Changing shock absorbers | Brake discs | Windshield wiper blades | Brake pads | Headlight adjustment | Change of shock absorbers | brake discs | Windshield wiper blades | Brake pads | Headlight adjustment | Battery | Oil change | Timing belt | Oil filter | Cabin filter | Coolant | Tires | Exhaust pipes | Sale of accessories | Battery | Oil change | Timing belt | Oil filter | Cabin filter | Coolant | Tires | Exhaust pipes | Sale of accessories | Air-conditioning | Pick & Drop | Pre ITV | Air-conditioning | Pick & Drop | Pre ITV | Waiting room | Complimentary drinks | Free WiFi | Waiting room | Complimentary drinks | Free WiFi |,,,,https://www.vulco.es/
abc,ESP,Tyre Service,Vulco,NEUMÁTICOS DOCANDO,"C/ Jose Trapero Pardo, 73 ",Castro de Ribeiras,27260,982310173,34913291015,https://www.vulco.es/neumaticos-docando/,,| Change Tires | Change Tires |,,,,https://www.vulco.es/
abc,ESP,Tyre Service,Vulco,ARIOSA NOROESTE,"Polígono Industrial de Castroverde, 20 CP 16-11 Parcelas 20 y 21",Castroverde,27120,982311361,34913291015,https://www.vulco.es/ariosa-noroeste/,,| Change Tires | Change Tires | Brake discs | Windshield wiper blades | Brake pads | Brake discs | Windshield wiper blades | Brake pads | Oil change | Battery | Coolant | Oil filter | Oil change | Battery | Coolant | Oil filter |,,,,https://www.vulco.es/
abc,ESP,Tyre Service,Vulco,DOCANDO LUGO - CEAO,"Rúa da Industria, 73-74 P.I. do Ceao",Lugo,27003,982207351,34913291015,https://www.vulco.es/docando-lugo-ceao/,,| Wheel alignment | Change Tires | Tire balancing | Inflated with nitrogen | Wheel alignment | Change Tires | Tire balancing | Inflated with nitrogen | Changing shock absorbers | Brake discs | Brake pads | Changing shock absorbers | Brake discs | Brake pads | Oil change | Oil filter | Cabin filter | Tires | exhaust pipes | Oil change | Oil filter | Cabin filter | Tires | Exhaust pipes | Exterior washing | Interior wash | Exterior washing | Interior wash |,,,,https://www.vulco.es/
abc,ESP,Tyre Service,Vulco,DOCANDO LUGO - MURALLA,"C/ Monforte, 20 bajo ",Lugo,27002,982143806,34913291015,https://www.vulco.es/docando-lugo-muralla/,,| Wheel alignment | Change Tires | Tire balancing | Puncture proof tires | Wheel alignment | Change Tires | Tire balancing | Puncture proof tires | Changing shock absorbers | Brake discs | Windshield wiper blades | Brake pads | Changing shock absorbers | Brake discs | Windshield wiper blades | Brake pads | Battery | Oil change | Timing belt | Oil filter | Cabin filter | Coolant | exhaust pipes | Sale of accessories | Battery | Oil change | Timing belt | Oil filter | Cabin filter | Coolant | Exhaust pipes | Sale of accessories | Pick & Drop | Pre ITV | Pick & Drop | Pre ITV | Parking | Parking |,,,,https://www.vulco.es/
abc,ESP,Tyre Service,Vulco,NEUMATICOS DYMAR,"Chantada, 110 Bajo",Monforte de Lemos,27400,982418116,982418116,https://www.vulco.es/neumaticos-dymar/,,| Wheel alignment | Change Tires | Tire balancing | Puncture proof tires | Wheel alignment | Change Tires | Tire balancing | Puncture proof tires | Changing shock absorbers | Brake discs | Windshield wiper blades | brake pads | Changing shock absorbers | Brake discs | Wiper blades | Brake pads | Battery | Oil change | Oil filter | Cabin filter | Coolant | Tires | Exhaust pipes | Sale of accessories | Battery | Oil change | Oil filter | Cabin filter | Coolant liquid | Tires | Exhaust pipes | Sale of accessories | Exterior washing | Interior wash | Exterior washing | Interior wash |,,,,https://www.vulco.es/
abc,ESP,Tyre Service,Vulco,NEUMÁTICOS DAVID II,"Rúa Cabaleiros de Santiago, s/n ",Paradela,27611,982534023,34913291015,https://www.vulco.es/neumaticos-david-ii/,,| Change Tires | Change Tires |,,,,https://www.vulco.es/
abc,ESP,Tyre Service,Vulco,YOKER MOTOR,"Parque Empresarial Barreiros, 61 ",San Cosme de Barreiros,27790,646149150,34913291015,https://www.vulco.es/yoker-motor/,,| Wheel alignment | Change Tires | Tire balancing | Wheel alignment | Change Tires | Tire balancing | Change of shock absorbers | Brake discs | Windshield wiper blades | Brake pads | Headlight adjustment | Change of shock absorbers | Brake discs | Windshield wiper blades | Brake pads | Headlight adjustment | Battery | Oil change | timing belt | Oil filter | Cabin filter | Tires | Exhaust pipes | Battery | Oil change | Timing belt | Oil filter | Cabin filter | Tires | Exhaust pipes | Pre ITV | Pre ITV |,,,,https://www.vulco.es/
abc,ESP,Tyre Service,Vulco,NEUMÁTICOS DAVID,"Rúa Benigno Quiroga, 126 ",Sarria,27600,982534023,34913291015,https://www.vulco.es/neumaticos-david/,,| Change Tires | Wheel alignment | Change Tires | Steering alignment | Change of shock absorbers | Brake discs | Changing shock absorbers | brake discs | Oil change | Exhaust pipes | Battery | Tires | Sale of accessories | Oil change | Exhaust pipes | Battery | Tires | Sale of accessories |,,,,https://www.vulco.es/
abc,ESP,Tyre Service,Vulco,NEUMÁTICOS FORMIGUEIROS,"C/ Formigueiros CB, 65 ",Sarria,27600,982530012,34913291015,https://www.vulco.es/neumaticos-formigueiros/,,| Change Tires | Change Tires |,,,,https://www.vulco.es/
abc,ESP,Tyre Service,Vulco,TALLERES HITACAR,"Calle la Granja, 86 ",Alcobendas,28108,916614000|649888791,34913291015,https://www.vulco.es/talleres-hitacar/,,| Wheel alignment | Change Tires | Tire balancing | Puncture proof tires | Wheel alignment | Change Tires | Tire balancing | Puncture proof tires | Changing shock absorbers | Brake discs | Wiper blades | Brake pads | Headlight adjustment | Changing shock absorbers | Brake discs | Windshield wiper blades | Brake pads | Headlight adjustment | Battery | Oil change | Timing belt | Oil filter | Cabin filter | Coolant | Tires | exhaust pipes | Sale of accessories | Battery | Oil change | Timing belt | Oil filter | Cabin filter | Coolant | Tires | Exhaust pipes | Sale of accessories | Air-conditioning | Pre ITV | Air-conditioning | Pre ITV | Waiting room | Free WiFi | Parking | Waiting room | Free WiFi | Parking |,,,,https://www.vulco.es/
abc,ESP,Tyre Service,Vulco,SADECO ALCORCON,"C/ Vereda de los Barros, 7 Polígono Industrial Ventorro del Cano",Alcorcon,28925,913311539,913310908,https://www.vulco.es/sadeco-alcorcon/,,| Wheel alignment | Change Tires | Tire balancing | Wheel alignment | Change Tires | Tire balancing | Change of shock absorbers | Brake discs | Windshield wiper blades | Brake pads | Headlight adjustment | Changing shock absorbers | Brake discs | Windshield wiper blades | Brake pads | Headlight adjustment | Battery | Oil change | Oil filter | Cabin filter | Coolant | Exhaust pipes | Sale of accessories | Battery | Oil change | Oil filter | Cabin filter | Coolant | Exhaust pipes | Sale of accessories | Pre ITV | Pre ITV | Waiting room | Waiting room |,,,,https://www.vulco.es/
abc,ESP,Tyre Service,Vulco,NEUMÁTICOS DE LAS MORAS,"Avenida de Polvoranca, 73 Poligono Industrial Urtinsa",Alcorcon,28923,916443462,916435752,https://www.vulco.es/neumaticos-de-las-moras/,,| Wheel alignment | Change Tires | Tire balancing | Puncture proof tires | Wheel alignment | Change Tires | Tire balancing | Anti-puncture tires | Changing shock absorbers | brake discs | Windshield wiper blades | Brake pads | Headlight adjustment | Changing shock absorbers | Brake discs | Windshield wiper blades | Brake pads | Headlight adjustment | Battery | Oil change | Timing belt | Oil filter | Cabin filter | Coolant | Tires | exhaust pipes | Battery | Oil change | Timing belt | Oil filter | Cabin filter | Coolant liquid | Tires | Exhaust pipes | Air-conditioning | Pre ITV | Air-conditioning | Pre ITV |,,,,https://www.vulco.es/
abc,ESP,Tyre Service,Vulco,IBAGUTI,"Calle Sierra de Albarracín, 3 ",Alcorcón,28923,916425696,34913291015,https://www.vulco.es/ibaguti/,,| Change Tires | Tire balancing | Change Tires | Tire balancing | Changing shock absorbers | Brake discs | Brake pads | Changing shock absorbers | Brake discs | Brake pads | Battery | Oil change | Oil filter | Cabin filter | Coolant | Battery | Oil change | Oil filter | Cabin filter | Coolant |,,,,https://www.vulco.es/
abc,ESP,Tyre Service,Vulco,NEUMATICOS MARQUETA ARANJUEZ,"Ctra. Andalucia, Km. 43.5 ",Aranjuez,28300,918912330,34913291015,https://www.vulco.es/neumaticos-marqueta-aranjuez/,,| Wheel alignment | Change Tires | Tire balancing | Anti-puncture tires | Wheel alignment | Change Tires | Tire balancing | Puncture proof tires | Changing shock absorbers | Brake discs | Windshield wiper blades | Brake pads | Headlight adjustment | Changing shock absorbers | Brake discs | Windshield wiper blades | Brake pads | Headlight adjustment | Battery | Oil change | Oil filter | Cabin filter | Coolant | Tires | Exhaust pipes | Sale of accessories | Battery | Oil change | Oil filter | Cabin filter | Coolant liquid | Tires | Exhaust pipes | Sale of accessories | Air-conditioning | Pre ITV | Air-conditioning | Pre ITV | Waiting room | Complimentary drinks | Free WiFi | Parking | Suitable for animals | Waiting room | Complimentary drinks | Free WiFi | Parking | Suitable for animals |,,,,https://www.vulco.es/
abc,ESP,Tyre Service,Vulco,NEUMÁTICOS CÁNDIDO,"Calle del Río Manzanares, 12-14 ",Arganda del Rey,28500,918702533,918702533,https://www.vulco.es/neumaticos-candido/,,| Wheel alignment | Change Tires | Tire balancing | Puncture proof tires | Wheel alignment | Change Tires | Tire balancing | Puncture proof tires | Changing shock absorbers | Brake discs | Windshield wiper blades | brake pads | Headlight adjustment | Changing shock absorbers | brake discs | Wiper blades | brake pads | Headlight adjustment | Battery | Oil change | Timing belt | Oil filter | Cabin filter | Coolant | Tires | Exhaust pipes | Sale of accessories | Battery | Oil change | Timing belt | Oil filter | Cabin filter | Coolant liquid | Tires | Exhaust pipes | Sale of accessories | Exterior washing | Interior wash | Pre ITV | Exterior washing | Interior wash | Pre ITV |,,,,https://www.vulco.es/
abc,ESP,Tyre Service,Vulco,DAJOALAUTO,"C/ El Rincón, 13 ",Arganda del Rey,28500,911993442,34913291015,https://www.vulco.es/dajoalauto/,,| Wheel alignment | Change Tires | Tire balancing | Puncture proof tires | Wheel alignment | Change Tires | Tire balancing | Puncture proof tires | Changing shock absorbers | Brake discs | Windshield wiper blades | Brake pads | Headlight adjustment | Changing shock absorbers | Brake discs | Windshield wiper blades | Brake pads | Headlight adjustment | Battery | Oil change | Timing belt | Oil filter | Cabin filter | Coolant | Exhaust pipes | Battery | Oil change | Timing belt | Oil filter | Cabin filter | Coolant | Exhaust pipes | Air-conditioning | Interior cleaning with ozone | Pick & Drop | Pre ITV | Mobile Workshop Unit | Replacement vehicle | Air-conditioning | Interior cleaning with ozone | Pick & Drop | Pre ITV | Mobile Workshop Unit | Replacement vehicle | Free WiFi | Parking | Parking familiar | Free WiFi | Parking | Parking familiar |,,,,https://www.vulco.es/
abc,ESP,Tyre Service,Vulco,NERMOVIL ARROYOMOLINOS,"C/ Miguel Servet, 18 Poligono industrial Valdefuentes",Arroyomolinos,28939,913854612|667619719,34913291015,https://www.vulco.es/nermovil-arroyomolinos/,,| Wheel alignment | Change Tires | Tire balancing | Puncture proof tires | Wheel alignment | Change Tires | Tire balancing | Puncture proof tires | Changing shock absorbers | Brake discs | Windshield wiper blades | Brake pads | Headlight adjustment | Changing shock absorbers | Brake discs | Windshield wiper blades | Brake pads | Headlight adjustment | Battery | Oil change | timing belt | Oil filter | Cabin filter | Coolant liquid | Tires | Exhaust pipes | Sale of accessories | Battery | Oil change | Timing belt | Oil filter | Cabin filter | Coolant | Tires | Exhaust pipes | Sale of accessories | Air-conditioning | Financing | Interior cleaning with ozone | Pre ITV | Air-conditioning | Financing | Interior cleaning with ozone | Pre ITV |,,,,https://www.vulco.es/
abc,ESP,Tyre Service,Vulco,NEUMATICOS SERVICAR,"Ctra Majadahonda, 40 ",Boadilla del Monte,28660,916324374,34913291015,https://www.vulco.es/neumaticos-servicar/,,| Wheel alignment | Change Tires | Tire balancing | Puncture proof tires | Wheel alignment | Change Tires | Tire balancing | Puncture proof tires | Changing shock absorbers | Brake discs | Windshield wiper blades | Brake pads | Headlight adjustment | Changing shock absorbers | Brake discs | Windshield wiper blades | brake pads | Headlight adjustment | Battery | Oil change | Timing belt | Oil filter | Cabin filter | Coolant | Tires | Exhaust pipes | Battery | Oil change | Timing belt | Oil filter | Cabin filter | Coolant | Tires | Exhaust pipes | Air-conditioning | Financing | Interior cleaning with ozone | Pre ITV | Replacement vehicle | Air-conditioning | Financing | Interior cleaning with ozone | Pre ITV | Replacement vehicle |,,,,https://www.vulco.es/
abc,ESP,Tyre Service,Vulco,NEUMATICOS APARICIO,"Crta. Boadilla KM 6,500 ",Boadilla del Monte,28660,916333609/61,34913291015,https://www.vulco.es/neumaticos-aparicio/,,| Wheel alignment | Change Tires | Tire balancing | Inflated with nitrogen | Puncture proof tires | Steering alignment | Change Tires | Tire balancing | Inflated with nitrogen | Puncture proof tires | Changing shock absorbers | Brake discs | Windshield wiper blades | Brake pads | Headlight adjustment | Changing shock absorbers | Brake discs | Windshield wiper blades | Brake pads | Headlight adjustment | Battery | Oil change | Timing belt | Oil filter | Cabin filter | Coolant | Tires | exhaust pipes | Sale of accessories | Battery | Oil change | Timing belt | Oil filter | Cabin filter | Coolant | Tires | Exhaust pipes | Sale of accessories | Air-conditioning | Exterior wash | Pre ITV | Replacement vehicle | Air-conditioning | Exterior washing | Pre ITV | Replacement vehicle |,,,,https://www.vulco.es/
abc,ESP,Tyre Service,Vulco,SADECO CAMPO REAL,"C/ Hierro, 9 ",Campo Real,28510,914495529|661836584,34913291015,https://www.vulco.es/sadeco-campo-real/,,| Steering alignment | Change Tires | Tire balancing | Puncture proof tires | Wheel alignment | Change Tires | Tire balancing | Puncture proof tires | Changing shock absorbers | Brake discs | Windshield wiper blades | Brake pads | Changing shock absorbers | Brake discs | Windshield wiper blades | Brake pads | Battery | Oil change | timing belt | Oil filter | Cabin filter | Coolant | Battery | Oil change | Timing belt | Oil filter | Cabin filter | Coolant | Air-conditioning | Pre ITV | Mobile Workshop Unit | Air-conditioning | Pre ITV | Mobile Workshop Unit |,,,,https://www.vulco.es/
abc,ESP,Tyre Service,Vulco,SADECO VILLALBA,"C/ AZUELA, 57 ",Collado Villalba,28400,918513338,918513219,https://www.vulco.es/sadeco-villalba/,,| Wheel alignment | Change Tires | Tire balancing | Puncture proof tires | Wheel alignment | Change Tires | Tire balancing | Puncture proof tires | Changing shock absorbers | Brake discs | Windshield wiper blades | Brake pads | Headlight adjustment | Changing shock absorbers | Brake discs | Windshield wiper blades | Brake pads | Headlight adjustment | Battery | Oil change | Timing belt | Oil filter | Cabin filter | Coolant liquid | exhaust pipes | Sale of accessories | Battery | Oil change | Timing belt | Oil filter | Cabin filter | Coolant | Exhaust pipes | Sale of accessories | Air-conditioning | Pre ITV | Air-conditioning | Pre ITV | Waiting room | Parking | Waiting room | Parking |,,,,https://www.vulco.es/
abc,ESP,Tyre Service,Vulco,AUTOCENTRO MARQUETA,"C/ Malcasado, 7 ",Colmenar de Oreja,28380,918943410,34913291015,https://www.vulco.es/autocentro-marqueta/,,| Wheel alignment | Change Tires | Tire balancing | Puncture proof tires | Wheel alignment | Change Tires | Tire balancing | Puncture proof tires | Changing shock absorbers | Brake discs | Windshield wiper blades | Brake pads | Headlight adjustment | Changing shock absorbers | Brake discs | Windshield wiper blades | Brake pads | Headlight adjustment | Battery | Oil change | Timing belt | Oil filter | Cabin filter | Coolant | Exhaust pipes | Battery | Oil change | Timing belt | Oil filter | Cabin filter | Coolant | Exhaust pipes | Pre ITV | Pre ITV |,,,,https://www.vulco.es/
abc,ESP,Tyre Service,Vulco,NEUMÁTICOS LA RAMBLA,Calle Honduras (Lateral Nuevo Teatro Coslada),Coslada,28822,916733477,34913291015,https://www.vulco.es/neumaticos-la-rambla/,,| Wheel alignment | Change Tires | Tire balancing | Puncture proof tires | Wheel alignment | Change Tires | Tire balancing | Puncture proof tires | Changing shock absorbers | Brake discs | Windshield wiper blades | Brake pads | Headlight adjustment | Changing shock absorbers | Brake discs | Wiper blades | Brake pads | Headlight adjustment | Battery | Oil change | Timing belt | Oil filter | Cabin filter | Coolant | Tires | Exhaust pipes | Sale of accessories | Battery | Oil change | Timing belt | Oil filter | Cabin filter | Coolant | Tires | exhaust pipes | Sale of accessories | Air-conditioning | Financing | Interior cleaning with ozone | Pre ITV | Replacement vehicle | Air-conditioning | Financing | Interior cleaning with ozone | Pre ITV | Replacement vehicle | Waiting room | Waiting room |,,,,https://www.vulco.es/
abc,ESP,Tyre Service,Vulco,SADECO COSLADA MANTENIMÓVIL,"Av. San Pablo, 32 ",Coslada,28820,916698102,34913291015,https://www.vulco.es/sadeco-coslada-mantenimovil/,,| Wheel alignment | Change Tires | Tire balancing | Anti-puncture tires | Wheel alignment | Change Tires | Tire balancing | Puncture proof tires | Changing shock absorbers | brake discs | Windshield wiper blades | Brake pads | Headlight adjustment | Changing shock absorbers | Brake discs | Windshield wiper blades | Brake pads | Headlight adjustment | Battery | Oil change | Timing belt | Oil filter | Cabin filter | Coolant | Tires | Exhaust pipes | Sale of accessories | Battery | Oil change | Timing belt | Oil filter | Cabin filter | Coolant | Tires | Exhaust pipes | Sale of accessories | Air-conditioning | Financing | Pre ITV | Mobile Workshop Unit | Air-conditioning | Financing | Pre ITV | Mobile Workshop Unit | Waiting room | Free WiFi | TV | Parking | Children's Corner | Parking for people with disabilities | Waiting room | Free WiFi | TV | Parking | Children's Corner | Parking for people with disabilities |,,,,https://www.vulco.es/
abc,ESP,Tyre Service,Vulco,SADECO COSLADA CTC MANTENIMÓVIL,"Avda. Italia, 8 ",Coslada,28821,916708060,34913291015,https://www.vulco.es/sadeco-coslada-ctc-mantenimovil/,,| Wheel alignment | Change Tires | Tire balancing | Puncture proof tires | Wheel alignment | Change Tires | Tire balancing | Puncture proof tires | Changing shock absorbers | Brake discs | Windshield wiper blades | brake pads | Headlight adjustment | Changing shock absorbers | Brake discs | Windshield wiper blades | Brake pads | Headlight adjustment | Battery | Oil change | Timing belt | Oil filter | Cabin filter | Coolant | Tires | Exhaust pipes | Sale of accessories | Battery | Oil change | Timing belt | Oil filter | Cabin filter | Coolant | Tires | Exhaust pipes | Sale of accessories | Air-conditioning | Financing | Interior cleaning with ozone | Pick & Drop | Pre ITV | Mobile Workshop Unit | Replacement vehicle | Air-conditioning | Financing | Interior cleaning with ozone | Pick & Drop | Pre ITV | Mobile Workshop Unit | Replacement vehicle | Waiting room | Complimentary drinks | Free WiFi | TV | Parking | Children's Corner | Parking for people with disabilities | Waiting room | Complimentary drinks | Free WiFi | TV | Parking | Children's Corner | Parking for people with disabilities |,,,,https://www.vulco.es/
abc,ESP,Tyre Service,Vulco,NEUMATICOS PORPOCO,"Calle Atienza, 12 ",Fuenlabrada,28946,916979590,34913291015,https://www.vulco.es/neumaticos-porpoco/,,| Wheel alignment | Change Tires | Tire balancing | Puncture proof tires | Wheel alignment | Change Tires | Tire balancing | Anti-puncture tires | Changing shock absorbers | Brake discs | Windshield wiper blades | Brake pads | Headlight adjustment | Changing shock absorbers | Brake discs | Windshield wiper blades | Brake pads | Headlight adjustment | Battery | Oil change | Timing belt | Oil filter | Cabin filter | Coolant | Tires | Exhaust pipes | Battery | Oil change | Timing belt | Oil filter | Cabin filter | Coolant | Tires | Exhaust pipes | Air-conditioning | Pre ITV | Replacement vehicle | Air-conditioning | Pre ITV | Replacement vehicle |,,,,https://www.vulco.es/
abc,ESP,Tyre Service,Vulco,SERVI MOTOR PADA,"Calle Madrid, 19 ",Fuente el Saz de Jarama,28140,916224219,34913291015,https://www.vulco.es/servi-motor-pada/,,| Wheel alignment | Change Tires | Tire balancing | Wheel alignment | Change Tires | Tire balancing | Changing shock absorbers | Brake discs | Wiper blades | Brake pads | Changing shock absorbers | Brake discs | Windshield wiper blades | Brake pads | Battery | Oil change | Timing belt | Oil filter | Cabin filter | Coolant | Exhaust pipes | Sale of accessories | Battery | Oil change | timing belt | Oil filter | Cabin filter | Coolant | Exhaust pipes | Sale of accessories | Exterior wash | Interior wash | Pre ITV | Replacement vehicle | Exterior washing | Interior wash | Pre ITV | Replacement vehicle |,,,,https://www.vulco.es/
abc,ESP,Tyre Service,Vulco,NEUMATICOS CASTILLA,"C/ Romero, 74 Polígono Industrial La Mata",Guadarrama,28440,918549820,918549820,https://www.vulco.es/neumaticos-castilla/,,| Steering alignment | Change Tires | Tire balancing | Nitrogen inflation | Puncture proof tires | Wheel alignment | Change Tires | Tire balancing | Inflated with nitrogen | Puncture proof tires | Changing shock absorbers | Brake discs | Windshield wiper blades | Brake pads | Headlight adjustment | Change of shock absorbers | Brake discs | Windshield wiper blades | Brake pads | Headlight adjustment | Battery | Oil change | Timing belt | Oil filter | Cabin filter | Coolant | Tires | Exhaust pipes | Battery | Oil change | Timing belt | Oil filter | Cabin filter | Coolant | Tires | Exhaust pipes | Air-conditioning | Pre ITV | Air-conditioning | Pre ITV |,,,,https://www.vulco.es/
abc,ESP,Tyre Service,Vulco,EUROAUTO ROZAS,"C/ Oslo Posterior, 14-16 PG.EUROPOLI",Las Rozas,28230,916372304|659668932,34913291015,https://www.vulco.es/euroauto-rozas/,,| Wheel alignment | Change Tires | Tire balancing | Anti-puncture tires | Wheel alignment | Change Tires | Tire balancing | Puncture proof tires | Changing shock absorbers | Brake discs | Windshield wiper blades | Brake pads | Headlight adjustment | Change of shock absorbers | Brake discs | Windshield wiper blades | Brake pads | Headlight adjustment | Battery | Oil change | Timing belt | Oil filter | Cabin filter | Coolant liquid | Tires | Exhaust pipes | Sale of accessories | Battery | Oil change | Timing belt | Oil filter | Cabin filter | Coolant | Tires | Exhaust pipes | Sale of accessories | Air-conditioning | Interior cleaning with ozone | Pre ITV | Replacement vehicle | Air-conditioning | Interior cleaning with ozone | Pre ITV | Replacement vehicle | Waiting room | Parking | Waiting room | Parking |,,,,https://www.vulco.es/
abc,ESP,Tyre Service,Vulco,NEUMATICOS SERVICAR,"Av. de Gibraltar, 15 ",Leganes,28912,916932000,34913291015,https://www.vulco.es/neumaticos-servicar-4/,,| Wheel alignment | Change Tires | Tire balancing | Puncture proof tires | Wheel alignment | Change Tires | Tire balancing | Puncture proof tires | Change of shock absorbers | brake discs | Windshield wiper blades | brake pads | Headlight adjustment | Changing shock absorbers | Brake discs | Windshield wiper blades | Brake pads | Headlight adjustment | Battery | Oil change | Timing belt | Oil filter | Cabin filter | Coolant | Tires | Exhaust pipes | Battery | Oil change | Timing belt | Oil filter | Cabin filter | Coolant | Tires | Exhaust pipes | Air-conditioning | Interior cleaning with ozone | Pre ITV | Replacement vehicle | Air-conditioning | Interior cleaning with ozone | Pre ITV | Replacement vehicle |,,,,https://www.vulco.es/
abc,ESP,Tyre Service,Vulco,SADECO MIRASIERRA,C/ UBEDA SN ,Madrid,28034,913781520,34913291015,https://www.vulco.es/sadeco-mirasierra/,,| Wheel alignment | Change Tires | Tire balancing | Wheel alignment | Change Tires | Tire balancing | Changing shock absorbers | Brake discs | Brake pads | Changing shock absorbers | Brake discs | Brake pads | Battery | Oil change | Oil filter | Cabin filter | Coolant | Exhaust pipes | Sale of accessories | Battery | Oil change | Oil filter | Cabin filter | Coolant | Exhaust pipes | Sale of accessories |,,,,https://www.vulco.es/
abc,ESP,Tyre Service,Vulco,NEUMATICOS ANGEL DE LA CRUZ (Vallehermoso),"C/ Vallehermoso, 8 ",Madrid,28015,914468236,34913291015,https://www.vulco.es/neumaticos-angel-de-la-cruz-vallehermoso/,,| Wheel alignment | Change Tires | Tire balancing | Wheel alignment | Change Tires | Tire balancing | Brake discs | Windshield wiper blades | Brake pads | brake discs | Windshield wiper blades | Brake pads | Battery | Oil change | Oil filter | Cabin filter | Coolant | Tires | Exhaust pipes | Sale of accessories | Battery | Oil change | Oil filter | Cabin filter | Coolant | Tires | exhaust pipes | Sale of accessories | Air-conditioning | Pre ITV | Air-conditioning | Pre ITV |,,,,https://www.vulco.es/
abc,ESP,Tyre Service,Vulco,ANDE AUTOMOVILES,"C/ Higueras, 5 ",Madrid,28011,914796355,914638178,https://www.vulco.es/ande-automoviles/,,| Wheel alignment | Change Tires | Tire balancing | Inflated with nitrogen | Puncture proof tires | Wheel alignment | Change Tires | Tire balancing | Inflated with nitrogen | Puncture proof tires | Changing shock absorbers | Brake discs | Windshield wiper blades | Brake pads | Headlight adjustment | Changing shock absorbers | Brake discs | Windshield wiper blades | brake pads | Headlight adjustment | Battery | Oil change | Timing belt | Oil filter | Cabin filter | Coolant | Tires | Exhaust pipes | Sale of accessories | Battery | Oil change | Timing belt | Oil filter | Cabin filter | Coolant | Tires | Exhaust pipes | Sale of accessories | Air-conditioning | Pre ITV | Replacement vehicle | Air-conditioning | Pre ITV | Replacement vehicle |,,,,https://www.vulco.es/
abc,ESP,Tyre Service,Vulco,AUTONEUMATICOS NAPRA,"C/ Melchor Fernandez Almagro, 40 ",Madrid,28029,917388486,34913291015,https://www.vulco.es/autoneumaticos-napra/,,| Wheel alignment | Change Tires | Tire balancing | Inflated with nitrogen | Puncture proof tires | Wheel alignment | Change Tires | Tire balancing | Nitrogen inflation | Puncture proof tires | Changing shock absorbers | brake discs | Windshield wiper blades | Brake pads | Headlight adjustment | Changing shock absorbers | brake discs | Wiper blades | Brake pads | Headlight adjustment | Battery | Oil change | Timing belt | Oil filter | Cabin filter | Coolant | Tires | Exhaust pipes | Sale of accessories | Battery | Oil change | Timing belt | Oil filter | Cabin filter | Coolant | Tires | Exhaust pipes | Sale of accessories | Air-conditioning | Pre ITV | Air-conditioning | Pre ITV |,,,,https://www.vulco.es/
abc,ESP,Tyre Service,Vulco,NEUMATICOS PEREZ (Canillejas),"Calle Canal del Bosforo, 10 ",Madrid,28022,917420373,917420373,https://www.vulco.es/neumaticos-perez-canillejas/,,| Wheel alignment | Change Tires | Tire balancing | Inflated with nitrogen | Puncture proof tires | Wheel alignment | Change Tires | Tire balancing | Inflated with nitrogen | Anti-puncture tires | Change of shock absorbers | Brake discs | Windshield wiper blades | Brake pads | Headlight adjustment | Changing shock absorbers | Brake discs | Windshield wiper blades | Brake pads | Headlight adjustment | Battery | Oil change | Timing belt | Oil filter | Cabin filter | Coolant | Exhaust pipes | Battery | Oil change | Timing belt | Oil filter | Cabin filter | Coolant | Exhaust pipes | Air-conditioning | Pre ITV | Air-conditioning | Pre ITV |,,,,https://www.vulco.es/
abc,ESP,Tyre Service,Vulco,NEUMATICOS ROSA (Pradillo),"Calle Pradillo, 3 Bajo",Madrid,28002,915621769|606355044,34913291015,https://www.vulco.es/neumaticos-rosa-pradillo/,,| Wheel alignment | Change Tires | Tire balancing | Inflated with nitrogen | Puncture proof tires | Wheel alignment | Change Tires | Tire balancing | Inflated with nitrogen | Puncture proof tires | Changing shock absorbers | Brake discs | Windshield wiper blades | Brake pads | Headlight adjustment | Change of shock absorbers | Brake discs | Windshield wiper blades | Brake pads | Headlight adjustment | Battery | Oil change | Timing belt | Oil filter | Cabin filter | Coolant | Tires | Exhaust pipes | Sale of accessories | Battery | Oil change | Timing belt | Oil filter | Cabin filter | Coolant | Tires | Exhaust pipes | Sale of accessories | Air-conditioning | Pre ITV | Air-conditioning | Pre ITV | Waiting room | Free WiFi | TV | Waiting room | Free WiFi | TV |,,,,https://www.vulco.es/
abc,ESP,Tyre Service,Vulco,NEUMATICOS ROSA (Puerto Rico),"Calle Puerto Rico, 48 ",Madrid,28016,913505494,34913291015,https://www.vulco.es/neumaticos-rosa-puerto-rico/,,| Wheel alignment | Change Tires | Tire balancing | Puncture proof tires | Wheel alignment | Change Tires | Tire balancing | Puncture proof tires | Changing shock absorbers | Brake discs | Windshield wiper blades | Brake pads | Changing shock absorbers | Brake discs | Windshield wiper blades | Brake pads | Battery | Oil change | Oil filter | Cabin filter | Coolant | Tires | exhaust pipes | Battery | Oil change | Oil filter | Cabin filter | Coolant | Tires | Exhaust pipes | Pre ITV | Pre ITV |,,,,https://www.vulco.es/
abc,ESP,Tyre Service,Vulco,NEUMÁTICOS RUGA,"Calle Matilde Hernandez, 55 ",Madrid,28025,915253650,34913291015,https://www.vulco.es/neumaticos-ruga/,,| Wheel alignment | Change Tires | Tire balancing | Puncture proof tires | Wheel alignment | Change Tires | Tire balancing | Puncture proof tires | Changing shock absorbers | Brake discs | Windshield wiper blades | Brake pads | Headlight adjustment | Changing shock absorbers | Brake discs | Windshield wiper blades | Brake pads | Headlight adjustment | Battery | Oil change | Timing belt | Oil filter | Cabin filter | Coolant | Tires | Exhaust pipes | Sale of accessories | Battery | Oil change | Timing belt | Oil filter | Cabin filter | Coolant | Tires | Exhaust pipes | Sale of accessories | Air-conditioning | Pre ITV | Air-conditioning | Pre ITV |,,,,https://www.vulco.es/
abc,ESP,Tyre Service,Vulco,VULCANIZADOS MANOLO,"Calle Juan Bautista de Toledo, 10 ",Madrid,28002,915634167,34913291015,https://www.vulco.es/vulcanizados-manolo/,,| Steering alignment | Change Tires | Tire balancing | Inflated with nitrogen | Anti-puncture tires | Wheel alignment | Change Tires | Tire balancing | Inflated with nitrogen | Anti-puncture tires | Changing shock absorbers | Brake discs | Windshield wiper blades | Brake pads | Headlight adjustment | Change of shock absorbers | Brake discs | Wiper blades | Brake pads | Headlight adjustment | Battery | Oil change | Timing belt | Oil filter | Cabin filter | Coolant | Tires | Exhaust pipes | Sale of accessories | Battery | Oil change | Timing belt | Oil filter | Cabin filter | Coolant liquid | Tires | Exhaust pipes | Sale of accessories | Air-conditioning | Financing | Pre ITV | Air-conditioning | Financing | Pre ITV |,,,,https://www.vulco.es/
abc,ESP,Tyre Service,Vulco,NEUMÁTICOS LAS VENTAS,"C/ de Villafranca, 1 Las Ventas",Madrid,28028,913551081,34913291015,https://www.vulco.es/neumaticos-las-ventas/,,| Change Tires | Wheel alignment | Tire balancing | Anti-puncture tires | Change Tires | Wheel alignment | Tire balancing | Puncture proof tires | Tires | Tires |,,,,https://www.vulco.es/
abc,ESP,Tyre Service,Vulco,TALLERES ALBI,"C/ Villaamil, 42 ",Madrid,28039,913111870,34913291015,https://www.vulco.es/talleres-albi/,,| Wheel alignment | Change Tires | Tire balancing | Puncture proof tires | Wheel alignment | Change Tires | Tire balancing | Puncture proof tires | Changing shock absorbers | Brake discs | Windshield wiper blades | Brake pads | Headlight adjustment | Change of shock absorbers | Brake discs | Windshield wiper blades | brake pads | Headlight adjustment | Battery | Oil change | Timing belt | Oil filter | Cabin filter | Coolant | Exhaust pipes | Battery | Oil change | Timing belt | Oil filter | Cabin filter | Coolant | Exhaust pipes | Air-conditioning | Pre ITV | Replacement vehicle | Air-conditioning | Pre ITV | Replacement vehicle |,,,,https://www.vulco.es/
abc,ESP,Tyre Service,Vulco,NEUMATICOS ANGEL DE LA CRUZ,"C/ Rodríguez San Pedro, 9 ",Madrid,28015,914468236,34913291015,https://www.vulco.es/neumaticos-angel-de-la-cruz/,,| Wheel alignment | Change Tires | Tire balancing | Puncture proof tires | Steering alignment | Change Tires | Tire balancing | Puncture proof tires | Change of shock absorbers | Brake discs | Windshield wiper blades | Brake pads | Headlight adjustment | Change of shock absorbers | Brake discs | Windshield wiper blades | Brake pads | Headlight adjustment | Battery | Oil change | Oil filter | Cabin filter | Coolant | Tires | Exhaust pipes | Sale of accessories | Battery | Oil change | Oil filter | Cabin filter | Coolant | Tires | Exhaust pipes | Sale of accessories | Air-conditioning | Pre ITV | Air-conditioning | Pre ITV |,,,,https://www.vulco.es/
abc,ESP,Tyre Service,Vulco,AUTOCENTRO MARQUETA,"C/ Doce de Octubre, 38 ",Madrid,28009,915733153,34913291015,https://www.vulco.es/autocentro-marqueta-1/,,| Wheel alignment | Change Tires | Tire balancing | Puncture proof tires | Wheel alignment | Change Tires | Tire balancing | Puncture proof tires | Changing shock absorbers | Brake discs | Wiper blades | Brake pads | Headlight adjustment | Changing shock absorbers | Brake discs | Windshield wiper blades | Brake pads | Headlight adjustment | Battery | Oil change | Timing belt | Oil filter | Cabin filter | Coolant liquid | Tires | Exhaust pipes | Battery | Oil change | Timing belt | Oil filter | Cabin filter | Coolant liquid | Tires | Exhaust pipes | Air-conditioning | Pre ITV | Air-conditioning | Pre ITV |,,,,https://www.vulco.es/
abc,ESP,Tyre Service,Vulco,NEUMATICOS AEMA,"C/ SOFIA, 30 ",Madrid,28022,917609493,34913291015,https://www.vulco.es/neumaticos-aema/,,| Wheel alignment | Change Tires | Tire balancing | Puncture proof tires | Wheel alignment | Change Tires | Tire balancing | Anti-puncture tires | Changing shock absorbers | Brake discs | Windshield wiper blades | Brake pads | Headlight adjustment | Changing shock absorbers | Brake discs | Windshield wiper blades | Brake pads | Headlight adjustment | Battery | Oil change | Timing belt | Oil filter | Cabin filter | Coolant | Tires | Exhaust pipes | Sale of accessories | Battery | Oil change | Timing belt | Oil filter | Cabin filter | Coolant | Tires | Exhaust pipes | Sale of accessories | Air-conditioning | Pre ITV | Air-conditioning | Pre ITV |,,,,https://www.vulco.es/
abc,ESP,Tyre Service,Vulco,NERMOVIL PACÍFICO,"C/ Granada, 50-53 Pacífico",Madrid,28007,912212000|667597881,34913291015,https://www.vulco.es/nermovil-pacifico/,,| Wheel alignment | Change Tires | Tire balancing | Anti-puncture tires | Wheel alignment | Change Tires | Tire balancing | Puncture proof tires | Changing shock absorbers | Brake discs | Windshield wiper blades | Brake pads | Headlight adjustment | Changing shock absorbers | Brake discs | Windshield wiper blades | Brake pads | Headlight adjustment | Battery | Oil change | Timing belt | Oil filter | Cabin filter | Coolant | Tires | Exhaust pipes | Sale of accessories | Battery | Oil change | Timing belt | Oil filter | Cabin filter | Coolant liquid | Tires | Exhaust pipes | Sale of accessories | Air-conditioning | Financing | Interior cleaning with ozone | Pre ITV | Air-conditioning | Financing | Interior cleaning with ozone | Pre ITV |,,,,https://www.vulco.es/
abc,ESP,Tyre Service,Vulco,NERMOVIL CHAMBERI,"C/ Bravo Murillo, 53 ",Madrid,28003,915351051|667619729,34913291015,https://www.vulco.es/nermovil-chamberi/,,| Wheel alignment | Change Tires | Tire balancing | Puncture proof tires | Wheel alignment | Change Tires | Tire balancing | Puncture proof tires | Changing shock absorbers | Brake discs | Windshield wiper blades | Brake pads | Headlight adjustment | Changing shock absorbers | brake discs | Windshield wiper blades | Brake pads | Headlight adjustment | Battery | Oil change | Timing belt | Oil filter | Cabin filter | Coolant | Tires | exhaust pipes | Sale of accessories | Battery | Oil change | Timing belt | Oil filter | Cabin filter | Coolant | Tires | Exhaust pipes | Sale of accessories | Air-conditioning | Financing | Interior cleaning with ozone | Pre ITV | Air-conditioning | Financing | Interior cleaning with ozone | Pre ITV |,,,,https://www.vulco.es/
abc,ESP,Tyre Service,Vulco,NERMOVIL CARTAGENA,"C/ Cartagena, 44 ",Madrid,28028,917252583|667613823,34913291015,https://www.vulco.es/nermovil-cartagena/,,| Wheel alignment | Change Tires | Tire balancing | Puncture proof tires | Wheel alignment | Change Tires | Tire balancing | Puncture proof tires | Changing shock absorbers | Brake discs | Windshield wiper blades | brake pads | Headlight adjustment | Changing shock absorbers | Brake discs | Windshield wiper blades | Brake pads | Headlight adjustment | Battery | Oil change | Timing belt | Oil filter | Cabin filter | Coolant | Tires | Exhaust pipes | Sale of accessories | Battery | Oil change | Timing belt | Oil filter | Cabin filter | Coolant | Tires | Exhaust pipes | Sale of accessories | Air-conditioning | Financing | Interior cleaning with ozone | Pre ITV | Air-conditioning | Financing | Interior cleaning with ozone | Pre ITV |,,,,https://www.vulco.es/
abc,ESP,Tyre Service,Vulco,NERMOVIL VALLECAS,"Avenida Democracia, 7 Edif Indubuilding 5",Madrid,28031,913310940|667619646,34913291015,https://www.vulco.es/nermovil-vallecas/,,| Wheel alignment | Change Tires | Tire balancing | Puncture proof tires | Wheel alignment | Change Tires | Tire balancing | Puncture proof tires | Changing shock absorbers | Brake discs | Windshield wiper blades | Brake pads | Headlight adjustment | Change of shock absorbers | Brake discs | Windshield wiper blades | Brake pads | Headlight adjustment | Battery | Oil change | Timing belt | Oil filter | Cabin filter | Coolant liquid | Tires | Exhaust pipes | Sale of accessories | Battery | Oil change | Timing belt | Oil filter | Cabin filter | Coolant | Tires | Exhaust pipes | Sale of accessories | Air-conditioning | Financing | Interior cleaning with ozone | Pre ITV | Air-conditioning | Financing | Interior cleaning with ozone | Pre ITV |,,,,https://www.vulco.es/
abc,ESP,Tyre Service,Vulco,NEUMATICOS SERVICAR (Antonio Leyva),"C/ Antonio Leyva, 37 ",Madrid,28019,914601911,34913291015,https://www.vulco.es/neumaticos-servicar-antonio-leyva/,,| Wheel alignment | Change Tires | Tire balancing | Puncture proof tires | Steering alignment | Change Tires | Tire balancing | Puncture proof tires | Changing shock absorbers | Brake discs | Windshield wiper blades | Brake pads | Headlight adjustment | Change of shock absorbers | Brake discs | Windshield wiper blades | brake pads | Headlight adjustment | Battery | Oil change | Timing belt | Oil filter | Cabin filter | Coolant | Tires | exhaust pipes | Battery | Oil change | Timing belt | Oil filter | Cabin filter | Coolant | Tires | Exhaust pipes | Air-conditioning | Financing | Interior cleaning with ozone | Pre ITV | Replacement vehicle | Air-conditioning | Financing | Interior cleaning with ozone | Pre ITV | Replacement vehicle |,,,,https://www.vulco.es/
abc,ESP,Tyre Service,Vulco,NEUMATICOS SERVICAR (Francisco del Pino),"C/ Francisco del Pino, 1 ",Madrid,28021,917981370,34913291015,https://www.vulco.es/neumaticos-servicar-francisco-del-pino/,,| Wheel alignment | Change Tires | Tire balancing | Puncture proof tires | Wheel alignment | Change Tires | Tire balancing | Puncture proof tires | Changing shock absorbers | Brake discs | Windshield wiper blades | Brake pads | Headlight adjustment | Changing shock absorbers | Brake discs | Windshield wiper blades | Brake pads | Headlight adjustment | Battery | Oil change | Timing belt | Oil filter | Cabin filter | Coolant | Tires | Exhaust pipes | Battery | Oil change | Timing belt | Oil filter | Cabin filter | Coolant | Tires | Exhaust pipes | Air-conditioning | Interior cleaning with ozone | Pre ITV | Replacement vehicle | Air-conditioning | Interior cleaning with ozone | Pre ITV | Replacement vehicle |,,,,https://www.vulco.es/
abc,ESP,Tyre Service,Vulco,SERRANO DEL REAL,"C/ Constitución, 150 ",Navalcarnero,28600,918110060,918112843,https://www.vulco.es/serrano-del-real/,,| Wheel alignment | Change Tires | Tire balancing | Wheel alignment | Change Tires | Tire balancing | Changing shock absorbers | Brake discs | Windshield wiper blades | Brake pads | Headlight adjustment | Changing shock absorbers | brake discs | Windshield wiper blades | Brake pads | Headlight adjustment | Battery | Oil change | Oil filter | Cabin filter | Coolant liquid | Tires | Exhaust pipes | Sale of accessories | Battery | Oil change | Oil filter | Cabin filter | Coolant | Tires | Exhaust pipes | Sale of accessories | Pre ITV | Pre ITV |,,,,https://www.vulco.es/
abc,ESP,Tyre Service,Vulco,TALLER ANDRES GOMEZ,"C/ Martillo, 22 ",Rivas Vaciamadrid,28529,916700853,34913291015,https://www.vulco.es/taller-andres-gomez/,,| Wheel alignment | Change Tires | Tire balancing | Inflated with nitrogen | Puncture proof tires | Wheel alignment | Change Tires | Tire balancing | Inflated with nitrogen | Puncture proof tires | Changing shock absorbers | Brake discs | Windshield wiper blades | Brake pads | Headlight adjustment | Changing shock absorbers | Brake discs | Windshield wiper blades | Brake pads | Headlight adjustment | Battery | Oil change | Timing belt | Oil filter | Cabin filter | Exhaust pipes | Battery | Oil change | Timing belt | Oil filter | Cabin filter | Exhaust pipes | Air-conditioning | Interior cleaning with ozone | Pick & Drop | Pre ITV | Air-conditioning | Interior cleaning with ozone | Pick & Drop | Pre ITV |,,,,https://www.vulco.es/
abc,ESP,Tyre Service,Vulco,SADECO SAN FERNANDO DE HENARES,"Av. Castilla, 52 ",San Fernando de Henares,28830,910292206|692457861,34913291015,https://www.vulco.es/sadeco-san-fernando-de-henares/,,| Wheel alignment | Change Tires | Tire balancing | Inflated with nitrogen | Puncture proof tires | Wheel alignment | Change Tires | Tire balancing | Inflated with nitrogen | Puncture proof tires | Changing shock absorbers | Brake discs | Windshield wiper blades | Brake pads | Changing shock absorbers | Brake discs | Windshield wiper blades | Brake pads | Battery | Oil change | Timing belt | Oil filter | Cabin filter | Coolant | Battery | Oil change | Timing belt | Oil filter | Cabin filter | Coolant | Air-conditioning | Financing | Pre ITV | Air-conditioning | Financing | Pre ITV | Waiting room | Parking | Suitable for animals | Waiting room | Parking | Suitable for animals |,,,,https://www.vulco.es/
abc,ESP,Tyre Service,Vulco,NEUMÁTICOS PALOMAR,"c/ Titanio, 1 ",Torrejón de Ardoz,28850,916562906|625559832,34913291015,https://www.vulco.es/neumaticos-palomar/,,| Change Tires | Wheel alignment | Tire balancing | Puncture proof tires | Change Tires | Steering alignment | Tire balancing | Puncture proof tires | Brake discs | Windshield wiper blades | Brake pads | Brake discs | Windshield wiper blades | Brake pads | Waiting room | Complimentary drinks | Free WiFi | TV | Parking | Suitable for babies | Suitable for animals | Children's Corner | Waiting room | Complimentary drinks | Free WiFi | TV | Parking | Suitable for babies | Animal friendly | Children's Corner |,,,,https://www.vulco.es/
abc,ESP,Tyre Service,Vulco,SADECO VICÁLVARO NEUMÁTICOS 10,"Ctra. Vicálvaro a Estación O´Donnell, 6 ",Vicálvaro,28032,910141662,34913291015,https://www.vulco.es/sadeco-vicalvaro-neumaticos-10/,,| Wheel alignment | Change Tires | Tire balancing | Puncture proof tires | Wheel alignment | Change Tires | Tire balancing | Anti-puncture tires | Changing shock absorbers | Brake discs | Windshield wiper blades | Brake pads | Headlight adjustment | Changing shock absorbers | Brake discs | Windshield wiper blades | Brake pads | Headlight adjustment | Battery | Oil change | Timing belt | Oil filter | Cabin filter | Coolant | Tires | Exhaust pipes | Sale of accessories | Battery | Oil change | Timing belt | Oil filter | Cabin filter | Coolant | Tires | Exhaust pipes | Sale of accessories | Air-conditioning | Financing | Pick & Drop | Pre ITV | Air-conditioning | Financing | Pick & Drop | Pre ITV | Waiting room | Complimentary drinks | Free WiFi | Waiting room | Complimentary drinks | Free WiFi |,,,,https://www.vulco.es/
abc,ESP,Tyre Service,Vulco,AUTOCENTRO MARQUETA,"Avda Juan Carlos I, 15A ",Villarejo de Salvanes,28590,918743015,34913291015,https://www.vulco.es/autocentro-marqueta-2/,,| Wheel alignment | Change Tires | Tire balancing | Puncture proof tires | Wheel alignment | Change Tires | Tire balancing | Puncture proof tires | Changing shock absorbers | Brake discs | Windshield wiper blades | Brake pads | Headlight adjustment | Changing shock absorbers | Brake discs | Windshield wiper blades | Brake pads | Headlight adjustment | Battery | Oil change | Timing belt | Oil filter | Cabin filter | Coolant | Tires | Exhaust pipes | Battery | Oil change | Timing belt | Oil filter | Cabin filter | Coolant | Tires | Exhaust pipes | Pre ITV | Mobile Workshop Unit | Pre ITV | Mobile Workshop Unit |,,,,https://www.vulco.es/
abc,ESP,Tyre Service,Vulco,NEUMATICOS RIO CUEVAS,"Cruce Río Cuevas, s/n ",Coín,29100,628710286,952454584,https://www.vulco.es/neumaticos-rio-cuevas/,,| Wheel alignment | Change Tires | Tire balancing | Inflated with nitrogen | Puncture proof tires | Wheel alignment | Change Tires | Tire balancing | Inflated with nitrogen | Puncture proof tires | Change of shock absorbers | Brake discs | Windshield wiper blades | Brake pads | Headlight adjustment | Changing shock absorbers | Brake discs | Windshield wiper blades | Brake pads | Headlight adjustment | Battery | Oil change | Timing belt | Oil filter | Cabin filter | Coolant | Tires | Exhaust pipes | Sale of accessories | Battery | Oil change | Timing belt | Oil filter | Cabin filter | Coolant | Tires | Exhaust pipes | Sale of accessories | Air-conditioning | Exterior washing | Pre ITV | Air-conditioning | Exterior wash | Pre ITV |,,,,https://www.vulco.es/
abc,ESP,Tyre Service,Vulco,NEUMÁTICOS AMORES,"Calle de Juan De Mena, 1 ",Estepona,29680,952803966|665890993,34913291015,https://www.vulco.es/neumaticos-amores/,,| Wheel alignment | Change Tires | Tire balancing | Puncture proof tires | Wheel alignment | Change Tires | Tire balancing | Puncture proof tires | Changing shock absorbers | Brake discs | Windshield wiper blades | Brake pads | Headlight adjustment | Changing shock absorbers | Brake discs | Windshield wiper blades | Brake pads | Headlight adjustment | Battery | Oil change | Timing belt | Oil filter | Cabin filter | Coolant liquid | Tires | Exhaust pipes | Sale of accessories | Battery | Oil change | timing belt | Oil filter | Cabin filter | Coolant liquid | Tires | Exhaust pipes | Sale of accessories | Air-conditioning | Financing | Pre ITV | Mobile Workshop Unit | Air-conditioning | Financing | Pre ITV | Mobile Workshop Unit | Waiting room | Free WiFi | TV | Waiting room | Free WiFi | TV |,,,,https://www.vulco.es/
abc,ESP,Tyre Service,Vulco,NEUMÁTICOS DE LA TORRE,"Calle del Doctor Escassi, 9 Gamarra",Málaga,29010,952282147,952307082,https://www.vulco.es/neumaticos-de-la-torre/,,| Wheel alignment | Change Tires | Tire balancing | Inflated with nitrogen | Puncture proof tires | Wheel alignment | Change Tires | Tire balancing | Inflated with nitrogen | Puncture proof tires | Changing shock absorbers | Brake discs | Windshield wiper blades | Brake pads | Headlight adjustment | Changing shock absorbers | Brake discs | Windshield wiper blades | brake pads | Headlight adjustment | Battery | Oil change | timing belt | Oil filter | Cabin filter | Coolant | Tires | Exhaust pipes | Sale of accessories | Battery | Oil change | Timing belt | Oil filter | Cabin filter | Coolant | Tires | exhaust pipes | Sale of accessories | Air-conditioning | Pre ITV | Air-conditioning | Pre ITV |,,,,https://www.vulco.es/
abc,ESP,Tyre Service,Vulco,NEUMÁTICOS J.J.,"Avenida Washington, 34 Pol. El Viso",Málaga,29006,952322275,952322275,https://www.vulco.es/neumaticos-j-j/,,| Wheel alignment | Change Tires | Tire balancing | Puncture proof tires | Wheel alignment | Change Tires | Tire balancing | Puncture proof tires | Changing shock absorbers | Brake discs | Wiper blades | Brake pads | Changing shock absorbers | Brake discs | Windshield wiper blades | Brake pads | Battery | Oil change | Oil filter | Cabin filter | Tires | Exhaust pipes | Sale of accessories | Battery | Oil change | Oil filter | Cabin filter | Tires | Exhaust pipes | Sale of accessories |,,,,https://www.vulco.es/
abc,ESP,Tyre Service,Vulco,AGUSTÍN LOBATO RÍOS,"Calle Guaduares, 18 Pol. El Fuerte",Ronda,29400,952877463,952877463,https://www.vulco.es/agustin-lobato-rios/,,| Change Tires | Wheel alignment | Change Tires | Wheel alignment | Brake discs | Brake discs | Oil change | exhaust pipes | Battery | Tires | Sale of accessories | Oil change | Exhaust pipes | Battery | Tires | Sale of accessories |,,,,https://www.vulco.es/
abc,ESP,Tyre Service,Vulco,NEUMÁTICOS J. MARTÍN E HIJOS,"Camino Remanente, 6 -Málaga",Vélez,29700,952502643,952502643,https://www.vulco.es/neumaticos-j-martin-e-hijos/,,| Wheel alignment | Change Tires | Tire balancing | Inflated with nitrogen | Puncture proof tires | Wheel alignment | Change Tires | Tire balancing | Inflated with nitrogen | Puncture proof tires | Changing shock absorbers | Brake discs | Windshield wiper blades | Brake pads | Headlight adjustment | Change of shock absorbers | Brake discs | Windshield wiper blades | Brake pads | Headlight adjustment | Battery | Oil change | Oil filter | Cabin filter | Coolant | Tires | Exhaust pipes | Sale of accessories | Battery | Oil change | Oil filter | Cabin filter | Coolant | Tires | Exhaust pipes | Sale of accessories | Pre ITV | Pre ITV | Waiting room | Free WiFi | Suitable for animals | Parking for people with disabilities | Waiting room | Free WiFi | Suitable for animals | Parking for people with disabilities |,,,,https://www.vulco.es/
abc,ESP,Tyre Service,Vulco,NEUMÁTICOS BOLARÍN,Carretera Alhama Cartagena Pol. 14 Parc. 65 ,Alhama de Murcia,30840,968632349,968636134,https://www.vulco.es/neumaticos-bolarin/,,| Wheel alignment | Change Tires | Tire balancing | Inflated with nitrogen | Puncture proof tires | Wheel alignment | Change Tires | Tire balancing | Inflated with nitrogen | Puncture proof tires | Changing shock absorbers | Brake discs | Windshield wiper blades | Brake pads | Changing shock absorbers | Brake discs | Windshield wiper blades | Brake pads | Battery | Oil change | Oil filter | Cabin filter | Coolant | Tires | Exhaust pipes | Sale of accessories | Battery | Oil change | Oil filter | Cabin filter | Coolant | Tires | Exhaust pipes | Sale of accessories | Pre ITV | Pre ITV | Waiting room | Complimentary drinks | Free WiFi | Waiting room | Complimentary drinks | Free WiFi |,,,,https://www.vulco.es/
abc,ESP,Tyre Service,Vulco,NEUMÁTICOS RODA,"Avenida de la Juventud, 11 Pol.Ind.Cabezo De Torres",Cabezo de Torres,30110,968856625|655804235,34913291015,https://www.vulco.es/neumaticos-roda/,,| Wheel alignment | Change Tires | Tire balancing | Inflated with nitrogen | Puncture proof tires | Wheel alignment | Change Tires | Tire balancing | Inflated with nitrogen | Anti-puncture tires | Change of shock absorbers | Brake discs | Windshield wiper blades | Brake pads | Headlight adjustment | Changing shock absorbers | Brake discs | Windshield wiper blades | Brake pads | Headlight adjustment | Battery | Oil change | Timing belt | Oil filter | Cabin filter | Coolant | Tires | Exhaust pipes | Sale of accessories | Battery | Oil change | timing belt | Oil filter | Cabin filter | Coolant | Tires | Exhaust pipes | Sale of accessories | Interior cleaning with ozone | Pre ITV | Interior cleaning with ozone | Pre ITV | Waiting room | Parking | Children's Corner | Waiting room | Parking | Children's corner |,,,,https://www.vulco.es/
abc,ESP,Tyre Service,Vulco,NEUMÁTICOS CARAVACA,"Carretera de Murcia, Km. 65 ",Caravaca de la Cruz,30400,968707138,968707138,https://www.vulco.es/neumaticos-caravaca/,,| Wheel alignment | Change Tires | Tire balancing | Inflated with nitrogen | Anti-puncture tires | Steering alignment | Change Tires | Tire balancing | Inflated with nitrogen | Puncture proof tires | Changing shock absorbers | Brake discs | Windshield wiper blades | Brake pads | Headlight adjustment | Changing shock absorbers | Brake discs | Windshield wiper blades | Brake pads | Headlight adjustment | Battery | Oil change | Timing belt | Oil filter | Cabin filter | Coolant | Exhaust pipes | Sale of accessories | Battery | Oil change | Timing belt | Oil filter | Cabin filter | Coolant | Exhaust pipes | Sale of accessories | Pre ITV | Pre ITV |,,,,https://www.vulco.es/
abc,ESP,Tyre Service,Vulco,NEUMÁTICOS CARAVACA,"Pol.Ind Cavila Parc.2, nº11 ",Caravaca de la Cruz,30400,968725261,968707138,https://www.vulco.es/neumaticos-caravaca-1/,,| Steering alignment | Change Tires | Tire balancing | Inflated with nitrogen | Anti-puncture tires | Wheel alignment | Change Tires | Tire balancing | Inflated with nitrogen | Puncture proof tires | Changing shock absorbers | Brake discs | Windshield wiper blades | Brake pads | Headlight adjustment | Changing shock absorbers | Brake discs | Windshield wiper blades | Brake pads | Headlight adjustment | Battery | Oil change | Timing belt | Oil filter | Cabin filter | Coolant liquid | Tires | Exhaust pipes | Sale of accessories | Battery | Oil change | Timing belt | Oil filter | Cabin filter | Coolant | Tires | exhaust pipes | Sale of accessories | Pre ITV | Pre ITV |,,,,https://www.vulco.es/
abc,ESP,Tyre Service,Vulco,HIJOS DE SALVADOR MORALES,Diputación de La Torrecilla,Lorca,30817,968461953,968460166,https://www.vulco.es/hijos-de-salvador-morales/,,| Wheel alignment | Change Tires | Tire balancing | Puncture proof tires | Wheel alignment | Change Tires | Tire balancing | Anti-puncture tires | Changing shock absorbers | Brake discs | Wiper blades | Brake pads | Changing shock absorbers | brake discs | Windshield wiper blades | Brake pads | Battery | Oil change | Timing belt | Oil filter | Cabin filter | Coolant | Tires | Exhaust pipes | Sale of accessories | Battery | Oil change | Timing belt | Oil filter | Cabin filter | Coolant liquid | Tires | Exhaust pipes | Sale of accessories | Air-conditioning | Financing | Exterior washing | Pre ITV | Mobile Workshop Unit | Air-conditioning | Financing | Exterior washing | Pre ITV | Mobile Workshop Unit |,,,,https://www.vulco.es/
abc,ESP,Tyre Service,Vulco,HERMANOS GIL,"Calle Antón Tobalo, 117 ",Torres Cotillas,30565,654309579,968387003,https://www.vulco.es/hermanos-gil/,,| Wheel alignment | Change Tires | Tire balancing | Puncture proof tires | Wheel alignment | Change Tires | Tire balancing | Puncture proof tires | Change of shock absorbers | Brake discs | Windshield wiper blades | Headlight adjustment | Changing shock absorbers | Brake discs | Windshield wiper blades | Headlight adjustment | Battery | Oil change | Oil filter | Cabin filter | Coolant | Tires | Exhaust pipes | Sale of accessories | Battery | Oil change | Oil filter | Cabin filter | Coolant | Tires | Exhaust pipes | Sale of accessories | Air-conditioning | Pre ITV | Air-conditioning | Pre ITV |,,,,https://www.vulco.es/
abc,ESP,Tyre Service,Vulco,NEUMÁTICOS IRUÑA (BERRIOPLANO),"Carretera de Guipúzcoa, Km. 6 Nave 23A",Berrioplano,31195,948302267,948302600,https://www.vulco.es/neumaticos-iruna-berrioplano/,,| Wheel alignment | Change Tires | Tire balancing | Inflated with nitrogen | Puncture proof tires | Wheel alignment | Change Tires | Tire balancing | Inflated with nitrogen | Puncture proof tires | Changing shock absorbers | Brake discs | Windshield wiper blades | brake pads | Headlight adjustment | Changing shock absorbers | Brake discs | Windshield wiper blades | Brake pads | Headlight adjustment | Battery | Oil change | Timing belt | Oil filter | Cabin filter | Coolant | Tires | Exhaust pipes | Sale of accessories | Battery | Oil change | Timing belt | Oil filter | Cabin filter | Coolant | Tires | Exhaust pipes | Sale of accessories | Air-conditioning | Pre ITV | Replacement vehicle | Air-conditioning | Pre ITV | Replacement vehicle | Waiting room | Free WiFi | TV | Parking | Waiting room | Free WiFi | TV | Parking |,,,,https://www.vulco.es/
abc,ESP,Tyre Service,Vulco,NEUMÁTICOS LUIS,"Calle el Ramal, 23 P.I. El Ramal",Lodosa,31580,948694493,948693861,https://www.vulco.es/neumaticos-luis/,,| Steering alignment | Change Tires | Tire balancing | Puncture proof tires | Wheel alignment | Change Tires | Tire balancing | Puncture proof tires | Changing shock absorbers | Brake discs | Wiper blades | Brake pads | Headlight adjustment | Changing shock absorbers | Brake discs | Windshield wiper blades | Brake pads | Headlight adjustment | Battery | Oil change | Oil filter | Cabin filter | Coolant | Tires | Exhaust pipes | Sale of accessories | Battery | Oil change | Oil filter | Cabin filter | Coolant | Tires | Exhaust pipes | Sale of accessories |,,,,https://www.vulco.es/
abc,ESP,Tyre Service,Vulco,V. ERASO ELECTROMECANICA Y NEUMATICOS,"Polígono Industrial Ipertegui II, NAVE 40 Parcela 3",Orcoyen,31160,948325102,948325102,https://www.vulco.es/v-eraso-electromecanica-y-neumaticos/,,| Wheel alignment | Change Tires | Tire balancing | Inflated with nitrogen | Puncture proof tires | Wheel alignment | Change Tires | Tire balancing | Inflated with nitrogen | Puncture proof tires | Changing shock absorbers | Brake discs | Windshield wiper blades | Brake pads | Headlight adjustment | Changing shock absorbers | Brake discs | Windshield wiper blades | brake pads | Headlight adjustment | Battery | Oil change | Timing belt | Oil filter | Cabin filter | Coolant | Tires | Exhaust pipes | Sale of accessories | Battery | Oil change | timing belt | Oil filter | Cabin filter | Coolant | Tires | Exhaust pipes | Sale of accessories | Air-conditioning | Pre ITV | Air-conditioning | Pre ITV |,,,,https://www.vulco.es/
abc,ESP,Tyre Service,Vulco,ABS SPORT,"C/ Cuesta de Loreto, 5 ",Tudela,31500,948402201|654469337,34913291015,https://www.vulco.es/abs-sport/,,| Steering alignment | Change Tires | Tire balancing | Puncture proof tires | Wheel alignment | Change Tires | Tire balancing | Puncture proof tires | Changing shock absorbers | Brake discs | Windshield wiper blades | Brake pads | Changing shock absorbers | Brake discs | Wiper blades | Brake pads | Battery | Oil change | Timing belt | Oil filter | Cabin filter | Coolant | Tires | Exhaust pipes | Sale of accessories | Battery | Oil change | Timing belt | Oil filter | Cabin filter | Coolant liquid | Tires | Exhaust pipes | Sale of accessories | Air-conditioning | Pre ITV | Replacement vehicle | Air-conditioning | Pre ITV | Replacement vehicle | Free WiFi | Suitable for babies | Suitable for animals | Free WiFi | Suitable for babies | Suitable for animals |,,,,https://www.vulco.es/
abc,ESP,Tyre Service,Vulco,SALCO TALLERES OURENSE,P.I. San Ciprián,San Cibrao Das Viñas,32901,988252725,34913291015,https://www.vulco.es/salco-talleres-ourense/,,| Wheel alignment | Change Tires | Tire balancing | Puncture proof tires | Wheel alignment | Change Tires | Tire balancing | Puncture proof tires | Changing shock absorbers | Brake discs | Windshield wiper blades | Brake pads | Changing shock absorbers | Brake discs | Windshield wiper blades | Brake pads | Battery | Oil change | Oil filter | Cabin filter | Coolant | Tires | Exhaust pipes | Sale of accessories | Battery | Oil change | Oil filter | Cabin filter | Coolant liquid | Tires | exhaust pipes | Sale of accessories |,,,,https://www.vulco.es/
abc,ESP,Tyre Service,Vulco,NEUMÁTICOS SANDIÁS,"Ctra.Nacional 525, 87 ",Sandiás,32692,988465084|609775354,34913291015,https://www.vulco.es/neumaticos-sandias/,,| Change Tires | Tire balancing | Anti-puncture tires | Change Tires | Tire balancing | Puncture proof tires | Changing shock absorbers | Brake discs | Windshield wiper blades | Brake pads | Changing shock absorbers | Brake discs | Windshield wiper blades | Brake pads | Battery | Oil change | Oil filter | Tires | Exhaust pipes | Sale of accessories | Battery | Oil change | Oil filter | Tires | Exhaust pipes | Sale of accessories |,,,,https://www.vulco.es/
abc,ESP,Tyre Service,Vulco,S.N. JIMÉNEZ BONET,"Calle Córdoba, 8-10 Pol.Ind.",Palencia,34004,979165931|659910597,34913291015,https://www.vulco.es/s-n-jimenez-bonet/,,| Wheel alignment | Change Tires | Tire balancing | Inflated with nitrogen | Puncture proof tires | Wheel alignment | Change Tires | Tire balancing | Inflated with nitrogen | Puncture proof tires | Changing shock absorbers | Brake discs | Windshield wiper blades | Brake pads | Changing shock absorbers | Brake discs | Windshield wiper blades | Brake pads | Battery | Oil change | Oil filter | Cabin filter | Coolant | Tires | exhaust pipes | Sale of accessories | Battery | Oil change | Oil filter | Cabin filter | Coolant | Tires | Exhaust pipes | Sale of accessories | Financing | Pre ITV | Mobile Workshop Unit | Financing | Pre ITV | Mobile Workshop Unit | Waiting room | Complimentary drinks | Free WiFi | TV | Children's Corner | Waiting room | Complimentary drinks | Free WiFi | TV | Children's Corner |,,,,https://www.vulco.es/
abc,ESP,Tyre Service,Vulco,NEUMATICOS RODABEN (A Cañiza),"Rúa da Fraga, 16 ",A Cañiza,36880,986651197,34913291015,https://www.vulco.es/neumaticos-rodaben-a-caniza/,,| Wheel alignment | Change Tires | Tire balancing | Inflated with nitrogen | Puncture proof tires | Wheel alignment | Change Tires | Tire balancing | Inflated with nitrogen | Puncture proof tires | Changing shock absorbers | Brake discs | Windshield wiper blades | Brake pads | Headlight adjustment | Changing shock absorbers | Brake discs | Wiper blades | Brake pads | Headlight adjustment | Battery | Oil change | Timing belt | Oil filter | Cabin filter | Coolant liquid | Tires | Exhaust pipes | Sale of accessories | Battery | Oil change | Timing belt | Oil filter | Cabin filter | Coolant | Tires | Exhaust pipes | Sale of accessories | Pre ITV | Replacement vehicle | Pre ITV | Replacement vehicle |,,,,https://www.vulco.es/
abc,ESP,Tyre Service,Vulco,SALCO TALLERES DOMAIO,"Calvar, 26 ",Domaio Moaña,36957,986093233,34913291015,https://www.vulco.es/salco-talleres-domaio/,,| Wheel alignment | Change Tires | Tire balancing | Puncture proof tires | Wheel alignment | Change Tires | Tire balancing | Puncture proof tires | Changing shock absorbers | brake discs | Wiper blades | Brake pads | Changing shock absorbers | Brake discs | Windshield wiper blades | brake pads | Battery | Oil change | Oil filter | Cabin filter | Coolant | Tires | Exhaust pipes | Sale of accessories | Battery | Oil change | Oil filter | Cabin filter | Coolant | Tires | Exhaust pipes | Sale of accessories |,,,,https://www.vulco.es/
abc,ESP,Tyre Service,Vulco,NEUMÁTICOS DEZA II,"C/ Escalera Estrada A, 5 ",Forcarei,36556,986755434,34913291015,https://www.vulco.es/neumaticos-deza-ii/,,| Change Tires | Change Tires |,,,,https://www.vulco.es/
abc,ESP,Tyre Service,Vulco,SALCO TALLERES MOS,"Ctra.Puxeiros-Peinador, nave 35 ",Mos,36415,986487378,986487447,https://www.vulco.es/salco-talleres-mos/,,| Steering alignment | Change Tires | Tire balancing | Puncture proof tires | Wheel alignment | Change Tires | Tire balancing | Puncture proof tires | Changing shock absorbers | Brake discs | Windshield wiper blades | Brake pads | Change of shock absorbers | Brake discs | Windshield wiper blades | Brake pads | Battery | Oil change | Oil filter | Cabin filter | Coolant | Tires | Exhaust pipes | Sale of accessories | Battery | Oil change | Oil filter | Cabin filter | Coolant | Tires | Exhaust pipes | Sale of accessories |,,,,https://www.vulco.es/
abc,ESP,Tyre Service,Vulco,SALCO TALLERES BAO,Polígono Industrial Bao Parcela 5,Pontevedra,36157,986833135,986833136,https://www.vulco.es/salco-talleres-bao/,,| Wheel alignment | Change Tires | Tire balancing | Puncture proof tires | Wheel alignment | Change Tires | Tire balancing | Puncture proof tires | Changing shock absorbers | Brake discs | Windshield wiper blades | Brake pads | Changing shock absorbers | Brake discs | Windshield wiper blades | Brake pads | Battery | Oil change | Oil filter | Cabin filter | Coolant | Tires | Exhaust pipes | Sale of accessories | Battery | Oil change | Oil filter | Cabin filter | Coolant | Tires | Exhaust pipes | Sale of accessories | Exterior washing | Exterior washing |,,,,https://www.vulco.es/
abc,ESP,Tyre Service,Vulco,SALCO TALLERES PONTEVEDRA,"Avda. de María Victoria Moreno, 55 ",Pontevedra,36003,986858429,986862552,https://www.vulco.es/salco-talleres-pontevedra/,,| Wheel alignment | Change Tires | Tire balancing | Puncture proof tires | Wheel alignment | Change Tires | Tire balancing | Puncture proof tires | Changing shock absorbers | Brake discs | Windshield wiper blades | Brake pads | Changing shock absorbers | Brake discs | Windshield wiper blades | Brake pads | Battery | Oil change | Oil filter | Cabin filter | Coolant | Tires | Exhaust pipes | Sale of accessories | Battery | Oil change | Oil filter | Cabin filter | Coolant | Tires | Exhaust pipes | Sale of accessories |,,,,https://www.vulco.es/
abc,ESP,Tyre Service,Vulco,SALCO TALLERES PORRIÑO,Polígono As Gandaras Parcela 22,Porriño,36475,986342312,986342314,https://www.vulco.es/salco-talleres-porrino/,,| Wheel alignment | Change Tires | Tire balancing | Puncture proof tires | Wheel alignment | Change Tires | Tire balancing | Puncture proof tires | Changing shock absorbers | Brake discs | Windshield wiper blades | Brake pads | Changing shock absorbers | Brake discs | Windshield wiper blades | Brake pads | Battery | Oil change | Oil filter | Cabin filter | Coolant | Tires | Exhaust pipes | Sale of accessories | Battery | Oil change | Oil filter | Cabin filter | Coolant | Tires | Exhaust pipes | Sale of accessories |,,,,https://www.vulco.es/
abc,ESP,Tyre Service,Vulco,NEUMÁTICOS DEZA,"Calle Chapa, 17 ",Silleda,36570,986585116,986593013,https://www.vulco.es/neumaticos-deza/,,| Wheel alignment | Change Tires | Tire balancing | Puncture proof tires | Wheel alignment | Change Tires | Tire balancing | Puncture proof tires | Brake discs | Windshield wiper blades | Brake pads | Brake discs | Windshield wiper blades | Brake pads | Battery | Oil change | Cabin filter | Coolant | Tires | Exhaust pipes | Sale of accessories | Battery | Oil change | Cabin filter | Coolant | Tires | Exhaust pipes | Sale of accessories |,,,,https://www.vulco.es/
abc,ESP,Tyre Service,Vulco,SALCO TALLERES C/ JACINTO BENAVENTE,"C/Jacinto Benavente, 11A ",Vigo,36202,986212759,986247050,https://www.vulco.es/salco-talleres-c-jacinto-benavente/,,| Wheel alignment | Change Tires | Tire balancing | Puncture proof tires | Wheel alignment | Change Tires | Tire balancing | Puncture proof tires | Changing shock absorbers | Brake discs | Windshield wiper blades | Brake pads | Changing shock absorbers | Brake discs | Windshield wiper blades | Brake pads | Battery | Oil change | Oil filter | Cabin filter | Coolant | Tires | Exhaust pipes | Sale of accessories | Battery | Oil change | Oil filter | Cabin filter | Coolant | Tires | exhaust pipes | Sale of accessories | Pre ITV | Pre ITV |,,,,https://www.vulco.es/
abc,ESP,Tyre Service,Vulco,SALCO TALLERES C/ VENEZUELA,"C/ Venezuela, s/n Debajo del Parking",Vigo,36203,986196531,986090645,https://www.vulco.es/salco-talleres-c-venezuela/,,| Wheel alignment | Change Tires | Tire balancing | Inflated with nitrogen | Puncture proof tires | Wheel alignment | Change Tires | Tire balancing | Inflated with nitrogen | Puncture proof tires | Changing shock absorbers | Brake discs | Wiper blades | Brake pads | Changing shock absorbers | Brake discs | Windshield wiper blades | Brake pads | Battery | Oil change | Oil filter | Cabin filter | Coolant | Tires | Exhaust pipes | Sale of accessories | Battery | Oil change | Oil filter | Cabin filter | Coolant | Tires | Exhaust pipes | Sale of accessories | Exterior washing | Interior wash | Exterior washing | Interior wash |,,,,https://www.vulco.es/
abc,ESP,Tyre Service,Vulco,SALCO TALLERES C/MARQUES VALTERRA,"C/ Marqués de Valterra, 15 ",Vigo,36202,986214656,986294126,https://www.vulco.es/salco-talleres-c-marques-valterra/,,| Wheel alignment | Wheel alignment | Changing shock absorbers | Brake discs | Brake pads | Changing shock absorbers | Brake discs | Brake pads | Battery | Oil change | Timing belt | Oil filter | Coolant | Tires | Exhaust pipes | Sale of accessories | Battery | Oil change | timing belt | Oil filter | Coolant | Tires | Exhaust pipes | Sale of accessories |,,,,https://www.vulco.es/
abc,ESP,Tyre Service,Vulco,SALCO TALLERES C/RAMON NIETO,"C/Ramón Nieto, 227 ",Vigo,36205,986265536,986195004,https://www.vulco.es/salco-talleres-c-ramon-nieto/,,| Wheel alignment | Change Tires | Tire balancing | Puncture proof tires | Wheel alignment | Change Tires | Tire balancing | Puncture proof tires | Changing shock absorbers | Brake discs | Windshield wiper blades | Brake pads | Changing shock absorbers | Brake discs | Windshield wiper blades | Brake pads | Battery | Oil change | Oil filter | Cabin filter | Coolant | Tires | Exhaust pipes | Sale of accessories | Battery | Oil change | Oil filter | Cabin filter | Coolant | Tires | Exhaust pipes | Sale of accessories | Air-conditioning | Air-conditioning |,,,,https://www.vulco.es/
abc,ESP,Tyre Service,Vulco,SALCO TALLERES AV/ GRAN VIA,"C/ Gran Vía, 161 bajo ",Vigo,36210,986077398,34913291015,https://www.vulco.es/salco-talleres-av-gran-via/,,| Wheel alignment | Change Tires | Puncture proof tires | Wheel alignment | Change Tires | Puncture proof tires | Brake discs | Windshield wiper blades | Brake pads | Brake discs | Windshield wiper blades | Brake pads | Battery | Oil change | Oil filter | Cabin filter | Sale of accessories | Battery | Oil change | Oil filter | Cabin filter | Sale of accessories |,,,,https://www.vulco.es/
abc,ESP,Tyre Service,Vulco,NEUMATICOS RODABEN (Vigo),"Rúa do Doutor Carracido, 116 ",Vigo,36205,986264457,34913291015,https://www.vulco.es/neumaticos-rodaben-vigo/,,| Wheel alignment | Change Tires | Tire balancing | Inflated with nitrogen | Puncture proof tires | Wheel alignment | Change Tires | Tire balancing | Inflated with nitrogen | Puncture proof tires | Changing shock absorbers | Brake discs | Windshield wiper blades | Brake pads | Headlight adjustment | Changing shock absorbers | Brake discs | Windshield wiper blades | Brake pads | Headlight adjustment | Battery | Oil change | Timing belt | Oil filter | Cabin filter | Coolant | Tires | Exhaust pipes | Sale of accessories | Battery | Oil change | Timing belt | Oil filter | Cabin filter | Coolant | Tires | exhaust pipes | Sale of accessories | Pre ITV | Pre ITV |,,,,https://www.vulco.es/
abc,ESP,Tyre Service,Vulco,TALLERES RODISA,"Calle Rúa Fontecarmoa, 1 Planta Baja Edif.Piñeiro",Vilagarcía de Arousa,36600,986500494,986511860,https://www.vulco.es/talleres-rodisa/,,| Wheel alignment | Change Tires | Tire balancing | Puncture proof tires | Wheel alignment | Change Tires | Tire balancing | Puncture proof tires | Changing shock absorbers | Brake discs | Headlight adjustment | Changing shock absorbers | Brake discs | Headlight adjustment | Battery | Oil change | Timing belt | Oil filter | Cabin filter | Coolant | Tires | Exhaust pipes | Sale of accessories | Battery | Oil change | Timing belt | Oil filter | Cabin filter | Coolant | Tires | Exhaust pipes | Sale of accessories |,,,,https://www.vulco.es/
abc,ESP,Tyre Service,Vulco,RODISA,"C/ Rial, 105 ",Vilagarcía de Arousa,36600,986504006,986511860,https://www.vulco.es/rodisa/,,| Wheel alignment | Change Tires | Tire balancing | Inflated with nitrogen | Puncture proof tires | Wheel alignment | Change Tires | Tire balancing | Nitrogen inflation | Puncture proof tires | Changing shock absorbers | Brake discs | Windshield wiper blades | Brake pads | Changing shock absorbers | Brake discs | Windshield wiper blades | Brake pads | Battery | Oil change | Timing belt | Oil filter | Cabin filter | Coolant | exhaust pipes | Battery | Oil change | Timing belt | Oil filter | Cabin filter | Coolant | Exhaust pipes | Air-conditioning | Air-conditioning |,,,,https://www.vulco.es/
abc,ESP,Tyre Service,Vulco,NEUMATICOS MOTOVAL CIUDAD RODRIGO,"Avenida Portugal, 84 ",Ciudad Rodrigo,37500,923461335,34913291015,https://www.vulco.es/neumaticos-motoval-ciudad-rodrigo/,,| Change Tires | Wheel alignment | Change Tires | Wheel alignment | Brake discs | Brake pads | Brake discs | Brake pads | Oil change | Battery | Oil filter | Oil change | Battery | Oil filter |,,,,https://www.vulco.es/
abc,ESP,Tyre Service,Vulco,NEUMÁTICOS TRANSALBERT,"Calle Polígono Industrial Prado Vega, 21 ",Cuellar,40200,921140947|669289743,34913291015,https://www.vulco.es/neumaticos-transalbert/,,| Wheel alignment | Change Tires | Tire balancing | Puncture proof tires | Wheel alignment | Change Tires | Tire balancing | Puncture proof tires | Changing shock absorbers | brake discs | Windshield wiper blades | Brake pads | Headlight adjustment | Changing shock absorbers | Brake discs | Windshield wiper blades | Brake pads | Headlight adjustment | Battery | Oil change | Oil filter | Cabin filter | Coolant liquid | Exhaust pipes | Battery | Oil change | Oil filter | Cabin filter | Coolant | Exhaust pipes | Pre ITV | Mobile Workshop Unit | Replacement vehicle | Pre ITV | Mobile Workshop Unit | Replacement vehicle | Waiting room | Waiting room |,,,,https://www.vulco.es/
abc,ESP,Tyre Service,Vulco,AUTO-SPEED,"C/ Gremio de los Cinteros, 118 Polígono Industrial Hontoria",Hontoria,40195,921445544,34913291015,https://www.vulco.es/auto-speed-1/,,| Steering alignment | Change Tires | Tire balancing | Puncture proof tires | Wheel alignment | Change Tires | Tire balancing | Puncture proof tires | Changing shock absorbers | Brake discs | Windshield wiper blades | brake pads | Headlight adjustment | Change of shock absorbers | Brake discs | Windshield wiper blades | Brake pads | Headlight adjustment | Battery | Oil change | Timing belt | Oil filter | Cabin filter | Coolant | Tires | Exhaust pipes | Sale of accessories | Battery | Oil change | Timing belt | Oil filter | Cabin filter | Coolant liquid | Tires | Exhaust pipes | Sale of accessories | Pre ITV | Pre ITV |,,,,https://www.vulco.es/
abc,ESP,Tyre Service,Vulco,AUTO-SPEED (P.I. El Acueducto),Carretera San Rafael Parcela 61 Poligono Industrial Acueducto,Segovia,40006,921424250,921423505,https://www.vulco.es/auto-speed-p-i-el-acueducto/,,| Wheel alignment | Change Tires | Tire balancing | Puncture proof tires | Steering alignment | Change Tires | Tire balancing | Puncture proof tires | Changing shock absorbers | Brake discs | Windshield wiper blades | brake pads | Headlight adjustment | Changing shock absorbers | Brake discs | Windshield wiper blades | Brake pads | Headlight adjustment | Battery | Oil change | Timing belt | Oil filter | Cabin filter | Coolant | Tires | Exhaust pipes | Sale of accessories | Battery | Oil change | timing belt | Oil filter | Cabin filter | Coolant | Tires | Exhaust pipes | Sale of accessories | Air-conditioning | Exterior washing | Interior wash | Pre ITV | Replacement vehicle | Air-conditioning | Exterior washing | Interior wash | Pre ITV | Replacement vehicle | Waiting room | Complimentary drinks | Free WiFi | Parking | Waiting room | Complimentary drinks | Free WiFi | Parking |,,,,https://www.vulco.es/
abc,ESP,Tyre Service,Vulco,NEUMATICOS ARAHAL S.C.,"Carretera Morón Km 0,100 ",Arahal,41600,954840721,954840721,https://www.vulco.es/neumaticos-arahal-s-c/,,| Wheel alignment | Change Tires | Tire balancing | Anti-puncture tires | Steering alignment | Change Tires | Tire balancing | Puncture proof tires | Changing shock absorbers | Brake discs | Windshield wiper blades | Brake pads | Changing shock absorbers | Brake discs | Windshield wiper blades | Brake pads | Battery | Oil change | Timing belt | Oil filter | Cabin filter | Coolant | Tires | exhaust pipes | Sale of accessories | Battery | Oil change | Timing belt | Oil filter | Cabin filter | Coolant | Tires | Exhaust pipes | Sale of accessories | Air-conditioning | Financing | Mobile Workshop Unit | Air-conditioning | Financing | Mobile Workshop Unit |,,,,https://www.vulco.es/
abc,ESP,Tyre Service,Vulco,NEUMÁTICOS BORJAS,"Calle Marcos Redondo, 1 ",Dos Hermanas,41701,955660449|646649956,34913291015,https://www.vulco.es/neumaticos-borjas/,,| Wheel alignment | Change Tires | Tire balancing | Inflated with nitrogen | Anti-puncture tires | Wheel alignment | Change Tires | Tire balancing | Inflated with nitrogen | Puncture proof tires | Changing shock absorbers | Brake discs | Windshield wiper blades | Brake pads | Headlight adjustment | Changing shock absorbers | Brake discs | Windshield wiper blades | Brake pads | Headlight adjustment | Battery | Oil change | Timing belt | Oil filter | Cabin filter | Coolant | Tires | Exhaust pipes | Sale of accessories | Battery | Oil change | Timing belt | Oil filter | Cabin filter | Coolant | Tires | Exhaust pipes | Sale of accessories | Air-conditioning | Financing | Pre ITV | Air-conditioning | Financing | Pre ITV |,,,,https://www.vulco.es/
abc,ESP,Tyre Service,Vulco,AUTOCENTRO ESTEPA,"Av. Andalucía, 152 ",Estepa,41560,955416151|608576490,34913291015,https://www.vulco.es/autocentro-estepa/,,| Wheel alignment | Change Tires | Tire balancing | Anti-puncture tires | Wheel alignment | Change Tires | Tire balancing | Puncture proof tires | Changing shock absorbers | Brake discs | Windshield wiper blades | Brake pads | Changing shock absorbers | Brake discs | Windshield wiper blades | Brake pads | Battery | Oil change | Timing belt | Oil filter | Cabin filter | Coolant | Tires | Exhaust pipes | Sale of accessories | Battery | Oil change | Timing belt | Oil filter | Cabin filter | Coolant | Tires | Exhaust pipes | Sale of accessories | Interior cleaning with ozone | Pre ITV | Replacement vehicle | Interior cleaning with ozone | Pre ITV | Replacement vehicle |,,,,https://www.vulco.es/
abc,ESP,Tyre Service,Vulco,NEUMÁTICOS LÓPEZ Y MONTERO,"Avenida del pantano, 4B ",Morón de la Frontera,41530,954851506,954851506,https://www.vulco.es/neumaticos-lopez-y-montero/,,| Wheel alignment | Change Tires | Tire balancing | Puncture proof tires | Wheel alignment | Change Tires | Tire balancing | Puncture proof tires | Change of shock absorbers | Brake discs | Windshield wiper blades | Brake pads | Headlight adjustment | Changing shock absorbers | Brake discs | Windshield wiper blades | Brake pads | Headlight adjustment | Battery | Oil change | Timing belt | Oil filter | Cabin filter | Tires | Exhaust pipes | Sale of accessories | Battery | Oil change | Timing belt | Oil filter | Cabin filter | Tires | exhaust pipes | Sale of accessories | Air-conditioning | Air-conditioning |,,,,https://www.vulco.es/
abc,ESP,Tyre Service,Vulco,NEUMATICOS LA MORERA,"P.I. LA MORERA, C/ ALMONAS, 12 ",UTRERA,41710,954864165|660847389,34913291015,https://www.vulco.es/neumaticos-la-morera/,,| Wheel alignment | Change Tires | Tire balancing | Inflated with nitrogen | Anti-puncture tires | Wheel alignment | Change Tires | Tire balancing | Inflated with nitrogen | Puncture proof tires | Changing shock absorbers | Brake discs | Wiper blades | Brake pads | Headlight adjustment | Changing shock absorbers | Brake discs | Windshield wiper blades | Brake pads | Headlight adjustment | Battery | Oil change | Timing belt | Oil filter | Cabin filter | Coolant | Tires | Exhaust pipes | Sale of accessories | Battery | Oil change | Timing belt | Oil filter | Cabin filter | Coolant | Tires | Exhaust pipes | Sale of accessories | Air-conditioning | Exterior washing | Interior wash | Pre ITV | Replacement vehicle | Air-conditioning | Exterior washing | Interior wash | Pre ITV | Replacement vehicle |,,,,https://www.vulco.es/
abc,ESP,Tyre Service,Vulco,JORDI MESTRE PNEUMATICS,"Av. De Jesus, 45 C-12 ",Tortosa,43500,977504129,34913291015,https://www.vulco.es/jordi-mestre-pneumatics/,,| Wheel alignment | Change Tires | Tire balancing | Inflated with nitrogen | Puncture proof tires | Wheel alignment | Change Tires | Tire balancing | Inflated with nitrogen | Puncture proof tires | Changing shock absorbers | Brake discs | Windshield wiper blades | Brake pads | Headlight adjustment | Changing shock absorbers | Brake discs | Windshield wiper blades | brake pads | Headlight adjustment | Battery | Oil change | Timing belt | Oil filter | Cabin filter | Coolant liquid | Tires | Exhaust pipes | Sale of accessories | Battery | Oil change | Timing belt | Oil filter | Cabin filter | Coolant | Tires | Exhaust pipes | Sale of accessories | Air-conditioning | Exterior wash | Interior wash | Interior cleaning with ozone | Pre ITV | Replacement vehicle | Air-conditioning | Exterior washing | Interior wash | Interior cleaning with ozone | Pre ITV | Replacement vehicle |,,,,https://www.vulco.es/
abc,ESP,Tyre Service,Vulco,JORDI MASDEU,"Ctra. Tarragona, 29 ",Valls,43800,977607037,34913291015,https://www.vulco.es/jordi-masdeu/,,| Wheel alignment | Change Tires | Tire balancing | Puncture proof tires | Wheel alignment | Change Tires | Tire balancing | Puncture proof tires | Changing shock absorbers | Brake discs | Windshield wiper blades | Brake pads | Headlight adjustment | Changing shock absorbers | Brake discs | Windshield wiper blades | Brake pads | Headlight adjustment | Battery | Oil change | Timing belt | Oil filter | Cabin filter | Coolant | Exhaust pipes | Battery | Oil change | Timing belt | Oil filter | Cabin filter | Coolant | Exhaust pipes | Air-conditioning | Pick & Drop | Pre ITV | Mobile Workshop Unit | Air-conditioning | Pick & Drop | Pre ITV | Mobile Workshop Unit |,,,,https://www.vulco.es/
abc,ESP,Tyre Service,Vulco,JORDI MASDEU,"C/ Artesans, 23 P.I. Valls",Valls,43800,977607037,34913291015,https://www.vulco.es/jordi-masdeu-1/,,| Wheel alignment | Change Tires | Tire balancing | Anti-puncture tires | Wheel alignment | Change Tires | Tire balancing | Puncture proof tires | Changing shock absorbers | brake discs | Windshield wiper blades | Brake pads | Headlight adjustment | Change of shock absorbers | Brake discs | Windshield wiper blades | Brake pads | Headlight adjustment | Battery | Oil change | Timing belt | Oil filter | Cabin filter | Coolant | Exhaust pipes | Battery | Oil change | Timing belt | Oil filter | Cabin filter | Coolant | Exhaust pipes | Air-conditioning | Pick & Drop | Pre ITV | Mobile Workshop Unit | Air-conditioning | Pick & Drop | Pre ITV | Mobile Workshop Unit |,,,,https://www.vulco.es/
abc,ESP,Tyre Service,Vulco,DORADA SERVICE CENTER,"Av. de Ramon d'Olzina, 1 -seca",Vila,43480,977392561,34913291015,https://www.vulco.es/dorada-service-center/,,| Wheel alignment | Change Tires | Tire balancing | Puncture proof tires | Wheel alignment | Change Tires | Tire balancing | Puncture proof tires | Changing shock absorbers | Brake discs | Wiper blades | Brake pads | Headlight adjustment | Changing shock absorbers | Brake discs | Wiper blades | Brake pads | Headlight adjustment | Battery | Oil change | Timing belt | Oil filter | Cabin filter | Coolant | Exhaust pipes | Battery | Oil change | Timing belt | Oil filter | Cabin filter | Coolant | Exhaust pipes | Air-conditioning | Pre ITV | Mobile Workshop Unit | Air-conditioning | Pre ITV | Mobile Workshop Unit |,,,,https://www.vulco.es/
abc,ESP,Tyre Service,Vulco,AUTOSERVIALCALA,"Av de los Pescadores, 7 Local 2",Alcala- Guia de Isora,38686,922865435,34913291015,https://www.vulco.es/autoservialcala/,,| Change Tires | Change Tires |,,,,https://www.vulco.es/
abc,ESP,Tyre Service,Vulco,ALINEAUTO,"C/ La Bloquera, 1 Buzanada",Arona,38627,922722163,34913291015,https://www.vulco.es/alineauto/,,| Wheel alignment | Change Tires | Tire balancing | Inflated with nitrogen | Wheel alignment | Change Tires | Tire balancing | Inflated with nitrogen | Changing shock absorbers | Brake discs | Windshield wiper blades | Brake pads | Changing shock absorbers | Brake discs | Windshield wiper blades | Brake pads | Oil change | Timing belt | Oil filter | Cabin filter | Coolant | Sale of accessories | Oil change | timing belt | Oil filter | Cabin filter | Coolant | Sale of accessories | Air-conditioning | Air-conditioning |,,,,https://www.vulco.es/
abc,ESP,Tyre Service,Vulco,COMERCIAL BLASPA,"Parque Empresarial El Molino, nave 66 B ",Breña Alta,38710,922437958,34913291015,https://www.vulco.es/comercial-blaspa/,,| Change Tires | Wheel alignment | Change Tires | Steering alignment | Changing shock absorbers | Changing shock absorbers | Oil change | Exhaust pipes | Battery | Tires | Sale of accessories | Oil change | exhaust pipes | Battery | Tires | Sale of accessories |,,,,https://www.vulco.es/
abc,ESP,Tyre Service,Vulco,TGAS SANTA CATALINA,"Ctra General Norte, Km. 49 Santa Catalina ",La Guancha,38440,922360514,922360514,https://www.vulco.es/tgas-santa-catalina/,,| Change Tires | Tire balancing | Anti-puncture tires | Change Tires | Tire balancing | Anti-puncture tires |,,,,https://www.vulco.es/
abc,ESP,Tyre Service,Vulco,SIMEÓN E HIJOS,"Calle Baden, 1 Pol.Ind. San Jeronimo",La Orotava,38312,922335810,34913291015,https://www.vulco.es/simeon-e-hijos/,,| Wheel alignment | Change Tires | Tire balancing | Inflated with nitrogen | Puncture proof tires | Wheel alignment | Change Tires | Tire balancing | Inflated with nitrogen | Puncture proof tires | Changing shock absorbers | brake discs | Windshield wiper blades | Brake pads | Headlight adjustment | Change of shock absorbers | brake discs | Windshield wiper blades | Brake pads | Headlight adjustment | Battery | Oil change | Timing belt | Oil filter | Cabin filter | Coolant | Tires | Exhaust pipes | Sale of accessories | Battery | Oil change | Timing belt | Oil filter | Cabin filter | Coolant | Tires | Exhaust pipes | Sale of accessories | Interior cleaning with ozone | Pre ITV | Mobile Workshop Unit | Interior cleaning with ozone | Pre ITV | Mobile Workshop Unit | Waiting room | TV | Waiting room | TV |,,,,https://www.vulco.es/
abc,ESP,Tyre Service,Vulco,VL AUTOCENTRO,"AUTOPISTA DEL NORTE, 31 ",Tacoronte,38350,922563333,922572910,https://www.vulco.es/vl-autocentro/,,| Wheel alignment | Change Tires | Tire balancing | Puncture proof tires | Wheel alignment | Change Tires | Tire balancing | Puncture proof tires | Changing shock absorbers | brake discs | Windshield wiper blades | Brake pads | Headlight adjustment | Changing shock absorbers | Brake discs | Windshield wiper blades | brake pads | Headlight adjustment | Battery | Oil change | Timing belt | Oil filter | Cabin filter | Coolant | Tires | Exhaust pipes | Sale of accessories | Battery | Oil change | Timing belt | Oil filter | Cabin filter | Coolant | Tires | Exhaust pipes | Sale of accessories | Financing | Pre ITV | Financing | Pre ITV | Free WiFi | Parking | Parking familiar | Parking for people with disabilities | Free WiFi | Parking | Parking familiar | Parking for people with disabilities |,,,,https://www.vulco.es/
abc,ESP,Tyre Service,Vulco,TALLERES ALCABAL,Poligono Industrial Las Horcas parcela 39,Alcañiz,44600,978832057,978832057,https://www.vulco.es/talleres-alcabal/,,| Wheel alignment | Change Tires | Tire balancing | Puncture proof tires | Wheel alignment | Change Tires | Tire balancing | Anti-puncture tires | Changing shock absorbers | Brake discs | Windshield wiper blades | Brake pads | Headlight adjustment | Changing shock absorbers | Brake discs | Wiper blades | Brake pads | Headlight adjustment | Battery | Oil change | Timing belt | Oil filter | Cabin filter | Coolant | Tires | exhaust pipes | Sale of accessories | Battery | Oil change | Timing belt | Oil filter | Cabin filter | Coolant liquid | Tires | Exhaust pipes | Sale of accessories | Pre ITV | Pre ITV |,,,,https://www.vulco.es/
abc,ESP,Tyre Service,Vulco,NEUMATICOS  ANDORRA,"C/ Estación de Chamartin, 20 A P.I. La Estación",Andorra,44500,978842787|629969313,34913291015,https://www.vulco.es/neumaticos-andorra/,,| Change Tires | Tire balancing | Puncture proof tires | Change Tires | Tire balancing | Puncture proof tires | Changing shock absorbers | Brake discs | Wiper blades | Brake pads | Headlight adjustment | Changing shock absorbers | Brake discs | Windshield wiper blades | Brake pads | Headlight adjustment | Battery | Oil change | Timing belt | Oil filter | Cabin filter | Coolant | Tires | Exhaust pipes | Sale of accessories | Battery | Oil change | Timing belt | Oil filter | Cabin filter | Coolant | Tires | Exhaust pipes | Sale of accessories | Pre ITV | Mobile Workshop Unit | Pre ITV | Mobile Workshop Unit | Waiting room | Free WiFi | TV | Waiting room | Free WiFi | TV |,,,,https://www.vulco.es/
abc,ESP,Tyre Service,Vulco,TALLERES ESCRICHE DELGADO,"Avenida de Sagunto, 68 ",Teruel,44002,978602010|679606747,34913291015,https://www.vulco.es/talleres-escriche-delgado/,,| Wheel alignment | Change Tires | Tire balancing | Inflated with nitrogen | Puncture proof tires | Steering alignment | Change Tires | Tire balancing | Nitrogen inflation | Anti-puncture tires | Changing shock absorbers | Brake discs | Windshield wiper blades | brake pads | Headlight adjustment | Changing shock absorbers | Brake discs | Windshield wiper blades | Brake pads | Headlight adjustment | Battery | Oil change | Timing belt | Oil filter | Cabin filter | Coolant | Tires | Exhaust pipes | Sale of accessories | Battery | Oil change | timing belt | Oil filter | Cabin filter | Coolant | Tires | Exhaust pipes | Sale of accessories | Air-conditioning | Pre ITV | Air-conditioning | Pre ITV |,,,,https://www.vulco.es/
abc,ESP,Tyre Service,Vulco,NEUMÁTICOS GILDI,"C/ Garcia Lorca, 30 ",Illescas,45200,925511808,925511808,https://www.vulco.es/neumaticos-gildi/,,| Wheel alignment | Change Tires | Tire balancing | Puncture proof tires | Wheel alignment | Change Tires | Tire balancing | Puncture proof tires | Changing shock absorbers | Brake discs | Wiper blades | brake pads | Changing shock absorbers | Brake discs | Windshield wiper blades | Brake pads | Battery | Oil change | Oil filter | Cabin filter | Coolant | Tires | Exhaust pipes | Sale of accessories | Battery | Oil change | Oil filter | Cabin filter | Coolant liquid | Tires | Exhaust pipes | Sale of accessories | Exterior washing | Interior wash | Exterior washing | Interior wash |,,,,https://www.vulco.es/
abc,ESP,Tyre Service,Vulco,GALÁN RICO,"Pza.De La Constitución, 17 ",Los Yébenes,45470,925321006|653619151,34913291015,https://www.vulco.es/galan-rico/,,| Wheel alignment | Change Tires | Tire balancing | Puncture proof tires | Wheel alignment | Change Tires | Tire balancing | Puncture proof tires | Changing shock absorbers | Brake discs | Windshield wiper blades | Brake pads | Changing shock absorbers | Brake discs | Windshield wiper blades | Brake pads | Battery | Oil change | Oil filter | Cabin filter | Coolant | Tires | Exhaust pipes | Sale of accessories | Battery | Oil change | Oil filter | Cabin filter | Coolant | Tires | Exhaust pipes | Sale of accessories | Exterior washing | Interior wash | Pre ITV | Exterior washing | Interior wash | Pre ITV |,,,,https://www.vulco.es/
abc,ESP,Tyre Service,Vulco,NEUMÁTICOS MARQUETA OCAÑA,"Ctra. Cabañas, 13 ",Ocaña,45300,925130775,34913291015,https://www.vulco.es/neumaticos-marqueta-ocana/,,| Wheel alignment | Change Tires | Tire balancing | Inflated with nitrogen | Anti-puncture tires | Wheel alignment | Change Tires | Tire balancing | Inflated with nitrogen | Puncture proof tires | Changing shock absorbers | Brake discs | Windshield wiper blades | Brake pads | Changing shock absorbers | Brake discs | Windshield wiper blades | Brake pads | Battery | Oil change | Oil filter | Cabin filter | Coolant | Tires | Exhaust pipes | Battery | Oil change | Oil filter | Cabin filter | Coolant | Tires | Exhaust pipes | Interior cleaning with ozone | Pick & Drop | Pre ITV | Mobile Workshop Unit | Interior cleaning with ozone | Pick & Drop | Pre ITV | Mobile Workshop Unit | Waiting room | Free WiFi | TV | Suitable for babies | Suitable for animals | Waiting room | Free WiFi | TV | Suitable for babies | Suitable for animals |,,,,https://www.vulco.es/
abc,ESP,Tyre Service,Vulco,TALLERES PEDRO MADROÑO - TALAVERA,"Av. Ciudad de Plasencia, 46 ",Talavera de la Reina,15600,925802371,34913291015,https://www.vulco.es/talleres-pedro-madrono-talavera/,,| Steering alignment | Change Tires | Tire balancing | Anti-puncture tires | Wheel alignment | Change Tires | Tire balancing | Anti-puncture tires | Changing shock absorbers | Brake discs | Windshield wiper blades | Brake pads | Headlight adjustment | Changing shock absorbers | Brake discs | Windshield wiper blades | Brake pads | Headlight adjustment | Battery | Oil change | Timing belt | Oil filter | Cabin filter | Coolant liquid | Tires | Exhaust pipes | Battery | Oil change | Timing belt | Oil filter | Cabin filter | Coolant | Tires | Exhaust pipes | Air-conditioning | Exterior washing | Interior cleaning with ozone | Pick & Drop | Pre ITV | Replacement vehicle | Air-conditioning | Exterior washing | Interior cleaning with ozone | Pick & Drop | Pre ITV | Replacement vehicle | Waiting room | Free WiFi | Electric charge | TV | Parking | Waiting room | Free WiFi | Electric charge | TV | Parking |,,,,https://www.vulco.es/
abc,ESP,Tyre Service,Vulco,TALLERES PEDRO MADROÑO - TOLEDO,"C/ Jarama, 46 Pol. Ind. Sta. Maria de Benquerencia",Toledo,45007,925232034,34913291015,https://www.vulco.es/talleres-pedro-madrono-toledo/,,| Wheel alignment | Change Tires | Tire balancing | Puncture proof tires | Wheel alignment | Change Tires | Tire balancing | Puncture proof tires | Changing shock absorbers | Brake discs | Windshield wiper blades | Brake pads | Headlight adjustment | Changing shock absorbers | Brake discs | Windshield wiper blades | Brake pads | Headlight adjustment | Battery | Oil change | Timing belt | Oil filter | Cabin filter | Coolant | Tires | Exhaust pipes | Battery | Oil change | Timing belt | Oil filter | Cabin filter | Coolant | Tires | Exhaust pipes | Air-conditioning | Financing | Exterior washing | Interior cleaning with ozone | Pick & Drop | Pre ITV | Replacement vehicle | Air-conditioning | Financing | Exterior wash | Interior cleaning with ozone | Pick & Drop | Pre ITV | Replacement vehicle | Waiting room | Free WiFi | Electric charge | Parking | Parking familiar | Parking for people with disabilities | Waiting room | Free WiFi | Electric charge | Parking | Parking familiar | Parking for people with disabilities |,,,,https://www.vulco.es/
abc,ESP,Tyre Service,Vulco,FARRUCO,"Cm-4009, Km 14 ",Torrijos,45500,925770265,925776090,https://www.vulco.es/farruco/,,| Wheel alignment | Change Tires | Tire balancing | Inflated with nitrogen | Puncture proof tires | Wheel alignment | Change Tires | Tire balancing | Inflated with nitrogen | Puncture proof tires | Changing shock absorbers | Brake discs | Windshield wiper blades | Brake pads | Headlight adjustment | Changing shock absorbers | Brake discs | Windshield wiper blades | brake pads | Headlight adjustment | Battery | Oil change | Timing belt | Oil filter | Cabin filter | Coolant | Tires | Exhaust pipes | Sale of accessories | Battery | Oil change | Timing belt | Oil filter | Cabin filter | Coolant | Tires | Exhaust pipes | Sale of accessories | Air-conditioning | Exterior washing | Interior wash | Pre ITV | Replacement vehicle | Air-conditioning | Exterior washing | Interior wash | Pre ITV | Replacement vehicle |,,,,https://www.vulco.es/
abc,ESP,Tyre Service,Vulco,NEUMÁTICOS ESCUDERO,"C/ Cuenca, 105 ",Alaquas,46970,961501992,961501992,https://www.vulco.es/neumaticos-escudero/,,| Wheel alignment | Change Tires | Tire balancing | Puncture proof tires | Wheel alignment | Change Tires | Tire balancing | Puncture proof tires | Changing shock absorbers | Brake discs | Windshield wiper blades | brake pads | Headlight adjustment | Changing shock absorbers | Brake discs | Windshield wiper blades | Brake pads | Headlight adjustment | Battery | Oil change | Timing belt | Oil filter | Cabin filter | Coolant | Tires | Exhaust pipes | Sale of accessories | Battery | Oil change | Timing belt | Oil filter | Cabin filter | Coolant | Tires | Exhaust pipes | Sale of accessories | Financing | Pick & Drop | Pre ITV | Replacement vehicle | Financing | Pick & Drop | Pre ITV | Replacement vehicle | Waiting room | Free WiFi | TV | Suitable for animals | Children's Corner | Waiting room | Free WiFi | TV | Suitable for animals | Children's corner |,,,,https://www.vulco.es/
abc,ESP,Tyre Service,Vulco,NEUMATICS TANO,"Avenida Miguel Hermandez, 6 ",Aldaia,46960,961084883,34913291015,https://www.vulco.es/neumatics-tano/,,| Wheel alignment | Change Tires | Tire balancing | Inflated with nitrogen | Puncture proof tires | Wheel alignment | Change Tires | Tire balancing | Inflated with nitrogen | Puncture proof tires | Changing shock absorbers | Brake discs | Windshield wiper blades | Brake pads | Changing shock absorbers | brake discs | Wiper blades | Brake pads | Battery | Oil change | Timing belt | Oil filter | Cabin filter | Coolant liquid | Tires | Exhaust pipes | Sale of accessories | Battery | Oil change | Timing belt | Oil filter | Cabin filter | Coolant | Tires | Exhaust pipes | Sale of accessories | Financing | Pre ITV | Financing | Pre ITV |,,,,https://www.vulco.es/
abc,ESP,Tyre Service,Vulco,AUTOMOBILS PUIG,"Avd. Democracia, 18 porta 24",Alzira,46600,962976516,34913291015,https://www.vulco.es/automobils-puig/,,| Wheel alignment | Change Tires | Tire balancing | Puncture proof tires | Steering alignment | Change Tires | Tire balancing | Puncture proof tires | Changing shock absorbers | Brake discs | Windshield wiper blades | Brake pads | Headlight adjustment | Changing shock absorbers | Brake discs | Windshield wiper blades | Brake pads | Headlight adjustment | Battery | Oil change | Timing belt | Oil filter | Cabin filter | Coolant | Tires | exhaust pipes | Sale of accessories | Battery | Oil change | Timing belt | Oil filter | Cabin filter | Coolant | Tires | Exhaust pipes | Sale of accessories | Air-conditioning | Financing | Pre ITV | Air-conditioning | Financing | Pre ITV |,,,,https://www.vulco.es/
abc,ESP,Tyre Service,Vulco,NEUMATICOS ASENSIO,"Polígono Industrial El Bony Calle 30, Norte, 1 ",Catarroja,46470,963217398|627551990,34913291015,https://www.vulco.es/neumaticos-asensio/,,| Wheel alignment | Change Tires | Tire balancing | Inflated with nitrogen | Puncture proof tires | Wheel alignment | Change Tires | Tire balancing | Nitrogen inflation | Puncture proof tires | Changing shock absorbers | Brake discs | Windshield wiper blades | Brake pads | Headlight adjustment | Changing shock absorbers | Brake discs | Windshield wiper blades | Brake pads | Headlight adjustment | Battery | Oil change | Timing belt | Oil filter | Cabin filter | Coolant | Tires | Exhaust pipes | Sale of accessories | Battery | Oil change | Timing belt | Oil filter | Cabin filter | Coolant | Tires | Exhaust pipes | Sale of accessories | Air-conditioning | Exterior wash | Interior wash | Pre ITV | Replacement vehicle | Air-conditioning | Exterior washing | Interior wash | Pre ITV | Replacement vehicle |,,,,https://www.vulco.es/
abc,ESP,Tyre Service,Vulco,NEUMATICOS GARPEN,"Avenida de Barcelona, 92 ",Museros,46136,961441654|647462054,34913291015,https://www.vulco.es/neumaticos-garpen/,,| Wheel alignment | Change Tires | Wheel alignment | Change Tires | Changing shock absorbers | Brake discs | Brake pads | Changing shock absorbers | Brake discs | Brake pads | Battery | Oil change | Oil filter | Tires | Exhaust pipes | Battery | Oil change | Oil filter | Tires | Exhaust pipes | Air-conditioning | Air-conditioning |,,,,https://www.vulco.es/
abc,ESP,Tyre Service,Vulco,ALBOX PICANYA,"C/ Valencia, 46 ",Picanya,46210,961591741,34913291015,https://www.vulco.es/albox-picanya/,,| Wheel alignment | Change Tires | Wheel alignment | Change Tires | Changing shock absorbers | Brake discs | Changing shock absorbers | Brake discs | Battery | Oil change | Tires | Exhaust pipes | Sale of accessories | Battery | Oil change | Tires | Exhaust pipes | Sale of accessories | Air-conditioning | Air-conditioning | Waiting room | Complimentary drinks | Free WiFi | Waiting room | Complimentary drinks | Free WiFi |,,,,https://www.vulco.es/
abc,ESP,Tyre Service,Vulco,NEUMÁTICOS TERUEL,"Calle de Teruel, 6 Fernando el Católico",Valencia,46008,963820479|601021638,34913291015,https://www.vulco.es/neumaticos-teruel/,,| Wheel alignment | Change Tires | Tire balancing | Puncture proof tires | Wheel alignment | Change Tires | Tire balancing | Puncture proof tires | Changing shock absorbers | Brake discs | Windshield wiper blades | Brake pads | Changing shock absorbers | Brake discs | Windshield wiper blades | Brake pads | Battery | Oil change | Oil filter | Cabin filter | Coolant | Tires | Exhaust pipes | Sale of accessories | Battery | Oil change | Oil filter | Cabin filter | Coolant | Tires | Exhaust pipes | Sale of accessories | Pre ITV | Pre ITV |,,,,https://www.vulco.es/
abc,ESP,Tyre Service,Vulco,DESGUACES Y NEUMATICOS LAS TORRES,"Nacional 620 km 182,5 Salida 181 de la A-62",Alaejos,47510,983817413,983817570,https://www.vulco.es/desguaces-y-neumaticos-las-torres/,,| Change Tires | Wheel alignment | Change Tires | Wheel alignment | Changing shock absorbers | Brake discs | Changing shock absorbers | Brake discs | Oil change | Exhaust pipes | Battery | Tires | Sale of accessories | Oil change | Exhaust pipes | Battery | Tires | Sale of accessories |,,,,https://www.vulco.es/
abc,ESP,Tyre Service,Vulco,NEUMATICOS ESGUEVA,"C/ Topacio, 21 P.I. San Cristóbal",Valladolid,47012,983303186|629353135,34913291015,https://www.vulco.es/neumaticos-esgueva/,,| Wheel alignment | Change Tires | Tire balancing | Inflated with nitrogen | Puncture proof tires | Wheel alignment | Change Tires | Tire balancing | Inflated with nitrogen | Puncture proof tires | Change of shock absorbers | Brake discs | Windshield wiper blades | Brake pads | Headlight adjustment | Changing shock absorbers | Brake discs | Windshield wiper blades | brake pads | Headlight adjustment | Battery | Oil change | Timing belt | Oil filter | Cabin filter | Coolant | Tires | Exhaust pipes | Sale of accessories | Battery | Oil change | Timing belt | Oil filter | Cabin filter | Coolant | Tires | Exhaust pipes | Sale of accessories | Air-conditioning | Financing | Interior cleaning with ozone | Pre ITV | Mobile Workshop Unit | Air-conditioning | Financing | Interior cleaning with ozone | Pre ITV | Mobile Workshop Unit |,,,,https://www.vulco.es/
abc,ESP,Tyre Service,Vulco,AUTOGARAJES MIKEL,"C/ BekoiIbarra 25 Pab.17,18 y 19",Guernika,48300,946253655,34913291015,https://www.vulco.es/autogarajes-mikel/,,| Wheel alignment | Change Tires | Tire balancing | Puncture proof tires | Wheel alignment | Change Tires | Tire balancing | Puncture proof tires | Changing shock absorbers | Brake discs | Windshield wiper blades | brake pads | Headlight adjustment | Changing shock absorbers | Brake discs | Windshield wiper blades | Brake pads | Headlight adjustment | Battery | Oil change | Timing belt | Oil filter | Cabin filter | Coolant | Tires | Exhaust pipes | Sale of accessories | Battery | Oil change | Timing belt | Oil filter | Cabin filter | Coolant | Tires | Exhaust pipes | Sale of accessories | Air-conditioning | Pre ITV | Air-conditioning | Pre ITV |,,,,https://www.vulco.es/
abc,ESP,Tyre Service,Vulco,NEUMÁTICOS ETXEBARRIA - MATIENA,"Polígono Industrial Urbitarte, 1 (Junto al Eroski)",Matiena - Abadiano,48220,946232520,34913291015,https://www.vulco.es/neumaticos-etxebarria-matiena/,,| Change Tires | Wheel alignment | Change Tires | Wheel alignment | Changing shock absorbers | brake discs | Changing shock absorbers | Brake discs | Oil change | Exhaust pipes | Battery | Tires | Sale of accessories | Oil change | Exhaust pipes | Battery | Tires | Sale of accessories |,,,,https://www.vulco.es/
abc,ESP,Tyre Service,Vulco,NEUMÁTICOS EL TECHA,"Avenida de Federico Silva, 161 ",Benavente,49600,980634109,980632252,https://www.vulco.es/neumaticos-el-techa/,,| Wheel alignment | Change Tires | Tire balancing | Puncture proof tires | Wheel alignment | Change Tires | Tire balancing | Puncture proof tires | Change of shock absorbers | Brake discs | Windshield wiper blades | Brake pads | Headlight adjustment | Changing shock absorbers | Brake discs | Windshield wiper blades | Brake pads | Headlight adjustment | Battery | Oil change | Timing belt | Oil filter | Cabin filter | Coolant | Tires | exhaust pipes | Sale of accessories | Battery | Oil change | Timing belt | Oil filter | Cabin filter | Coolant | Tires | exhaust pipes | Sale of accessories | Air-conditioning | Replacement vehicle | Air-conditioning | Replacement vehicle |,,,,https://www.vulco.es/
abc,ESP,Tyre Service,Vulco,TALLERES INESGAR,N-122 Km.427,Toro,49800,980690470|679979363,34913291015,https://www.vulco.es/talleres-inesgar/,,| Wheel alignment | Change Tires | Tire balancing | Nitrogen inflation | Puncture proof tires | Wheel alignment | Change Tires | Tire balancing | Inflated with nitrogen | Puncture proof tires | Changing shock absorbers | Brake discs | Windshield wiper blades | Brake pads | Headlight adjustment | Changing shock absorbers | Brake discs | Windshield wiper blades | Brake pads | Headlight adjustment | Battery | Oil change | timing belt | Oil filter | Cabin filter | Coolant | Tires | Exhaust pipes | Sale of accessories | Battery | Oil change | Timing belt | Oil filter | Cabin filter | Coolant | Tires | Exhaust pipes | Sale of accessories | Air-conditioning | Exterior washing | Interior wash | Interior cleaning with ozone | Pick & Drop | Pre ITV | Mobile Workshop Unit | Replacement vehicle | Air-conditioning | Exterior wash | Interior wash | Interior cleaning with ozone | Pick & Drop | Pre ITV | Mobile Workshop Unit | Replacement vehicle | Waiting room | Complimentary drinks | Free WiFi | TV | Parking | Parking familiar | Waiting room | Complimentary drinks | Free WiFi | TV | Parking | Parking familiar |,,,,https://www.vulco.es/
abc,ESP,Tyre Service,Vulco,RECABARRIOS,"C/ Salamanca, 59 ",Zamora,49028,980530704,34913291015,https://www.vulco.es/recabarrios/,,| Wheel alignment | Change Tires | Tire balancing | Puncture proof tires | Wheel alignment | Change Tires | Tire balancing | Puncture proof tires | Changing shock absorbers | Brake discs | Windshield wiper blades | Brake pads | Changing shock absorbers | Brake discs | Windshield wiper blades | Brake pads | Battery | Oil change | Oil filter | Cabin filter | Coolant | Tires | Exhaust pipes | Sale of accessories | Battery | Oil change | Oil filter | Cabin filter | Coolant | Tires | Exhaust pipes | Sale of accessories | Pre ITV | Mobile Workshop Unit | Pre ITV | Mobile Workshop Unit | Waiting room | Free WiFi | Parking for people with disabilities | Waiting room | Free WiFi | Parking for people with disabilities |,,,,https://www.vulco.es/
abc,ESP,Tyre Service,Vulco,TALLERES CAPAPE,"Carretera de Brea, s/n, 12 ",Illueca,50250,976822214,976822658,https://www.vulco.es/talleres-capape/,,| Wheel alignment | Change Tires | Tire balancing | Inflated with nitrogen | Puncture proof tires | Wheel alignment | Change Tires | Tire balancing | Inflated with nitrogen | Puncture proof tires | Changing shock absorbers | Brake discs | Windshield wiper blades | Brake pads | Headlight adjustment | Changing shock absorbers | Brake discs | Windshield wiper blades | Brake pads | Headlight adjustment | Battery | Oil change | Timing belt | Oil filter | Cabin filter | Coolant | Tires | Exhaust pipes | Sale of accessories | Battery | Oil change | Timing belt | Oil filter | Cabin filter | Coolant | Tires | Exhaust pipes | Sale of accessories | Air-conditioning | Financing | Exterior wash | Interior wash | Interior cleaning with ozone | Pre ITV | Replacement vehicle | Air-conditioning | Financing | Exterior washing | Interior wash | Interior cleaning with ozone | Pre ITV | Replacement vehicle |,,,,https://www.vulco.es/
abc,ESP,Tyre Service,Vulco,AUTOCENTRO EMPRESARIUM,"Pol.Ind. EMPRESARIUM.Crta.Valmadrid, Km 3,100 C/ Acebo-Esquina Ontina, Nave 52",La Cartuja Baja,50720,876262983,876262983,https://www.vulco.es/autocentro-empresarium/,,| Wheel alignment | Change Tires | Tire balancing | Puncture proof tires | Wheel alignment | Change Tires | Tire balancing | Puncture proof tires | Changing shock absorbers | Brake discs | Windshield wiper blades | Brake pads | Headlight adjustment | Changing shock absorbers | Brake discs | Windshield wiper blades | brake pads | Headlight adjustment | Battery | Oil change | Timing belt | Oil filter | Cabin filter | Coolant | Tires | exhaust pipes | Sale of accessories | Battery | Oil change | Timing belt | Oil filter | Cabin filter | Coolant | Tires | Exhaust pipes | Sale of accessories | Air-conditioning | Pre ITV | Air-conditioning | Pre ITV |,,,,https://www.vulco.es/
abc,ESP,Tyre Service,Vulco,NTCOS. ELÍAS COMPETICIÓN,"Calle Asalto, 51 Centro",Zaragoza,50002,976296903,976296601,https://www.vulco.es/ntcos-elias-competicion/,,| Wheel alignment | Change Tires | Tire balancing | Inflated with nitrogen | Puncture proof tires | Wheel alignment | Change Tires | Tire balancing | Inflated with nitrogen | Puncture proof tires | Changing shock absorbers | brake discs | Windshield wiper blades | Brake pads | Headlight adjustment | Changing shock absorbers | Brake discs | Wiper blades | Brake pads | Headlight adjustment | Battery | Oil change | Timing belt | Oil filter | Cabin filter | Coolant | Tires | Exhaust pipes | Sale of accessories | Battery | Oil change | timing belt | Oil filter | Cabin filter | Coolant | Tires | Exhaust pipes | Sale of accessories | Air-conditioning | Pre ITV | Replacement vehicle | Air-conditioning | Pre ITV | Replacement vehicle |,,,,https://www.vulco.es/
abc,ESP,Tyre Service,Vulco,EXPO TYRE PLAZA,Centro Plaza,Zaragoza,50197,976900620,876269183,https://www.vulco.es/expo-tyre-plaza/,,| Wheel alignment | Change Tires | Tire balancing | Inflated with nitrogen | Puncture proof tires | Wheel alignment | Change Tires | Tire balancing | Inflated with nitrogen | Puncture proof tires | Change of shock absorbers | Brake discs | Windshield wiper blades | Brake pads | Headlight adjustment | Change of shock absorbers | Brake discs | Windshield wiper blades | Brake pads | Headlight adjustment | Battery | Oil change | Timing belt | Oil filter | Cabin filter | Coolant | Tires | Exhaust pipes | Sale of accessories | Battery | Oil change | Timing belt | Oil filter | Cabin filter | Coolant | Tires | Exhaust pipes | Sale of accessories | Air-conditioning | Pre ITV | Replacement vehicle | Air-conditioning | Pre ITV | Replacement vehicle |,,,,https://www.vulco.es/
abc,ESP,Tyre Service,Vulco,EXPO TYRE ZARAGOZA,"CARRETERA DE LOGROÑO KM 2,2 NAVE A POLIG. VISTABELLA",Zaragoza,50011,976759500,976488171,https://www.vulco.es/expo-tyre-zaragoza/,,| Wheel alignment | Change Tires | Tire balancing | Inflated with nitrogen | Puncture proof tires | Wheel alignment | Change Tires | Tire balancing | Inflated with nitrogen | Puncture proof tires | Change of shock absorbers | Brake discs | Wiper blades | Brake pads | Headlight adjustment | Changing shock absorbers | Brake discs | Windshield wiper blades | Brake pads | Headlight adjustment | Battery | Oil change | Timing belt | Oil filter | Cabin filter | Coolant | Tires | Exhaust pipes | Sale of accessories | Battery | Oil change | Timing belt | Oil filter | Cabin filter | Coolant | Tires | Exhaust pipes | Sale of accessories | Air-conditioning | Pre ITV | Replacement vehicle | Air-conditioning | Pre ITV | Replacement vehicle |,,,,https://www.vulco.es/
abc,ESP,Tyre Service,Vulco,AUTOGOYA,"AVDA. VALENCIA, 28 ",Zaragoza,50005,976402558|644678488,34913291015,https://www.vulco.es/autogoya/,,| Wheel alignment | Change Tires | Tire balancing | Puncture proof tires | Wheel alignment | Change Tires | Tire balancing | Puncture proof tires | Changing shock absorbers | brake discs | Windshield wiper blades | Brake pads | Headlight adjustment | Changing shock absorbers | Brake discs | Windshield wiper blades | brake pads | Headlight adjustment | Battery | Oil change | timing belt | Oil filter | Cabin filter | Coolant | Tires | Exhaust pipes | Sale of accessories | Battery | Oil change | Timing belt | Oil filter | Cabin filter | Coolant | Tires | Exhaust pipes | Sale of accessories | Air-conditioning | Financing | Interior cleaning with ozone | Air-conditioning | Financing | Interior cleaning with ozone | Waiting room | Free WiFi | Suitable for animals | Waiting room | Free WiFi | Suitable for animals |,,,,https://www.vulco.es/
abc,ESP,Tyre Service,Vulco,EXPO TYRE PREMIUM,"Ctra. Logroño Km 0,3 Gasolinera Zoilo Ríos El Portazgo ",Zaragoza,50011,976906020,34913291015,https://www.vulco.es/expo-tyre-premium/,,| Wheel alignment | Change Tires | Tire balancing | Inflated with nitrogen | Puncture proof tires | Wheel alignment | Change Tires | Tire balancing | Inflated with nitrogen | Puncture proof tires | Changing shock absorbers | Brake discs | Wiper blades | Brake pads | Changing shock absorbers | Brake discs | Windshield wiper blades | Brake pads | Battery | Oil change | Oil filter | Cabin filter | Coolant | Tires | Exhaust pipes | Battery | Oil change | Oil filter | Cabin filter | Coolant | Tires | Exhaust pipes | Pre ITV | Pre ITV |,,,,https://www.vulco.es/
abc,ESP,Tyre Service,Vulco,NEUMÁTICOS HERCA,"Autovia de Logroño km 9.2, Zaragoza, ",ZARAGOZA,50120,976770429,976775037,https://www.vulco.es/neumaticos-herca/,,| Steering alignment | Change Tires | Tire balancing | Inflated with nitrogen | Puncture proof tires | Wheel alignment | Change Tires | Tire balancing | Inflated with nitrogen | Puncture proof tires | Changing shock absorbers | Brake discs | Windshield wiper blades | Brake pads | Headlight adjustment | Change of shock absorbers | Brake discs | Windshield wiper blades | Brake pads | Headlight adjustment | Battery | Oil change | Timing belt | Oil filter | Cabin filter | Coolant | Tires | Exhaust pipes | Sale of accessories | Battery | Oil change | Timing belt | Oil filter | Cabin filter | Coolant | Tires | Exhaust pipes | Sale of accessories | Air-conditioning | Pre ITV | Replacement vehicle | Air-conditioning | Pre ITV | Replacement vehicle |,,,,https://www.vulco.es/
