abc,country,target_groups,contracts,name,street,city,postal_code,phone,fax,web,email,services,latitude,longitude,garage_id,sources
abc,SE,IAM Garage marketing system,CaryGroup,Alingsås,Verkstadsgatan 1,Alingsås,44157,0771-411411,,https://rydsbilglas.se//hitta-verkstad/alingsas/,alingsas@rydsbilglas.se,Car glass | Stone shooting | Route change | Wiper blade,57.94127,12.5314,,https://rydsbilglas.se/
abc,SE,IAM Garage marketing system,CaryGroup,Arboga,Munkgatan 29,Arboga,73221,0771-411411,,https://rydsbilglas.se//hitta-verkstad/arboga/,arboga@rydsbilglas.se,Car glass | Stone shooting | Route change | Wiper blade,59.389229,15.836055,,https://rydsbilglas.se/
abc,SE,IAM Garage marketing system,CaryGroup,Arvika,Förrådsgatan 3,Arvika,67134,0771-411411,,https://rydsbilglas.se//hitta-verkstad/arvika/,arvika@rydsbilglas.se,Car glass | Stone shooting | Route change | Wiper blade,59.659765,12.608261,,https://rydsbilglas.se/
abc,SE,IAM Garage marketing system,CaryGroup,Avesta,Högbostigen 1,Avesta,77463,0771-411411,,https://rydsbilglas.se//hitta-verkstad/avesta/,avesta@rydsbilglas.se,Car glass | Stone shooting | Route change | Wiper blade,60.155337,16.1744842,,https://rydsbilglas.se/
abc,SE,IAM Garage marketing system,CaryGroup,Bollnäs,Industrigatan 7,Bollnäs,82141,0771-411411,,https://rydsbilglas.se//hitta-verkstad/bollnas/,bollnas@rydsbilglas.se,Car glass | Stone shooting | Route change | Wiper blade,61.332846,16.403569,,https://rydsbilglas.se/
abc,SE,IAM Garage marketing system,CaryGroup,"Borlänge, Södra Backa",Lusbergsvägen 5,Borlänge,78171,0771-411411,,https://rydsbilglas.se//hitta-verkstad/borlange/borlange-sodra-backa/,borlange@rydsbilglas.se,Car glass | Stone shooting | Route change | Wiper blade,60.4703,15.4403,,https://rydsbilglas.se/
abc,SE,IAM Garage marketing system,CaryGroup,"Borlänge, Åselby",Cirkelgatan 8,Borlänge,78182,0771-411411,,https://rydsbilglas.se//hitta-verkstad/borlange/borlange-aselby/,borlange.aselby@rydsbilglas.se,Car glass | Stone shooting | Route change | Wiper blade,60.470099,15.460233,,https://rydsbilglas.se/
abc,SE,IAM Garage marketing system,CaryGroup,"Borås, Bergsäter",Humlegatan 15,Borås,50451,0771-411411,,https://rydsbilglas.se//hitta-verkstad/boras/boras-bergsater/,boras.bergsater@rydsbilglas.se,Car glass | Stone shooting | Route change | Wiper blade,57.7163,12.9528,,https://rydsbilglas.se/
abc,SE,IAM Garage marketing system,CaryGroup,"Borås, Knalleland",Vegagatan 1,Borås,50635,0771-411411,,https://rydsbilglas.se//hitta-verkstad/boras/boras-knalleland/,boras.knalleland@rydsbilglas.se,Car glass | Stone shooting | Route change | Wiper blade,57.7301,12.9422,,https://rydsbilglas.se/
abc,SE,IAM Garage marketing system,CaryGroup,Bålsta,Dragrännan 2B,Bålsta,74650,0771-411411,,https://rydsbilglas.se//hitta-verkstad/balsta/,balsta@rydsbilglas.se,Car glass | Stone shooting | Route change | Wiper blade,59.561582,17.556022,,https://rydsbilglas.se/
abc,SE,IAM Garage marketing system,CaryGroup,Eksjö,Mattläggargatan 4,Eksjö,57539,0381-14740,,https://rydsbilglas.se//hitta-verkstad/eksjo/,eksjo@rydsbilglas.se,Car glass | Stone shooting | Route change | Wiper blade,57.6594686,14.9645207,,https://rydsbilglas.se/
abc,SE,IAM Garage marketing system,CaryGroup,"Enköping, Torggatan",Torggatan 15,Enköping,74935,0771-411411,,https://rydsbilglas.se//hitta-verkstad/enkoping/enkoping-torggatan/,enkoping.torggatan@rydsbilglas.se,Car glass | Stone shooting | Route change | Wiper blade,59.632292,17.08224,,https://rydsbilglas.se/
abc,SE,IAM Garage marketing system,CaryGroup,"Enköping, Vårfrugatan",Vårfrugatan 2,Enköping,74534,0771-411411,,https://rydsbilglas.se//hitta-verkstad/enkoping/enkoping-varfrugatan/,enkoping@rydsbilglas.se,Car glass | Stone shooting | Route change | Wiper blade,59.64422,17.08312,,https://rydsbilglas.se/
abc,SE,IAM Garage marketing system,CaryGroup,Eskilstuna,Mått Johanssons väg 26,Eskilstuna,63346,0771-411411,,https://rydsbilglas.se//hitta-verkstad/eskilstuna/,eskilstuna@rydsbilglas.se,Car glass | Stone shooting | Route change | Wiper blade,59.38693,16.48493,,https://rydsbilglas.se/
abc,SE,IAM Garage marketing system,CaryGroup,Eslöv,Vindelvägen 1b,ESLÖV,24138,0771-411411,,https://rydsbilglas.se//hitta-verkstad/eslov/,eslov@rydsbilglas.se,Car glass | Stone shooting | Route change | Wiper blade,55.8383052,13.3263455,,https://rydsbilglas.se/
abc,SE,IAM Garage marketing system,CaryGroup,Fagersta,Kristiansbergsvägen 1,Fagersta,73730,0223-15835,,https://rydsbilglas.se//hitta-verkstad/fagersta/,fagersta@rydsbilglas.se,Car glass | Stone shooting | Route change | Wiper blade,59.998316,15.815003,,https://rydsbilglas.se/
abc,SE,IAM Garage marketing system,CaryGroup,Falkenberg,Kanslistvägen 4,Falkenberg,31139,0771-411411,,https://rydsbilglas.se//hitta-verkstad/falkenberg/,falkenberg@rydsbilglas.se,Car glass | Stone shooting | Route change | Wiper blade,56.9165922,12.4989391,,https://rydsbilglas.se/
abc,SE,IAM Garage marketing system,CaryGroup,Falköping,Verkstadsgatan 8,Falköping,52141,0771-411411,,https://rydsbilglas.se//hitta-verkstad/falkoping/,falkoping@rydsbilglas.se,Car glass | Stone shooting | Route change | Wiper blade,58.16241,13.56976,,https://rydsbilglas.se/
abc,SE,IAM Garage marketing system,CaryGroup,"Falun, Ingarvet",Matsarvsvägen 8,Falun,79177,0771-411411,,https://rydsbilglas.se//hitta-verkstad/falun/falun-ingarvet/,falun.ingarvet@rydsbilglas.se,Car glass | Stone shooting | Route change | Wiper blade,60.60726,15.59368,,https://rydsbilglas.se/
abc,SE,IAM Garage marketing system,CaryGroup,"Falun, Regementet",Plutonsvägen 1,Falun,79140,0771-411411,,https://rydsbilglas.se//hitta-verkstad/falun/falun-regementet/,falun.regementet@rydsbilglas.se,Car glass | Stone shooting | Route change | Wiper blade,60.6062053,15.6564519,,https://rydsbilglas.se/
abc,SE,IAM Garage marketing system,CaryGroup,Finspång,Hårtorpsvägen 31,Finspång,61245,0771-411411,,https://rydsbilglas.se//hitta-verkstad/finspang/,finspang@rydsbilglas.se,Car glass | Stone shooting | Route change | Wiper blade,58.70360,15.82030,,https://rydsbilglas.se/
abc,SE,IAM Garage marketing system,CaryGroup,Gotland,Verkstadsgatan 7E,Visby,62141,0771-411411,,https://rydsbilglas.se//hitta-verkstad/gotland/,gotland@rydsbilglas.se,Car glass | Stone shooting | Route change | Wiper blade,57.6448626,18.3210399,,https://rydsbilglas.se/
abc,SE,IAM Garage marketing system,CaryGroup,Gällivare,Borrvägen 5,Gällivare,98238,771411411,,https://rydsbilglas.se//hitta-verkstad/gallivare/,gallivare@rydsbilglas.se,Car glass | Stone shooting | Route change | Wiper blade,67.1510897,20.6208602,,https://rydsbilglas.se/
abc,SE,IAM Garage marketing system,CaryGroup,"Gävle, Brynäs",Södra Skeppsbron 19,Gävle,80284,0771-411411,,https://rydsbilglas.se//hitta-verkstad/gavle/gavle-brynas/,gavle@rydsbilglas.se,Car glass | Stone shooting | Route change | Wiper blade,60.6782,17.1684,,https://rydsbilglas.se/
abc,SE,IAM Garage marketing system,CaryGroup,"Gävle, Hemlingby",Ingenjörsgatan 20,Gävle,80293,0771-411411,,https://rydsbilglas.se//hitta-verkstad/gavle/gavle-hemlingby/,gavle.hemlingby@rydsbilglas.se,Car glass | Stone shooting | Route change | Wiper blade,60.6459,17.1495,,https://rydsbilglas.se/
abc,SE,IAM Garage marketing system,CaryGroup,"Göteborg, Bäckebol",Transportgatan 4,HisingsBacka,42246,0771-411411,,https://rydsbilglas.se//hitta-verkstad/goteborg/goteborg-backebol/,gbg.backebol@rydsbilglas.se,Car glass | Stone shooting | Route change | Wiper blade | Solfilm | Lantern polishing,57.77041,11.99741,,https://rydsbilglas.se/
abc,SE,IAM Garage marketing system,CaryGroup,"Göteborg, Högsbo",Victor Hasselblads gata 2,Frölunda,42131,0771-411411,,https://rydsbilglas.se//hitta-verkstad/goteborg/goteborg-hogsbo/,gbg.hogsbo@rydsbilglas.se,Car glass | Stone shooting | Route change | Wiper blade,57.65866,11.93974,,https://rydsbilglas.se/
abc,SE,IAM Garage marketing system,CaryGroup,"Göteborg, Landvetter",Ullbergsvägen 2,Landvetter,43834,0771-411411,,https://rydsbilglas.se//hitta-verkstad/goteborg/goteborg-landvetter/,landvetter@rydsbilglas.se,Car glass | Stone shooting | Route change | Wiper blade,57.6853566,12.2256557,,https://rydsbilglas.se/
abc,SE,IAM Garage marketing system,CaryGroup,"Göteborg, Mölndal",Södra Ågatan 8,Mölndal,43135,0771-411411,,https://rydsbilglas.se//hitta-verkstad/goteborg/goteborg-molndal/,gbg.molndal@rydsbilglas.se,Car glass | Stone shooting | Route change | Wiper blade,57.6601,12.0154,,https://rydsbilglas.se/
abc,SE,IAM Garage marketing system,CaryGroup,"Göteborg, Partille",Järnringen 50,Partille,43330,0771-411411,,https://rydsbilglas.se//hitta-verkstad/goteborg/goteborg-partille/,gbg.partille@rydsbilglas.se,Car glass | Stone shooting | Route change | Wiper blade | Lantern polishing,57.7392,12.0828,,https://rydsbilglas.se/
abc,SE,IAM Garage marketing system,CaryGroup,"Göteborg, Sisjön",Datavägen 43C,Askim,43632,0771-411411,,https://rydsbilglas.se//hitta-verkstad/goteborg/goteborg-sisjon/,gbg.sisjon@rydsbilglas.se,Car glass | Stone shooting | Route change | Wiper blade,57.6390239,11.9601922,,https://rydsbilglas.se/
abc,SE,IAM Garage marketing system,CaryGroup,"Göteborg, Stigscenter",Exportgatan 81A,HisingsBacka,42246,031-581555,,https://rydsbilglas.se//hitta-verkstad/goteborg/goteborg-stigscenter/,gbg.stigscenter@rydsbilglas.se,Car glass | Stone shooting | Route change | Wiper blade,57.746023,11.9940492,,https://rydsbilglas.se/
abc,SE,IAM Garage marketing system,CaryGroup,"Göteborg, Sävedalen",Göteborgsvägen 112,Sävedalen,43363,0771-411411,,https://rydsbilglas.se//hitta-verkstad/goteborg/goteborg-savedalen/,gbg.savedalen@rydsbilglas.se,Car glass | Stone shooting | Route change | Wiper blade,57.73388,12.08395,,https://rydsbilglas.se/
abc,SE,IAM Garage marketing system,CaryGroup,"Göteborg, Vädermotet",Ruskvädersgatan 13,Göteborg,41834,0771-411411,,https://rydsbilglas.se//hitta-verkstad/goteborg/goteborg-vadermotet/,gbg.vadermotet@rydsbilglas.se,Car glass | Stone shooting | Route change | Wiper blade,57.707025,11.8787307,,https://rydsbilglas.se/
abc,SE,IAM Garage marketing system,CaryGroup,"Halmstad, Flygstaden",Svartalundsvägen 3,Halmstad,30235,0771-411411,,https://rydsbilglas.se//hitta-verkstad/halmstad/halmstad-flygstaden/,halmstad.flygstaden@rydsbilglas.se,Car glass | Stone shooting | Route change | Wiper blade,56.6768472,12.8236022,,https://rydsbilglas.se/
abc,SE,IAM Garage marketing system,CaryGroup,"Halmstad, Öst",Gesällgatan 5,Halmstad,30255,0771-411411,,https://rydsbilglas.se//hitta-verkstad/halmstad/halmstad-ost/,halmstad.ost@rydsbilglas.se,Car glass | Stone shooting | Route change | Wiper blade,56.6592,12.8951,,https://rydsbilglas.se/
abc,SE,IAM Garage marketing system,CaryGroup,"Haninge, Albyberg",Albybergsringen 99,Österhaninge,13769,0771-411411,,https://rydsbilglas.se//hitta-verkstad/haninge/haninge-albyberg/,albyberg@rydsbilglas.se,Car glass | Stone shooting | Route change | Wiper blade,59.150854,18.157840,,https://rydsbilglas.se/
abc,SE,IAM Garage marketing system,CaryGroup,"Haninge, Hantverkarvägen",Hantverkarvägen 23 C,Handen,13644,0771-411411,,https://rydsbilglas.se//hitta-verkstad/haninge/haninge-hantverkarvagen/,hantverkarvagen@rydsbilglas.se,Car glass | Stone shooting | Route change | Wiper blade,59.17178,18.15108,,https://rydsbilglas.se/
abc,SE,IAM Garage marketing system,CaryGroup,"Haninge, Vendelsövägen",Vendelsövägen 51,Handen,13644,0771-411411,,https://rydsbilglas.se//hitta-verkstad/haninge/haninge-vendelsovagen/,haninge@rydsbilglas.se,Car glass | Stone shooting | Route change | Wiper blade,59.1786,18.1619,,https://rydsbilglas.se/
abc,SE,IAM Garage marketing system,CaryGroup,"Helsingborg, Norr",Garnisonsgatan 16,Helsingborg,25466,0771-411411,,https://rydsbilglas.se//hitta-verkstad/helsingborg/helsingborg-norr/,helsingborg.norr@rydsbilglas.se,Car glass | Stone shooting | Route change | Wiper blade,56.0747,12.7297,,https://rydsbilglas.se/
abc,SE,IAM Garage marketing system,CaryGroup,"Helsingborg, Söder",Industrigatan 97,Helsingborg,25232,0771-411411,,https://rydsbilglas.se//hitta-verkstad/helsingborg/helsingborg-soder/,helsingborg.soder@rydsbilglas.se,Car glass | Stone shooting | Route change | Wiper blade,56.0125,12.7196,,https://rydsbilglas.se/
abc,SE,IAM Garage marketing system,CaryGroup,Hudiksvall,Kullbäcksvägen 8,Hudiksvall,82431,0771-411411,,https://rydsbilglas.se//hitta-verkstad/hudiksvall/,hudiksvall@rydsbilglas.se,Car glass | Stone shooting | Route change | Wiper blade,61.73386,17.0962289,,https://rydsbilglas.se/
abc,SE,IAM Garage marketing system,CaryGroup,Härnösand,Löpargatan 1,Härnösand,87151,0771-411411,,https://rydsbilglas.se//hitta-verkstad/harnosand/,harnosand@rydsbilglas.se,Car glass | Stone shooting | Route change | Wiper blade,62.641295,17.914761,,https://rydsbilglas.se/
abc,SE,IAM Garage marketing system,CaryGroup,Hässleholm,Helsingsborgsvägen 8,Hässleholm,28149,0771-411411,,https://rydsbilglas.se//hitta-verkstad/hassleholm/,hassleholm@rydsbilglas.se,Car glass | Stone shooting | Route change | Wiper blade,56.1573,13.7477,,https://rydsbilglas.se/
abc,SE,IAM Garage marketing system,CaryGroup,"Jönköping, Ekhagen",Hästhovsvägen 6,Jönköping,55454,0771-411411,,https://rydsbilglas.se//hitta-verkstad/jonkoping/jonkoping-ekhagen/,jonkoping.ekhagen@rydsbilglas.se,Car glass | Stone shooting | Route change | Wiper blade,57.78038,14.22561,,https://rydsbilglas.se/
abc,SE,IAM Garage marketing system,CaryGroup,"Jönköping, Ljungarum",Barnhemsgatan 14,Jönköping,55302,0771-411411,,https://rydsbilglas.se//hitta-verkstad/jonkoping/jonkoping-ljungarum/,jonkoping.ljungarum@rydsbilglas.se,Car glass | Stone shooting | Route change | Wiper blade,57.7619216,14.1673953,,https://rydsbilglas.se/
abc,SE,IAM Garage marketing system,CaryGroup,Kalmar,Polhemsgatan 20,Kalmar,39239,0771-411411,,https://rydsbilglas.se//hitta-verkstad/kalmar/,kalmar@rydsbilglas.se,Car glass | Stone shooting | Route change | Wiper blade,56.67226,16.33033,,https://rydsbilglas.se/
abc,SE,IAM Garage marketing system,CaryGroup,Karlshamn,Sölvesborgsvägen 29,Karlshamn,37441,0454-31762,,https://rydsbilglas.se//hitta-verkstad/karlshamn/,karlshamn@rydsbilglas.se,Car glass | Stone shooting | Route change | Wiper blade,56.1847703,14.8471243,,https://rydsbilglas.se/
abc,SE,IAM Garage marketing system,CaryGroup,Karlskoga,Häsängsvägen 4,Karlskoga,69142,0771-411411,,https://rydsbilglas.se//hitta-verkstad/karlskoga/,karlskoga@rydsbilglas.se,Car glass | Stone shooting | Route change | Wiper blade,59.3234377,14.4947904,,https://rydsbilglas.se/
abc,SE,IAM Garage marketing system,CaryGroup,Karlskrona,Ronnebyvägen 5,Karlskrona,37145,0771-411411,,https://rydsbilglas.se//hitta-verkstad/karlskrona/,karlskrona@rydsbilglas.se,Car glass | Stone shooting | Route change | Wiper blade,56.19771,15.61009,,https://rydsbilglas.se/
abc,SE,IAM Garage marketing system,CaryGroup,"Karlstad, Hammarö",Bivägen 8,Hammarö,66341,0771-411411,,https://rydsbilglas.se//hitta-verkstad/karlstad/karlstad-hammaro/,karlstad.hammaro@rydsbilglas.se,Car glass | Stone shooting | Route change | Wiper blade,59.34535,13.50298,,https://rydsbilglas.se/
abc,SE,IAM Garage marketing system,CaryGroup,"Karlstad, Våxnäs",Blockgatan 19,Karlstad,65341,0771-411411,,https://rydsbilglas.se//hitta-verkstad/karlstad/karlstad-vaxnas/,karlstad@rydsbilglas.se,Car glass | Stone shooting | Route change | Wiper blade,59.38819,13.47353,,https://rydsbilglas.se/
abc,SE,IAM Garage marketing system,CaryGroup,Katrineholm,Oppundavägen 62,Katrineholm,64137,0771-411411,,https://rydsbilglas.se//hitta-verkstad/katrineholm/,katrineholm@rydsbilglas.se,Car glass | Stone shooting | Route change | Wiper blade,58.987367,16.2073305,,https://rydsbilglas.se/
abc,SE,IAM Garage marketing system,CaryGroup,Kinna,Skattegårdsgatan 10,KINNA,51156,771411411,,https://rydsbilglas.se//hitta-verkstad/kinna/,kinna@rydsbilglas.se,Car glass | Stone shooting | Route change | Wiper blade,57.4937063,12.6802379,,https://rydsbilglas.se/
abc,SE,IAM Garage marketing system,CaryGroup,Kiruna,Industrivägen 32,Kiruna,98138,771411411,,https://rydsbilglas.se//hitta-verkstad/kiruna/,kiruna@rydsbilglas.se,Car glass | Stone shooting | Route change | Wiper blade,67.8473133,20.2789225,,https://rydsbilglas.se/
abc,SE,IAM Garage marketing system,CaryGroup,Kristianstad,Fäladsgatan 1,Kristianstad,29159,0771-411411,,https://rydsbilglas.se//hitta-verkstad/kristianstad/,kristianstad.vilan@rydsbilglas.se,Car glass | Stone shooting | Route change | Wiper blade,56.0233,14.1445,,https://rydsbilglas.se/
abc,SE,IAM Garage marketing system,CaryGroup,Kungsbacka,Kabelgatan 2,Kungsbacka,43437,0771-411411,,https://rydsbilglas.se//hitta-verkstad/kungsbacka/,kungsbacka@rydsbilglas.se,Car glass | Stone shooting | Route change | Wiper blade,57.5054,12068,,https://rydsbilglas.se/
abc,SE,IAM Garage marketing system,CaryGroup,Kungälv,Teknikergatan 6,Kungälv,44234,0771-411411,,https://rydsbilglas.se//hitta-verkstad/kungalv/,kungalv@rydsbilglas.se,Car glass | Stone shooting | Route change | Wiper blade,57.8802,11.9806,,https://rydsbilglas.se/
abc,SE,IAM Garage marketing system,CaryGroup,Köping,Järnvägsgatan 4,Köping,73130,0771-411411,,https://rydsbilglas.se//hitta-verkstad/koping/,koping@rydsbilglas.se,Car glass | Stone shooting | Route change | Wiper blade,59.5087,15.9983,,https://rydsbilglas.se/
abc,SE,IAM Garage marketing system,CaryGroup,Landskrona,Östervångsplan 16,Landskrona,26144,0771-411411,,https://rydsbilglas.se//hitta-verkstad/landskrona/,landskrona@rydsbilglas.se,Car glass | Stone shooting | Route change | Wiper blade,55.87779,12.85544,,https://rydsbilglas.se/
abc,SE,IAM Garage marketing system,CaryGroup,Lidköping,Kinnegatan 19,Lidköping,53133,0510-24000,,https://rydsbilglas.se//hitta-verkstad/lidkoping/,lidkoping@rydsbilglas.se,Car glass | Stone shooting | Route change | Wiper blade,58.50159,13.17371,,https://rydsbilglas.se/
abc,SE,IAM Garage marketing system,CaryGroup,"Linköping, Mjärdevi",Algolgatan 10,Linköping,58335,0771-411411,,https://rydsbilglas.se//hitta-verkstad/linkoping/linkoping-mjardevi/,linkoping.mjardevi@rydsbilglas.se,Car glass | Stone shooting | Route change | Wiper blade,58.3918429,15.5478552,,https://rydsbilglas.se/
abc,SE,IAM Garage marketing system,CaryGroup,"Linköping, Tannefors","Gamla Tanneforsvägen 17C,",Linköping,58254,0771-411411,,https://rydsbilglas.se//hitta-verkstad/linkoping/linkoping-tannefors/,linkoping.tannefors@rydsbilglas.se,Car glass | Stone shooting | Route change | Wiper blade,58.409056,15.645941,,https://rydsbilglas.se/
abc,SE,IAM Garage marketing system,CaryGroup,"Linköping, Tornby",Roxviksgatan 10,Linköping,58273,0771-411411,,https://rydsbilglas.se//hitta-verkstad/linkoping/linkoping-tornby/,linkoping.tornby@rydsbilglas.se,Car glass | Stone shooting | Route change | Wiper blade | Lantern polishing,58.4308,15.5958,,https://rydsbilglas.se/
abc,SE,IAM Garage marketing system,CaryGroup,Ludvika,Glimmervägen 1,Ludvika,77141,0771-411411,,https://rydsbilglas.se//hitta-verkstad/ludvika/,ludvika@rydsbilglas.se,Car glass | Stone shooting | Route change | Wiper blade,60.13453,15.15519,,https://rydsbilglas.se/
abc,SE,IAM Garage marketing system,CaryGroup,"Luleå, Spantgatan",Spantgatan 6,Luleå,97346,0771-411411,,https://rydsbilglas.se//hitta-verkstad/lulea/lulea-spantgatan/,lulea.spantgatan@rydsbilglas.se,Car glass | Stone shooting | Route change | Wiper blade,65.60751,22.1217,,https://rydsbilglas.se/
abc,SE,IAM Garage marketing system,CaryGroup,"Luleå, Storheden",Betongvägen 16,Luleå,97345,0771-411411,,https://rydsbilglas.se//hitta-verkstad/lulea/lulea-storheden/,lulea.storheden@rydsbilglas.se,Car glass | Stone shooting | Route change | Wiper blade,65.6152401,22.0496298,,https://rydsbilglas.se/
abc,SE,IAM Garage marketing system,CaryGroup,"Lund, Gastelyckan",Skiffervägen 19,Lund,22478,0771-411411,,https://rydsbilglas.se//hitta-verkstad/lund/lund-gastelyckan/,lund.gastelyckan@rydsbilglas.se,Car glass | Stone shooting | Route change | Wiper blade,55.69362,13.21711,,https://rydsbilglas.se/
abc,SE,IAM Garage marketing system,CaryGroup,"Lund, Gunnesbo",Odlarevägen 3,Lund,22660,0771-411411,,https://rydsbilglas.se//hitta-verkstad/lund/lund-gunnesbo/,lund.gunnesbo@rydsbilglas.se,Car glass | Stone shooting | Route change | Wiper blade,55.71978,13.16633,,https://rydsbilglas.se/
abc,SE,IAM Garage marketing system,CaryGroup,Lycksele,Bångvägen 20,Lycksele,92132,0771-411411,,https://rydsbilglas.se//hitta-verkstad/lycksele/,lycksele@rydsbilglas.se,Car glass | Stone shooting | Route change | Wiper blade,64.5969853,18.6681147,,https://rydsbilglas.se/
abc,SE,IAM Garage marketing system,CaryGroup,"Malmö, Arlöv",Strömgatan 7,Malmö,21225,0771-411411,,https://rydsbilglas.se//hitta-verkstad/malmo/malmo-arlov/,arlov@rydsbilglas.se,Car glass | Stone shooting | Route change | Wiper blade | SMART | Repair,55.6266983,13.058837,,https://rydsbilglas.se/
abc,SE,IAM Garage marketing system,CaryGroup,"Malmö, Fosie",Kantyxegatan 25F,Malmö,21376,0771-411411,,https://rydsbilglas.se//hitta-verkstad/malmo/malmo-fosie/,malmo.fosie@rydsbilglas.se,Car glass | Stone shooting | Route change | Wiper blade,55.55635,13.04474,,https://rydsbilglas.se/
abc,SE,IAM Garage marketing system,CaryGroup,"Malmö, Heleneholm",Ystadvägen 17,Malmö,21430,0771-411411,,https://rydsbilglas.se//hitta-verkstad/malmo/malmo-heleneholm/,malmo.heleneholm@rydsbilglas.se,Car glass | Stone shooting | Route change | Wiper blade,55582,13.0099,,https://rydsbilglas.se/
abc,SE,IAM Garage marketing system,CaryGroup,"Malmö, Limhamn",Limhamnsgårdens Allé 23B,Limhamn,21616,0771-411411,,https://rydsbilglas.se//hitta-verkstad/malmo/malmo-limhamn/,malmo.limhamn@rydsbilglas.se,Car glass | Stone shooting | Route change | Wiper blade,55.57580,12.92961,,https://rydsbilglas.se/
abc,SE,IAM Garage marketing system,CaryGroup,"Malmö, Toftanäs",Topplocksgatan 15,Malmö,21241,0771-411411,,https://rydsbilglas.se//hitta-verkstad/malmo/malmo-toftanas/,malmo.toftanas@rydsbilglas.se,Car glass | Stone shooting | Route change | Wiper blade,55.5961472,13.0942745,,https://rydsbilglas.se/
abc,SE,IAM Garage marketing system,CaryGroup,"Malmö, Värnhem",Zenithgatan 5,Malmö,21214,0771-411411,,https://rydsbilglas.se//hitta-verkstad/malmo/malmo-varnhem/,malmo.varnhem@rydsbilglas.se,Car glass | Stone shooting | Route change | Wiper blade,55.60428,13.02564,,https://rydsbilglas.se/
abc,SE,IAM Garage marketing system,CaryGroup,Mariestad,Storegårdsvägen 64,Mariestad,54235,0771-411411,,https://rydsbilglas.se//hitta-verkstad/mariestad/,mariestad@rydsbilglas.se,Car glass | Stone shooting | Route change | Wiper blade,58.679833,13.813724,,https://rydsbilglas.se/
abc,SE,IAM Garage marketing system,CaryGroup,Mora,Hindrikesvägen 12,FÄRNÄS,79275,0771-411411,,https://rydsbilglas.se//hitta-verkstad/mora/,mora@rydsbilglas.se,Car glass | Stone shooting | Route change | Wiper blade,61.0084746,14.6186536,,https://rydsbilglas.se/
abc,SE,IAM Garage marketing system,CaryGroup,Motala,Mineralvägen 20,Motala,59153,0771-411411,,https://rydsbilglas.se//hitta-verkstad/motala/,motala@rydsbilglas.se,Car glass | Stone shooting | Route change | Wiper blade,58.5572269,15.0460744,,https://rydsbilglas.se/
abc,SE,IAM Garage marketing system,CaryGroup,"Norrköping, Butängen",Linnégatan 17,Norrköping,60223,0771-411411,,https://rydsbilglas.se//hitta-verkstad/norrkoping/norrkoping-butangen/,norrkoping.butangen@rydsbilglas.se,Car glass | Stone shooting | Route change | Wiper blade | Lantern polishing,58.6028,16.1853,,https://rydsbilglas.se/
abc,SE,IAM Garage marketing system,CaryGroup,"Norrköping, Risängen",Importgatan 18A,Norrköping,60228,0771-411411,,https://rydsbilglas.se//hitta-verkstad/norrkoping/norrkoping-risangen/,norrkoping.risangen@rydsbilglas.se,Car glass | Stone shooting | Route change | Wiper blade | Lantern polishing,58.58546,16.21984,,https://rydsbilglas.se/
abc,SE,IAM Garage marketing system,CaryGroup,Norrtälje,Görlavägen 11B,Norrtälje,76141,0771-411411,,https://rydsbilglas.se//hitta-verkstad/norrtalje/,norrtalje@rydsbilglas.se,Car glass | Stone shooting | Route change | Wiper blade,59.7387327,18.6913502,,https://rydsbilglas.se/
abc,SE,IAM Garage marketing system,CaryGroup,Nyköping,Brukslagarvägen 9,Nyköping,61131,0771-411411,,https://rydsbilglas.se//hitta-verkstad/nykoping/,nykoping@rydsbilglas.se,Car glass | Stone shooting | Route change | Wiper blade,58.7442,17.0053,,https://rydsbilglas.se/
abc,SE,IAM Garage marketing system,CaryGroup,Nässjö,Bockänggatan 10 B,Nässjö,57138,0771-411411,,https://rydsbilglas.se//hitta-verkstad/nassjo/,nassjo@rydsbilglas.se,Car glass | Stone shooting | Route change | Wiper blade,57.6479588,14.737106,,https://rydsbilglas.se/
abc,SE,IAM Garage marketing system,CaryGroup,Olofstorp,Bergums Skårsväg 1,Olofstorp,42491,031-7020697,,https://rydsbilglas.se//hitta-verkstad/olofstorp/,olofstorp@rydsbilglas.se,Car glass | Stone shooting | Route change | Wiper blade,57.803174264789114,12.1585686914253,,https://rydsbilglas.se/
abc,SE,IAM Garage marketing system,CaryGroup,Oskarshamn,Södra Fabriksgatan 25,Oskarshamn,57236,771411411,,https://rydsbilglas.se//hitta-verkstad/oskarshamn/,oskarshamn@rydsbilglas.se,Car glass | Stone shooting | Route change | Wiper blade | Lantern polishing,57.252649,16.446376,,https://rydsbilglas.se/
abc,SE,IAM Garage marketing system,CaryGroup,Piteå,Relägatan 4,Piteå,94147,0771-411411,,https://rydsbilglas.se//hitta-verkstad/pitea/,pitea@rydsbilglas.se,Car glass | Stone shooting | Route change | Wiper blade,65.32063799754285,21.44728436993078,,https://rydsbilglas.se/
abc,SE,IAM Garage marketing system,CaryGroup,Ronneby,Viggenvägen 14,Ronneby,37291,0457-10179,,https://rydsbilglas.se//hitta-verkstad/ronneby/,ronneby@rydsbilglas.se,Car glass | Stone shooting | Route change | Wiper blade,56.231135,15.257441,,https://rydsbilglas.se/
abc,SE,IAM Garage marketing system,CaryGroup,Sala,Väsbygatan 10,Sala,73339,0771-411411,,https://rydsbilglas.se//hitta-verkstad/sala/,sala@rydsbilglas.se,Car glass | Stone shooting | Route change | Wiper blade,59.9193871,16.6134716,,https://rydsbilglas.se/
abc,SE,IAM Garage marketing system,CaryGroup,Sandviken,Verkstadsgatan 3,Sandviken,81140,0771-411411,,https://rydsbilglas.se//hitta-verkstad/sandviken/,sandviken@rydsbilglas.se,Car glass | Stone shooting | Route change | Wiper blade,60.6254631,16.7539464,,https://rydsbilglas.se/
abc,SE,IAM Garage marketing system,CaryGroup,Skellefteå,Tjärnvägen 36,Skellefteå,93161,0771-411411,,https://rydsbilglas.se//hitta-verkstad/skelleftea/,skelleftea@rydsbilglas.se,Car glass | Stone shooting | Route change | Wiper blade,64.7296,20.9748,,https://rydsbilglas.se/
abc,SE,IAM Garage marketing system,CaryGroup,Skövde,Gesällgatan 1,Skövde,54150,0771-411411,,https://rydsbilglas.se//hitta-verkstad/skovde/,skovde@rydsbilglas.se,Car glass | Stone shooting | Route change | Wiper blade,58.38398,13.83652,,https://rydsbilglas.se/
abc,SE,IAM Garage marketing system,CaryGroup,Sollefteå,Gudlav Bildersgatan 8,Sollefteå,88131,0620-12065,,https://rydsbilglas.se//hitta-verkstad/solleftea/,solleftea@rydsbilglas.se,Car glass | Stone shooting | Route change | Wiper blade,63.16607,17.27816,,https://rydsbilglas.se/
abc,SE,IAM Garage marketing system,CaryGroup,Staffanstorp,Satellitvägen 16,Staffanstorp,24534,771411411,,https://rydsbilglas.se//hitta-verkstad/staffanstorp/,staffanstorp@rydsbilglas.se,Car glass | Stone shooting | Route change | Wiper blade,55.6486482,13.2250124,,https://rydsbilglas.se/
abc,SE,IAM Garage marketing system,CaryGroup,Stenungsund,Stenunge väg 22 C,Stenungsund,44431,0771-411411,,https://rydsbilglas.se//hitta-verkstad/stenungsund/,stenungsund@rydsbilglas.se,Car glass | Stone shooting | Route change | Wiper blade,58.07876,11.82721,,https://rydsbilglas.se/
abc,SE,IAM Garage marketing system,CaryGroup,"Stockholm, Arlandastad",Voltgatan 3,Arlandastad,19560,0771-411411,,https://rydsbilglas.se//hitta-verkstad/stockholm/stockholm-arlandastad/,arlandastad@rydsbilglas.se,Car glass | Stone shooting | Route change | Wiper blade,59.61525,17.86582,,https://rydsbilglas.se/
abc,SE,IAM Garage marketing system,CaryGroup,"Stockholm, Bromma",Registervägen 38,Bromma,16831,0771-411411,,https://rydsbilglas.se//hitta-verkstad/stockholm/stockholm-bromma/,bromma@rydsbilglas.se,Car glass | Stone shooting | Route change | Wiper blade,59.3376,17949,,https://rydsbilglas.se/
abc,SE,IAM Garage marketing system,CaryGroup,"Stockholm, Danderyd-Rinkebyvägen",Rinkebyvägen 11,Danderyd,18236,0771-411411,,https://rydsbilglas.se//hitta-verkstad/stockholm/stockholm-danderyd-rinkebyvagen/,danderyd.rinkebyvagen@rydsbilglas.se,Car glass | Stone shooting | Route change | Wiper blade,59.4120747,18.037718,,https://rydsbilglas.se/
abc,SE,IAM Garage marketing system,CaryGroup,"Stockholm, Ekerö",Bryggavägen 99C,Ekerö,17831,0771-411411,,https://rydsbilglas.se//hitta-verkstad/stockholm/stockholm-ekero/,ekero@rydsbilglas.se,Car glass | Stone shooting | Route change | Wiper blade,59.286130,17.829280,,https://rydsbilglas.se/
abc,SE,IAM Garage marketing system,CaryGroup,"Stockholm, Hammarby",Olaus Magnus väg 22,Johanneshov,12140,0771-411411,,https://rydsbilglas.se//hitta-verkstad/stockholm/stockholm-hammarby/,hammarby@rydsbilglas.se,Car glass | Stone shooting | Route change | Wiper blade,59.29799,18.08936,,https://rydsbilglas.se/
abc,SE,IAM Garage marketing system,CaryGroup,"Stockholm, Huddinge",Bäckdalsvägen 1,Huddinge,14137,0771-411411,,https://rydsbilglas.se//hitta-verkstad/stockholm/stockholm-huddinge/,huddinge@rydsbilglas.se,Car glass | Stone shooting | Route change | Wiper blade,59.2538,18.0131,,https://rydsbilglas.se/
abc,SE,IAM Garage marketing system,CaryGroup,"Stockholm, Jakobsberg",Järfällavägen 100,Järfälla,17741,0771-411411,,https://rydsbilglas.se//hitta-verkstad/stockholm/stockholm-jakobsberg/,jakobsberg@rydsbilglas.se,Car glass | Stone shooting | Route change | Wiper blade,59.41896,17.83055,,https://rydsbilglas.se/
abc,SE,IAM Garage marketing system,CaryGroup,"Stockholm, Kista",Torshamnsgatan 32D,Kista,16440,0771-411411,,https://rydsbilglas.se//hitta-verkstad/stockholm/stockholm-kista/,kista@rydsbilglas.se,Car glass | Stone shooting | Route change | Wiper blade,59.40792,17.95184,,https://rydsbilglas.se/
abc,SE,IAM Garage marketing system,CaryGroup,"Stockholm, Kungsholmen",Fridhemsgatan 38,Stockholm,11240,771411411,,https://rydsbilglas.se//hitta-verkstad/stockholm/stockholm-kungsholmen/,kungsholmen@rydsbilglas.se,Car glass | Stone shooting | Route change | Wiper blade,59.333870,18.0281887,,https://rydsbilglas.se/
abc,SE,IAM Garage marketing system,CaryGroup,"Stockholm, Lidingö",Båtsmansvägen 16,Lidingö,18141,0771-411411,,https://rydsbilglas.se//hitta-verkstad/stockholm/stockholm-lidingo/,lidingo@rydsbilglas.se,Car glass | Stone shooting | Route change | Wiper blade,59.3598337,18.1720347,,https://rydsbilglas.se/
abc,SE,IAM Garage marketing system,CaryGroup,"Stockholm, Länna",Fräsarvägen 24,Skogås,14250,0771-411411,,https://rydsbilglas.se//hitta-verkstad/stockholm/stockholm-lanna/,lanna@rydsbilglas.se,Car glass | Stone shooting | Route change | Wiper blade,59.19889,18.12141,,https://rydsbilglas.se/
abc,SE,IAM Garage marketing system,CaryGroup,"Stockholm, Nacka",Alphyddevägen 1,Nacka,13135,0771-411411,,https://rydsbilglas.se//hitta-verkstad/stockholm/stockholm-nacka/,nacka@rydsbilglas.se,Car glass | Stone shooting | Route change | Wiper blade,59.30734,18.12683,,https://rydsbilglas.se/
abc,SE,IAM Garage marketing system,CaryGroup,"Stockholm, Norrviken",Skolvägen 10,Sollentuna,19270,0771-411411,,https://rydsbilglas.se//hitta-verkstad/stockholm/stockholm-norrviken/,norrviken@rydsbilglas.se,Car glass | Stone shooting | Route change | Wiper blade | Lantern polishing,59456,17.9234,,https://rydsbilglas.se/
abc,SE,IAM Garage marketing system,CaryGroup,"Stockholm, Nynäshamn",Sandtorpsvägen 10,Nynäshamn,14945,771411411,,https://rydsbilglas.se//hitta-verkstad/stockholm/stockholm-nynashamn/,nynashamn@rydsbilglas.se,Car glass | Stone shooting | Route change | Wiper blade,58.9184291,17.9383981,,https://rydsbilglas.se/
abc,SE,IAM Garage marketing system,CaryGroup,"Stockholm, Smista",Smista allé 15D,Segeltorp,14174,0771-411411,,https://rydsbilglas.se//hitta-verkstad/stockholm/stockholm-smista/,smista@rydsbilglas.se,Car glass | Stone shooting | Route change | Wiper blade,59.28049,17.92376,,https://rydsbilglas.se/
abc,SE,IAM Garage marketing system,CaryGroup,"Stockholm, Solna Mall of Scandinavia","Stjärntorget 2, Mall of Scandinavia plan minus två (-2).",Solna,16979,0771-411411,,https://rydsbilglas.se//hitta-verkstad/stockholm/stockholm-solna-mall-of-scandinavia/,solna.mos@rydsbilglas.se,Car glass | Stone shooting | Route change | Wiper blade,59.369168,18.005365,,https://rydsbilglas.se/
abc,SE,IAM Garage marketing system,CaryGroup,"Stockholm, Spånga/Lunda",Avestagatan 61B,Spånga,16353,0771-411411,,https://rydsbilglas.se//hitta-verkstad/stockholm/stockholm-spangalunda/,spanga@rydsbilglas.se,Car glass | Stone shooting | Route change | Wiper blade,59.39098,17.87009,,https://rydsbilglas.se/
abc,SE,IAM Garage marketing system,CaryGroup,"Stockholm, Södermalm",Krukmakargatan 5,Stockholm,11851,0771-411411,,https://rydsbilglas.se//hitta-verkstad/stockholm/stockholm-sodermalm/,sodermalm@rydsbilglas.se,Car glass | Stone shooting | Route change | Wiper blade,59.3174888,18.0569233,,https://rydsbilglas.se/
abc,SE,IAM Garage marketing system,CaryGroup,"Stockholm, Tumba",Bergfotsvägen 17,Tumba,14733,0771-411411,,https://rydsbilglas.se//hitta-verkstad/stockholm/stockholm-tumba/,tumba@rydsbilglas.se,Car glass | Stone shooting | Route change | Wiper blade,59.19407474051377,17.82854390144348,,https://rydsbilglas.se/
abc,SE,IAM Garage marketing system,CaryGroup,"Stockholm, Tyresö",Vintervägen 28,Tyresö,13540,0771-411411,,https://rydsbilglas.se//hitta-verkstad/stockholm/stockholm-tyreso/,tyreso@rydsbilglas.se,Car glass | Stone shooting | Route change | Wiper blade,59.24542,18.21310,,https://rydsbilglas.se/
abc,SE,IAM Garage marketing system,CaryGroup,"Stockholm, Täby",Enhagsvägen 2,Täby,18740,0771-411411,,https://rydsbilglas.se//hitta-verkstad/stockholm/stockholm-taby/,taby@rydsbilglas.se,Car glass | Stone shooting | Route change | Wiper blade,59.4385,18.0532,,https://rydsbilglas.se/
abc,SE,IAM Garage marketing system,CaryGroup,"Stockholm, Upplands Väsby",Truckvägen 14,UpplandsVäsby,19452,0771-411411,,https://rydsbilglas.se//hitta-verkstad/stockholm/stockholm-upplands-vasby/,upplandsvasby@rydsbilglas.se,Car glass | Stone shooting | Route change | Wiper blade | Solfilm,59.5174093,17.9270593,,https://rydsbilglas.se/
abc,SE,IAM Garage marketing system,CaryGroup,"Stockholm, Valhallavägen",Valhallavägen 151,Stockholm,11531,0771-411411,,https://rydsbilglas.se//hitta-verkstad/stockholm/stockholm-valhallavagen/,valhallavagen@rydsbilglas.se,Car glass | Stone shooting | Route change | Wiper blade,59.3411436,18.0891246,,https://rydsbilglas.se/
abc,SE,IAM Garage marketing system,CaryGroup,"Stockholm, Vallentuna",Fågelsångsvägen 6,Vallentuna,18642,0771-411411,,https://rydsbilglas.se//hitta-verkstad/stockholm/stockholm-vallentuna/,vallentuna@rydsbilglas.se,Car glass | Stone shooting | Route change | Wiper blade,59.5144195,18.0910943,,https://rydsbilglas.se/
abc,SE,IAM Garage marketing system,CaryGroup,"Stockholm, Vanadisvägen",Vanadisvägen 6,Stockholm,11346,0771-411411,,https://rydsbilglas.se//hitta-verkstad/stockholm/stockholm-vanadisvagen/,vanadis@rydsbilglas.se,Car glass | Stone shooting | Route change | Wiper blade,59.34801,18.05051,,https://rydsbilglas.se/
abc,SE,IAM Garage marketing system,CaryGroup,"Stockholm, Värmdö Gustavsberg",Leveransvägen 7,Gustavsberg,13439,0771-411411,,https://rydsbilglas.se//hitta-verkstad/stockholm/stockholm-varmdo-gustavsberg/,varmdo@rydsbilglas.se,Car glass | Stone shooting | Route change | Wiper blade,59308,18.3816,,https://rydsbilglas.se/
abc,SE,IAM Garage marketing system,CaryGroup,"Stockholm, Värmdö Älvsby",Älvsbyvägen 14,Värmdö,13952,0771-411411,,https://rydsbilglas.se//hitta-verkstad/stockholm/stockholm-varmdo-alvsby/,varmdo.alvsby@rydsbilglas.se,Car glass | Stone shooting | Route change | Wiper blade,59.3286,18.53808,,https://rydsbilglas.se/
abc,SE,IAM Garage marketing system,CaryGroup,"Stockholm, Västberga",Västberga allé 4,Hägersten,12630,0771-411411,,https://rydsbilglas.se//hitta-verkstad/stockholm/stockholm-vastberga/,vastberga@rydsbilglas.se,Car glass | Stone shooting | Route change | Wiper blade,59.2981,18.0115,,https://rydsbilglas.se/
abc,SE,IAM Garage marketing system,CaryGroup,"Stockholm, Åkersberga",Rallarvägen 39,Åkersberga,18440,0771-411411,,https://rydsbilglas.se//hitta-verkstad/stockholm/stockholm-akersberga/,akersberga@rydsbilglas.se,Car glass | Stone shooting | Route change | Wiper blade,59.48492,18.27699,,https://rydsbilglas.se/
abc,SE,IAM Garage marketing system,CaryGroup,Strängnäs,Mästarvägen 5B,Strängnäs,64541,0152-10161,,https://rydsbilglas.se//hitta-verkstad/strangnas/,strangnas@rydsbilglas.se,Car glass | Stone shooting | Route change | Wiper blade,59.35551,17.03194,,https://rydsbilglas.se/
abc,SE,IAM Garage marketing system,CaryGroup,Strömstad,Solrosgatan 2,Strömstad,45233,0526-14900,,https://rydsbilglas.se//hitta-verkstad/stromstad/,stromstad@rydsbilglas.se,Car glass | Stone shooting | Route change | Wiper blade,58.94407,11.21617,,https://rydsbilglas.se/
abc,SE,IAM Garage marketing system,CaryGroup,"Sundsvall, Birsta",Södra Förmansvägen 5B,Sundsvall,86341,0771-411411,,https://rydsbilglas.se//hitta-verkstad/sundsvall/sundsvall-birsta/,sundsvall.birsta@rydsbilglas.se,Car glass | Stone shooting | Route change | Wiper blade,62.44398,17.32594,,https://rydsbilglas.se/
abc,SE,IAM Garage marketing system,CaryGroup,"Sundsvall, Nacksta",Axvägen 16,Sundsvall,85350,0771-411411,,https://rydsbilglas.se//hitta-verkstad/sundsvall/sundsvall-nacksta/,sundsvall.nacksta@rydsbilglas.se,Car glass | Stone shooting | Route change | Wiper blade | Lantern polishing,62.3938,17.2578,,https://rydsbilglas.se/
abc,SE,IAM Garage marketing system,CaryGroup,"Sundsvall, Njurunda",Ängomsvägen 9,Njurunda,86241,0771-411411,,https://rydsbilglas.se//hitta-verkstad/sundsvall/sundsvall-njurunda/,sundsvall.njurunda@rydsbilglas.se,Car glass | Stone shooting | Route change | Wiper blade,62.2708,17368,,https://rydsbilglas.se/
abc,SE,IAM Garage marketing system,CaryGroup,"Sundsvall, Skönsberg",Skönsbergsvägen 63,Sundsvall,85631,0771-411411,,https://rydsbilglas.se//hitta-verkstad/sundsvall/sundsvall-skonsberg/,bilglas.skonsberg@rydsbilglas.se,Car glass | Stone shooting | Route change | Wiper blade,62.4052,17.3384,,https://rydsbilglas.se/
abc,SE,IAM Garage marketing system,CaryGroup,Söderhamn,Växelgatan 13A,Söderhamn,82640,0771-411411,,https://rydsbilglas.se//hitta-verkstad/soderhamn/,soderhamn@rydsbilglas.se,Car glass | Stone shooting | Route change | Wiper blade,61.3045214,17.040070,,https://rydsbilglas.se/
abc,SE,IAM Garage marketing system,CaryGroup,"Södertälje, Syd",Strömsgårdsvägen 4,Södertälje,15138,0771-411411,,https://rydsbilglas.se//hitta-verkstad/sodertalje/sodertalje-syd/,sodertalje.syd@rydsbilglas.se,Car glass | Stone shooting | Route change | Wiper blade,59.164533,17.641950,,https://rydsbilglas.se/
abc,SE,IAM Garage marketing system,CaryGroup,"Södertälje, Weda/Moraberg",Morabergsvägen 2B,Södertälje,15242,0771-411411,,https://rydsbilglas.se//hitta-verkstad/sodertalje/sodertalje-wedamoraberg/,sodertalje.weda@rydsbilglas.se,Car glass | Stone shooting | Route change | Wiper blade,59.20553,17.64703,,https://rydsbilglas.se/
abc,SE,IAM Garage marketing system,CaryGroup,Trelleborg,Hedvägen 208,Trelleborg,23166,0771-411411,,https://rydsbilglas.se//hitta-verkstad/trelleborg/,trelleborg@rydsbilglas.se,Car glass | Stone shooting | Route change | Wiper blade,55.3825,13.1367,,https://rydsbilglas.se/
abc,SE,IAM Garage marketing system,CaryGroup,Trollhättan,Kardanvägen 32,Trollhättan,46138,0771-411411,,https://rydsbilglas.se//hitta-verkstad/trollhattan/,trollhattan@rydsbilglas.se,Car glass | Stone shooting | Route change | Wiper blade,58.29521,12.32859,,https://rydsbilglas.se/
abc,SE,IAM Garage marketing system,CaryGroup,Uddevalla,Brunegårdsvägen 2B,Uddevalla,45176,0771-411411,,https://rydsbilglas.se//hitta-verkstad/uddevalla/,uddevalla@rydsbilglas.se,Car glass | Stone shooting | Route change | Wiper blade,58.34895,11.86333,,https://rydsbilglas.se/
abc,SE,IAM Garage marketing system,CaryGroup,Ulricehamn,Boråsvägen 17,Ulricehamn,52337,0771-411411,,https://rydsbilglas.se//hitta-verkstad/ulricehamn/,ulricehamn@rydsbilglas.se,Car glass | Stone shooting | Route change | Wiper blade,57.79846,13.4133,,https://rydsbilglas.se/
abc,SE,IAM Garage marketing system,CaryGroup,"Umeå, Ersboda",Formvägen 8,Umeå,90621,0771-411411,,https://rydsbilglas.se//hitta-verkstad/umea/umea-ersboda/,umea.ersboda@rydsbilglas.se,Car glass | Stone shooting | Route change | Wiper blade,63.85059,20.30698,,https://rydsbilglas.se/
abc,SE,IAM Garage marketing system,CaryGroup,"Umeå, Öst Teg",Maskingatan 1,Umeå,90422,0771-411411,,https://rydsbilglas.se//hitta-verkstad/umea/umea-ost-teg/,umea.parkvagen@rydsbilglas.se,Car glass | Stone shooting | Route change | Wiper blade,63.80527,20.27451,,https://rydsbilglas.se/
abc,SE,IAM Garage marketing system,CaryGroup,"Uppsala, Boländerna",Stångjärnsgatan 8,Uppsala,75323,0771-411411,,https://rydsbilglas.se//hitta-verkstad/uppsala/uppsala-bolanderna/,uppsala.bolanderna@rydsbilglas.se,Car glass | Stone shooting | Route change | Wiper blade,59.8479,17.6805,,https://rydsbilglas.se/
abc,SE,IAM Garage marketing system,CaryGroup,"Uppsala, Fyrislund",Sylveniusgatan 3,Uppsala,75450,0771-411411,,https://rydsbilglas.se//hitta-verkstad/uppsala/uppsala-fyrislund/,uppsala.fyrislund@rydsbilglas.se,Car glass | Stone shooting | Route change | Wiper blade,59.8555,17.6898,,https://rydsbilglas.se/
abc,SE,IAM Garage marketing system,CaryGroup,"Uppsala, Gnista",Grafikgatan 30,Uppsala,75454,0771-411411,,https://rydsbilglas.se//hitta-verkstad/uppsala/uppsala-gnista/,uppsala.gnista@rydsbilglas.se,Car glass | Stone shooting | Route change | Wiper blade,59.8476734,17.7296009,,https://rydsbilglas.se/
abc,SE,IAM Garage marketing system,CaryGroup,"Uppsala, Gnista Åkaregatan",Åkaregatan 5,Uppsala,75454,0771-411411,,https://rydsbilglas.se//hitta-verkstad/uppsala/uppsala-gnista-akaregatan/,gnista.akaregatan@rydsbilglas.se,Car glass | Stone shooting | Route change | Wiper blade,59.840021,17.7232378,,https://rydsbilglas.se/
abc,SE,IAM Garage marketing system,CaryGroup,"Uppsala, Kungsängen",Kungsängsesplanaden 7,Uppsala,75318,0771-411411,,https://rydsbilglas.se//hitta-verkstad/uppsala/uppsala-kungsangen/,uppsala.kungsangen@rydsbilglas.se,Car glass | Stone shooting | Route change | Wiper blade,59.8476054,17.654533,,https://rydsbilglas.se/
abc,SE,IAM Garage marketing system,CaryGroup,Varberg,Värnamovägen 2B,Varberg,43232,0771-411411,,https://rydsbilglas.se//hitta-verkstad/varberg/,varberg@rydsbilglas.se,Car glass | Stone shooting | Route change | Wiper blade,57.12315,12.26322,,https://rydsbilglas.se/
abc,SE,IAM Garage marketing system,CaryGroup,Vetlanda,Lassarettsgatan 25,Vetlanda,57440,0771-411411,,https://rydsbilglas.se//hitta-verkstad/vetlanda/,vetlanda@rydsbilglas.se,Car glass | Stone shooting | Route change | Wiper blade,57.4218145,15.0883044,,https://rydsbilglas.se/
abc,SE,IAM Garage marketing system,CaryGroup,Vårgårda,Maskingatan 1,Vårgårda,44732,0771-411411,,https://rydsbilglas.se//hitta-verkstad/vargarda/,vargarda@rydsbilglas.se,Car glass | Stone shooting | Route change | Wiper blade,58.040569,12.812470,,https://rydsbilglas.se/
abc,SE,IAM Garage marketing system,CaryGroup,Vänersborg,Regementsgatan 34A,Vänersborg,46232,0771-411411,,https://rydsbilglas.se//hitta-verkstad/vanersborg/,vanersborg@rydsbilglas.se,Car glass | Stone shooting | Route change | Wiper blade,58.3792713,12.3425802,,https://rydsbilglas.se/
abc,SE,IAM Garage marketing system,CaryGroup,Värnamo,Ringvägen 59 C,Värnamo,33132,771411411,,https://rydsbilglas.se//hitta-verkstad/varnamo/,varnamo@rydsbilglas.se,Car glass | Stone shooting | Route change | Wiper blade,57.1747874,14.0595958,,https://rydsbilglas.se/
abc,SE,IAM Garage marketing system,CaryGroup,Västervik,Kolonivägen 15B,Västervik,59362,0771-411411,,https://rydsbilglas.se//hitta-verkstad/vastervik/,vastervik@rydsbilglas.se,Car glass | Stone shooting | Route change | Wiper blade,57.7627125,16.6040251,,https://rydsbilglas.se/
abc,SE,IAM Garage marketing system,CaryGroup,"Västerås, Bäckby",Stångjärnsgatan 1A,Västerås,72477,0771-411411,,https://rydsbilglas.se//hitta-verkstad/vasteras/vasteras-backby/,vasteras.backby@rydsbilglas.se,Car glass | Stone shooting | Route change | Wiper blade,59.59867,16.48698,,https://rydsbilglas.se/
abc,SE,IAM Garage marketing system,CaryGroup,"Västerås, Erikslund",Linblocksgatan 3,Västerås,72138,0771-411411,,https://rydsbilglas.se//hitta-verkstad/vasteras/vasteras-erikslund/,vasteras.erikslund@rydsbilglas.se,Car glass | Stone shooting | Route change | Wiper blade,59.615351,16.461060,,https://rydsbilglas.se/
abc,SE,IAM Garage marketing system,CaryGroup,"Västerås, Hälla",Fältmätargatan 20,Västerås,72135,0771-411411,,https://rydsbilglas.se//hitta-verkstad/vasteras/vasteras-halla/,vasteras.halla@rydsbilglas.se,Car glass | Stone shooting | Route change | Wiper blade | Lantern polishing,59613,16.6115,,https://rydsbilglas.se/
abc,SE,IAM Garage marketing system,CaryGroup,"Västerås, Tunby",Strömledningsgatan 1,Västerås,72137,0771-411411,,https://rydsbilglas.se//hitta-verkstad/vasteras/vasteras-tunby/,vasteras.tunby@rydsbilglas.se,Car glass | Stone shooting | Route change | Wiper blade,59.6374,16561,,https://rydsbilglas.se/
abc,SE,IAM Garage marketing system,CaryGroup,"Västerås, Ängsgärdet",Malmabergsgatan 23-25,Västerås,72130,0771-411411,,https://rydsbilglas.se//hitta-verkstad/vasteras/vasteras-angsgardet/,angsgardet@rydsbilglas.se,Car glass | Stone shooting | Route change | Wiper blade,59.617327,16.564459,,https://rydsbilglas.se/
abc,SE,IAM Garage marketing system,CaryGroup,"Växjö, Norremark",Erik Norbergs Väg 5,Växjö,35245,0771-411411,,https://rydsbilglas.se//hitta-verkstad/vaxjo/vaxjo-norremark/,vaxjo.norremark@rydsbilglas.se,Car glass | Stone shooting | Route change | Wiper blade | Lantern polishing,56.89968,14.82477,,https://rydsbilglas.se/
abc,SE,IAM Garage marketing system,CaryGroup,"Växjö, Slöjdgatan",Slöjdgatan 2,Växjö,35246,0771-411411,,https://rydsbilglas.se//hitta-verkstad/vaxjo/vaxjo-slojdgatan/,vaxjo@rydsbilglas.se,Car glass | Stone shooting | Route change | Wiper blade,56.8882,14.7761,,https://rydsbilglas.se/
abc,SE,IAM Garage marketing system,CaryGroup,Ystad,Östra Zinkgatan 3,Ystad,27139,0771-411411,,https://rydsbilglas.se//hitta-verkstad/ystad/,ystad@rydsbilglas.se,Car glass | Stone shooting | Route change | Wiper blade,55.44831,13.8486,,https://rydsbilglas.se/
abc,SE,IAM Garage marketing system,CaryGroup,Åre,Årevägen 2,Åre,83751,0771-411411,,https://rydsbilglas.se//hitta-verkstad/are/,are@rydsbilglas.se,Car glass | Stone shooting | Route change | Wiper blade,63.38972787381897,13.09836064100763,,https://rydsbilglas.se/
abc,SE,IAM Garage marketing system,CaryGroup,Älvängen,Hålstensvägen 20,Älvängen,44637,771411411,,https://rydsbilglas.se//hitta-verkstad/alvangen/,alvangen@rydsbilglas.se,Car glass | Stone shooting | Route change | Wiper blade,57.954663,12.1077702,,https://rydsbilglas.se/
abc,SE,IAM Garage marketing system,CaryGroup,Ängelholm,Heimdallgatan 35,Ängelholm,26271,0771-411411,,https://rydsbilglas.se//hitta-verkstad/angelholm/,angelholm@rydsbilglas.se,Car glass | Stone shooting | Route change | Wiper blade,56.25188,12.88938,,https://rydsbilglas.se/
abc,SE,IAM Garage marketing system,CaryGroup,"Örebro, Bettorpsgatan",Bettorpsgatan 10,Örebro,70369,0771-411411,,https://rydsbilglas.se//hitta-verkstad/orebro/orebro-bettorpsgatan/,orebro.bettorp@rydsbilglas.se,Car glass | Stone shooting | Route change | Wiper blade,59.3004,15.23,,https://rydsbilglas.se/
abc,SE,IAM Garage marketing system,CaryGroup,"Örebro, Boglundsängen",Hedgatan 38,Örebro,70374,0771-411411,,https://rydsbilglas.se//hitta-verkstad/orebro/orebro-boglundsangen/,orebro.boglundsangen@rydsbilglas.se,Car glass | Stone shooting | Route change | Wiper blade | Solfilm,59.3013981,15.19862,,https://rydsbilglas.se/
abc,SE,IAM Garage marketing system,CaryGroup,"Örebro, Elementvägen",Elementvägen 12,Örebro,70227,0771-411411,,https://rydsbilglas.se//hitta-verkstad/orebro/orebro-elementvagen/,orebro.elementvagen@rydsbilglas.se,Car glass | Stone shooting | Route change | Wiper blade,59.2607,15.1787,,https://rydsbilglas.se/
abc,SE,IAM Garage marketing system,CaryGroup,Örnsköldsvik,Gamla Riksvägen 4e,Örnsköldsvik,89150,0771-411411,,https://rydsbilglas.se//hitta-verkstad/ornskoldsvik/,ornskoldsvik@rydsbilglas.se,Car glass | Stone shooting | Route change | Wiper blade,63.306382,18.7222089,,https://rydsbilglas.se/
abc,SE,IAM Garage marketing system,CaryGroup,Östersund,Bangårdsgatan 30,Östersund,83145,0771-411411,,https://rydsbilglas.se//hitta-verkstad/ostersund/,ostersund@rydsbilglas.se,Car glass | Stone shooting | Route change | Wiper blade | Lantern polishing,63.1647,14.6477,,https://rydsbilglas.se/
abc,SE,IAM Garage marketing system,CaryGroup,Östhammar,Verkstadsvägen 5,Östhammar,74234,0771-411411,,https://rydsbilglas.se//hitta-verkstad/osthammar/,osthammar@rydsbilglas.se,Car glass | Stone shooting | Route change | Wiper blade,60.2573532,18.3455843,,https://rydsbilglas.se/
