abc,country,target_groups,contracts,name,street,city,postal_code,phone,fax,web,email,services,latitude,longitude,garage_id,sources
abc,FR,IAM Autocenter,Roady,Centre Roady Montpon Menesterol,Brion Nord,Montpon Menesterol,24700,0533523646,,https://www.roady.fr/montpon-menesterol.html,,Carrying / Hitching | Start / Battery | Direction / Suspension | Distribution | Exhaust | Engine parts | Drain maintenance | Equipment / Accessories | Braking | Pneumatic | Roady Review | Sound / Multimedia | Registration card | Roady Assistance | Tire storage | Funding | Air conditioning | Windshield / Impact Repair | Eco-cleaning | Lavage | Gearbox | Puncture insurance | Clutch | Pre-technical inspection | Gas bottles | Lighting | Electric hybrid | Vehicle loan | Electronic diagnostics ,45.006109,0.142036,,https://www.roady.fr/
abc,FR,IAM Autocenter,Roady,Centre Roady Saint André de Cubzac,240 avenue Boucicaut,Saint André de Cubzac,33240,0533523644,,https://www.roady.fr/saint-andre-de-cubzac.html,,Carrying / Hitching | Gearbox | Air conditioning | Start / Battery | Electronic diagnostics | Direction / Suspension | Distribution | Exhaust | Lighting | Engine elements | Clutch | Drainage maintenance | Equipment / Accessories | Braking | Pneumatic | Pre-technical inspection | Roady Review | Sound / Multimedia | Windshield / Impact Repair | Puncture insurance | Funding | Short term vehicle rental | Vehicle loan | Lavage | Gas bottles | Roady Assistance | Registration card | Electric hybrid ,45.011156,-0.437048,,https://www.roady.fr/
abc,FR,IAM Autocenter,Roady,Centre Roady Cestas,CC Gazinet Nord Av de Verdun,Cestas,33610,0533523647,,https://www.roady.fr/cestas.html,,Carrying / Hitching | Start / Battery | Direction / Suspension | Distribution | Exhaust | Engine parts | Drain maintenance | Equipment / Accessories | Braking | Pneumatic | Roady Review | Sound / Multimedia | Electronic diagnostics | Gearbox | Funding | Air conditioning | Puncture insurance | Windshield / Impact Repair | Lighting | Clutch | Tire storage ,44.780137,-0.689204,,https://www.roady.fr/
abc,FR,IAM Autocenter,Roady,Centre Roady Mérignac,105 avenue des Frères Robinson,Mérignac,33700,0533523642,,https://www.roady.fr/merignac.html,,Carrying / Hitching | Start / Battery | Direction / Suspension | Distribution | Exhaust | Engine parts | Drain maintenance | Equipment / Accessories | Braking | Pneumatic | Roady Review | Lighting | Electric hybrid | Funding | Air conditioning | Pre-technical inspection | Electronic diagnostics | Windshield / Impact Repair | Gearbox | Clutch ,44.855827,-0.653574,,https://www.roady.fr/
abc,FR,IAM Autocenter,Roady,Centre Roady Montauban,200 Route du Nord,Montauban,82000,0535541968,,https://www.roady.fr/montauban.html,,Carrying / Hitching | Gearbox | Air conditioning | Starting / Battery | Electronic diagnostics | Direction / Suspension | Distribution | Exhaust | Lighting | Eco-cleaning | Engine parts | Clutch | Drain maintenance | Equipment / Accessories | Braking | Pneumatic | Pre-technical inspection | Roady Review | Sound / Multimedia | Windshield / Impact Repair | Puncture insurance | Gray card | Funding | Tire storage | Short term vehicle rental | Vehicle loan | Roady Assistance ,44.037,1.3801,,https://www.roady.fr/
abc,FR,IAM Autocenter,Roady,Centre Roady Hagetmau,Route d Orthez,Hagetmau,40700,0533523648,,https://www.roady.fr/hagetmau.html,,Carrying / Hitching | Start / Battery | Direction / Suspension | Distribution | Exhaust | Engine parts | Drain maintenance | Equipment / Accessories | Braking | Pneumatic | Roady Review | Sound / Multimedia | Short term vehicle rental | Roady Assistance | Funding | Lavage | Air conditioning | Clutch | Vehicle loan | Registration card | Eco-cleaning | Electronic diagnostics | Lighting | Pre-technical inspection | Electric hybrid | Gearbox ,43.637943,-0.612273,,https://www.roady.fr/
abc,FR,IAM Autocenter,Roady,Centre Roady Dax,Centre Commercial Dax porte Sud - Rte de la Parcelle,Dax,40100,0533523532,,https://www.roady.fr/dax.html,,Carrying / Hitching | Start / Battery | Direction / Suspension | Distribution | Exhaust | Engine parts | Drain maintenance | Equipment / Accessories | Braking | Pneumatic | Roady Review | Sound / Multimedia | Short term vehicle rental | Roady Assistance | Windshield / Impact repair | Pre-technical inspection | Vehicle loan | Gearbox | Electric hybrid | Registration card | Electronic diagnostics | Eco-cleaning | Lighting | Clutch | Air conditioning | Funding ,43.692224,-1.052011,,https://www.roady.fr/
abc,FR,IAM Autocenter,Roady,Centre Roady Serres Castet,Rue des Eaux Bonnes,Serres Castet,64121,0533523535,,https://www.roady.fr/serres-castet.html,,Carrying / Hitching | Gearbox | Air conditioning | Start / Battery | Electronic diagnostics | Direction / Suspension | Distribution | Exhaust | Lighting | Eco-cleaning | Engine elements | Clutch | Drain maintenance | Equipment / Accessories | Braking | Pneumatic | Pre-technical inspection | Roady Review | Sound / Multimedia | Windshield / Impact Repair | Puncture insurance | Registration card | Funding | Short term vehicle rental | Vehicle loan | Gas bottles | Roady Assistance ,43.35987,-0.384361,,https://www.roady.fr/
abc,FR,IAM Autocenter,Roady,Centre Roady Cognac,18 avenue de Saintes,Cognac,16100,0533523650,,https://www.roady.fr/cognac.html,,Carrying / Hitching | Gearbox | Air conditioning | Start / Battery | Electronic diagnostics | Direction / Suspension | Distribution | Exhaust | Lighting | Engine parts | Clutch | Drain maintenance | Equipment / Accessories | Braking | Pneumatic | Roady Review | Sound / Multimedia | Puncture insurance | Funding | Vehicle loan | Lavage | Roady Assistance | Equipment rental | Registration card | Short term vehicle rental | Pre-technical inspection ,45.699271,-0.342947,,https://www.roady.fr/
abc,FR,IAM Autocenter,Roady,Centre Roady Saint Jean,Avenue de la Dancelle,Saint-Jean,31240,0518230445,,https://www.roady.fr/saint-jean.html,,Carrying / Hitching | Gearbox | Start / Battery | Electronic diagnostics | Direction / Suspension | Distribution | Exhaust | Lighting | Engine parts | Clutch | Drain maintenance | Equipment / Accessories | Braking | Pneumatic | Pre-technical inspection | Roady Review | Windshield / Impact Repair | Funding | Vehicle loan | Gas bottles | Roady Assistance | Puncture insurance | Short term vehicle rental ,43.65088,1.50769,,https://www.roady.fr/
abc,FR,IAM Autocenter,Roady,Centre Roady Juillan - Tarbes,11C Route de Lourdes,JUILLAN,65290,0533523529,,https://www.roady.fr/juillan-tarbes.html,,Puncture insurance | Sound / Multimedia | Roady Review | Pre-technical inspection | Pneumatic | Braking | Equipment / Accessories | Drain maintenance | Clutch | Engine parts | Eco-cleaning | Lighting | Exhaust | Distribution | Direction / Suspension | Electronic diagnostics | Starting / Battery | Air conditioning | Gearbox | Carrying / Hitching | Funding | Short term vehicle rental | Windshield / Impact Repair | Lavage | Vehicle loan ,43.201406,0.036918,,https://www.roady.fr/
abc,FR,IAM Autocenter,Roady,Centre Roady Muret,42 avenue de l Europe,Muret,31600,0533523539,,https://www.roady.fr/muret.html,,Carrying / Hitching | Gearbox | Air conditioning | Starting / Battery | Electronic diagnostics | Direction / Suspension | Distribution | Exhaust | Lighting | Engine parts | Clutch | Drain maintenance | Equipment / Accessories | Braking | Pneumatic | Pre-technical inspection | Roady Review | Sound / Multimedia | Puncture insurance | Registration card | Funding | Short term vehicle rental | Vehicle loan | Roady Assistance | Equipment rental | Gas bottles ,43.47251,1.333165,,https://www.roady.fr/
abc,FR,IAM Autocenter,Roady,Centre Roady Saintes,11 Rue de Lamothe,Saintes,17100,0533523534,,https://www.roady.fr/saintes.html,,Carrying / Hitching | Gearbox | Air conditioning | Start / Battery | Electronic diagnostics | Direction / Suspension | Distribution | Exhaust | Lighting | Eco-cleaning | Engine parts | Clutch | Drain maintenance | Equipment / Accessories | Braking | Electric hybrid | Pneumatic | Pre-technical inspection | Roady Review | Sound / Multimedia | Windshield / Impact Repair | Puncture insurance | Funding | Vehicle loan | Lavage | Roady Assistance | Registration card ,45.740224,-0.603733,,https://www.roady.fr/
abc,FR,IAM Autocenter,Roady,Centre Roady Castanet Tolosan,ZAC du Parc de la Rabaudy - Route de Labège,Castanet Tolosan,31320,0533523538,,https://www.roady.fr/castanet-tolosan.html,,Carrying / Hitching | Gearbox | Air conditioning | Start / Battery | Electronic diagnostics | Direction / Suspension | Distribution | Exhaust | Lighting | Eco-cleaning | Engine parts | Clutch | Drainage maintenance | Equipment / Accessories | Braking | Pneumatic | Pre-technical inspection | Roady Review | Sound / Multimedia | Windshield / Impact Repair | Gray card | Funding | Tire storage | Short term vehicle rental | Vehicle loan | Gas bottles | Roady Assistance ,43.52054,1.512954,,https://www.roady.fr/
abc,FR,IAM Autocenter,Roady,Centre Roady Oloron sainte Marie,CC de la Porte d Aspe Bd de l Aragon,Oloron sainte Marie,64400,0533523649,,https://www.roady.fr/oloron-sainte-marie.html,,Portage / Hitch | Gearbox | Air conditioning | Start / Battery | Electronic diagnostics | Direction / Suspension | Distribution | Exhaust | Lighting | Engine parts | Clutch | Drain maintenance | Equipment / Accessories | Braking | Pneumatic | Pre-technical inspection | Roady Review | Sound / Multimedia | Windshield / Impact Repair | Vehicle loan | Gas bottles | Roady Assistance ,43.179298,-0.612603,,https://www.roady.fr/
abc,FR,IAM Autocenter,Roady,Centre Roady Montgiscard,"Lieu-dit, RN 113 En Rouzaud",MONTGISCARD,31450,0533523632,,https://www.roady.fr/montgiscard.html,,Puncture insurance | Gearbox | Gas bottles | Air conditioning | Start / Battery | Electronic diagnostics | Direction / Suspension | Distribution | Exhaust | Lighting | Eco-cleaning | Engine parts | Clutch | Drain maintenance | Equipment / Accessories | Funding | Braking | Electric hybrid | Lavage | Pneumatic | Pre-technical inspection | Vehicle loan | Roady Review | Roady Assistance | Sound / Multimedia | Carrying / Hitching ,43.45263,1.58725,,https://www.roady.fr/
abc,FR,IAM Autocenter,Roady,Centre Roady Bayonne,12 allée de Biarnes,BAYONNE,64100,0518230799,,https://www.roady.fr/bayonne.html,,Gearbox | Air conditioning | Start / Battery | Electronic diagnostics | Direction / Suspension | Distribution | Exhaust | Lighting | Eco-cleaning | Engine parts | Clutch | Drain maintenance | Equipment / Accessories | Braking | Electric hybrid | Pneumatic | Carrying / Hitching | Pre-technical inspection | Roady Review | Sound / Multimedia | Puncture insurance | Funding | Short term vehicle rental | Vehicle loan ,43.50342,-1.44714,,https://www.roady.fr/
abc,FR,IAM Autocenter,Roady,Centre Roady Saint Jean d'Angely,ZAC de l Aumonerie,Saint Jean d Angely,17400,0533523641,,https://www.roady.fr/saint-jean-d-angely.html,,Carrying / Hitching | Gearbox | Air conditioning | Start / Battery | Electronic diagnostics | Direction / Suspension | Distribution | Exhaust | Lighting | Eco-cleaning | Engine parts | Clutch | Drainage maintenance | Equipment / Accessories | Braking | Electric hybrid | Pneumatic | Pre-technical inspection | Roady Review | Sound / Multimedia | Windshield / Impact Repair | Puncture insurance | Registration card | Funding | Vehicle loan | Roady Assistance ,45.9536,-0.531383,,https://www.roady.fr/
abc,FR,IAM Autocenter,Roady,Centre Roady Limoges,1 rue Jean-baptiste Chastaing,Limoges,87000,0533523645,,https://www.roady.fr/limoges.html,,Carrying / Hitching | Start / Battery | Direction / Suspension | Distribution | Exhaust | Engine parts | Drain maintenance | Equipment / Accessories | Braking | Pneumatic | Roady Review | Sound / Multimedia | Roady Assistance | Eco-cleaning | Puncture insurance | Pre-technical inspection | Lighting | Air conditioning | Electronic diagnostics | Gearbox | Clutch ,45.842639,1.252742,,https://www.roady.fr/
abc,FR,IAM Autocenter,Roady,Centre Roady Cambo les Bains,ZA Errobi - CD 918 LD Itxassou,Cambo les Bains,64250,0533523643,,https://www.roady.fr/cambo-les-bains.html,,Carrying / Hitching | Gearbox | Air conditioning | Start / Battery | Electronic diagnostics | Direction / Suspension | Distribution | Exhaust | Lighting | Eco-cleaning | Engine parts | Clutch | Drain maintenance | Equipment / Accessories | Braking | Pneumatic | Technical pre-inspection | Roady Review | Sound / Multimedia | Windshield / Impact Repair | Puncture insurance | Registration card | Funding | Short term vehicle rental | Vehicle loan | Lavage | Roady Assistance ,43.350661,-1.415882,,https://www.roady.fr/
abc,FR,IAM Autocenter,Roady,Centre Roady Aurillac,114 avenue Charles de Gaulle,Aurillac,15000,0481689886,,https://www.roady.fr/aurillac.html,,Carrying / Hitching | Start / Battery | Direction / Suspension | Distribution | Exhaust | Engine parts | Drain maintenance | Equipment / Accessories | Braking | Pneumatic | Roady Review | Sound / Multimedia | Roady Assistance ,44.910329,2.424358,,https://www.roady.fr/
abc,FR,IAM Autocenter,Roady,Centre Roady Castelnaudary,lieudit Méric,Castelnaudary,11400,0481689738,,https://www.roady.fr/castelnaudary.html,,Carrying / Hitching | Gearbox | Air conditioning | Start / Battery | Electronic diagnostics | Direction / Suspension | Distribution | Exhaust | Lighting | Engine parts | Clutch | Drain maintenance | Equipment / Accessories | Braking | Pneumatic | Technical pre-inspection | Roady Review | Sound / Multimedia | Windshield / Impact Repair | Puncture insurance | Funding | Roady Assistance ,43.301361,1.954774,,https://www.roady.fr/
abc,FR,IAM Autocenter,Roady,Centre Roady Niort,Route d Aiffres,Niort,79000,0533523536,,https://www.roady.fr/niort.html,,Carrying / Hitching | Gearbox | Air conditioning | Starting / Battery | Electronic diagnostics | Direction / Suspension | Distribution | Exhaust | Lighting | Engine parts | Clutch | Drainage maintenance | Equipment / Accessories | Braking | Electric hybrid | Pneumatic | Pre-technical inspection | Roady Review | Sound / Multimedia | Windshield / Impact Repair | Puncture insurance | Funding | Vehicle loan | Roady Assistance | Equipment rental | Short term vehicle rental | Eco-cleaning ,46.304838,-0.440024,,https://www.roady.fr/
abc,FR,IAM Autocenter,Roady,Centre Roady Carcassonne,ZI du Pont Rouge,Carcassonne,11000,0481689752,,https://www.roady.fr/carcassonne.html,,Portage / Hitch | Start / Battery | Direction / Suspension | Distribution | Exhaust | Engine parts | Drain maintenance | Equipment / Accessories | Braking | Pneumatic | Roady Review | Sound / Multimedia | Registration card | Roady Assistance | Puncture insurance | Vehicle loan | Equipment rental | Windshield / Impact Repair | Electric hybrid | Lighting | Clutch | Electronic diagnostics | Pre-technical inspection | Air conditioning | Gas bottles | Gearbox | Funding ,43.235495,2.368688,,https://www.roady.fr/
abc,FR,IAM Autocenter,Roady,Centre Roady Poitiers,31 Route de Parthenay,Poitiers,86000,0533523528,,https://www.roady.fr/poitiers.html,,Electronic diagnostics | Direction / Suspension | Exhaust | Clutch | Equipment / Accessories | Braking | Carrying / Hitching | Air conditioning | Lighting | Engine parts | Drain maintenance | Pneumatic | Roady Review | Sound / Multimedia | Start / Battery | Roady Assistance ,46.598155,0.324189,,https://www.roady.fr/
abc,FR,IAM Autocenter,Roady,Centre Roady Lézignan Corbières,9001 Rue Alfred Nobel - ZI de Vitrac,Lézignan Corbières,11200,0481689745,,https://www.roady.fr/lezignan-corbieres.html,,Carrying / Hitching | Start / Battery | Direction / Suspension | Distribution | Exhaust | Engine parts | Drain maintenance | Equipment / Accessories | Braking | Pneumatic | Roady Review | Sound / Multimedia | Roady Assistance | Clutch | Pre-technical inspection | Funding | Air conditioning | Lighting ,43.187155,2.751431,,https://www.roady.fr/
abc,FR,IAM Autocenter,Roady,Centre Roady Les Sables d'Olonne,65 rue des Plesses,Les Sables d Olonne,85180,0249886481,,https://www.roady.fr/les-sables-d-olonne.html,,Carrying / Hitching | Gearbox | Air conditioning | Start / Battery | Electronic diagnostics | Direction / Suspension | Distribution | Exhaust | Lighting | Eco-cleaning | Engine parts | Clutch | Drain maintenance | Equipment / Accessories | Braking | Pneumatic | Pre-technical inspection | Roady Review | Sound / Multimedia | Windshield / Impact Repair | Puncture insurance | Registration card | Funding | Tire storage | Vehicle loan | Roady Assistance | Electric hybrid ,46.494866,-1.750334,,https://www.roady.fr/
abc,FR,IAM Autocenter,Roady,Centre Roady Issoire,Rte de Perrier,Issoire,63500,0481689749,,https://www.roady.fr/issoire.html,,Carrying / Hitching | Gearbox | Air conditioning | Start / Battery | Electronic diagnostics | Direction / Suspension | Distribution | Exhaust | Lighting | Engine parts | Clutch | Drain maintenance | Equipment / Accessories | Braking | Pneumatic | Pre-technical inspection | Roady Review | Sound / Multimedia | Windshield / Impact Repair | Vehicle loan | Gas bottles | Roady Assistance | Funding | Hybrid electric ,45.543806,3.231617,,https://www.roady.fr/
abc,FR,IAM Autocenter,Roady,Centre Roady Le Cendre,Rue Jean Mermoz,Le Cendre,63670,0481689896,,https://www.roady.fr/le-cendre.html,,Carrying / Hitching | Gearbox | Air conditioning | Start / Battery | Electronic diagnostics | Direction / Suspension | Distribution | Exhaust | Lighting | Engine parts | Clutch | Drain maintenance | Equipment / Accessories | Braking | Pneumatic | Technical pre-inspection | Roady Review | Sound / Multimedia | Registration card | Funding | Vehicle loan | Roady Assistance | Puncture insurance | Electric hybrid ,45.728184,3.187215,,https://www.roady.fr/
abc,FR,IAM Autocenter,Roady,Centre Roady Riom,Route de Riom,Riom,63200,0481689897,,https://www.roady.fr/riom.html,,Carrying / Hitching | Gearbox | Air conditioning | Start / Battery | Electronic diagnostics | Direction / Suspension | Distribution | Exhaust | Lighting | Engine parts | Clutch | Drain maintenance | Equipment / Accessories | Braking | Pneumatic | Pre-technical inspection | Roady Review | Sound / Multimedia | Windshield / Impact Repair | Funding | Short term vehicle rental | Vehicle loan | Roady Assistance | Tire storage | Puncture insurance | Registration card | Lavage | Eco-cleaning | Hybrid electric ,45.878118,3.118301,,https://www.roady.fr/
abc,FR,IAM Autocenter,Roady,Centre Roady Commentry,La Brande Malicorne,Commentry,03600,0481689899,,https://www.roady.fr/commentry.html,,Carrying / Hitching | Start / Battery | Direction / Suspension | Distribution | Exhaust | Engine parts | Drainage maintenance | Equipment / Accessories | Braking | Pneumatic | Roady Review | Sound / Multimedia | Roady Assistance | Lighting | Clutch | Pre-technical inspection | Electronic diagnostics | Gas bottles | Gearbox ,46.30033,2.737338,,https://www.roady.fr/
abc,FR,IAM Autocenter,Roady,Centre Roady Pezenas,100 Route de Tourbes,Pezenas,34120,0481689878,,https://www.roady.fr/pezenas.html,,Carrying / Hitching | Gearbox | Air conditioning | Start / Battery | Electronic diagnostics | Direction / Suspension | Distribution | Exhaust | Lighting | Engine parts | Clutch | Drain maintenance | Equipment / Accessories | Braking | Hybrid electric | Pneumatic | Technical pre-inspection | Roady Review | Sound / Multimedia | Windshield / Impact Repair | Puncture insurance | Registration card | Funding | Tire storage | Vehicle loan | Lavage | Gas bottles | Roady Assistance | Equipment rental ,43.45443,3.406969,,https://www.roady.fr/
abc,FR,IAM Autocenter,Roady,Centre Roady Gannat,12 Avenue des Portes Occitanes,Gannat,03800,0481689898,,https://www.roady.fr/gannat.html,,Carrying / Hitching | Gearbox | Air conditioning | Start / Battery | Electronic diagnostics | Direction / Suspension | Distribution | Exhaust | Lighting | Engine parts | Clutch | Drain maintenance | Equipment / Accessories | Braking | Pneumatic | Technical pre-inspection | Roady Review | Sound / Multimedia | Windshield / Impact Repair | Registration card | Funding | Short term vehicle rental | Vehicle loan | Lavage | Gas bottles | Roady Assistance | Equipment rental | Puncture insurance | Hybrid electric ,46.079378,3.200669,,https://www.roady.fr/
abc,FR,IAM Autocenter,Roady,Centre Roady Agde,Boulevard René Cassin,Agde,34300,0481689880,,https://www.roady.fr/agde.html,,Carrying / Hitching | Start / Battery | Direction / Suspension | Distribution | Exhaust | Engine parts | Drain maintenance | Equipment / Accessories | Braking | Pneumatic | Roady Review | Sound / Multimedia | Registration card | Roady Assistance | Equipment rental | Short term vehicle rental | Gas bottles | Gearbox | Pre-technical inspection | Windshield / Impact Repair | Funding | Lavage | Hybrid electric | Air conditioning | Puncture insurance | Clutch | Electronic diagnostics | Vehicle loan ,43.306021,3.491212,,https://www.roady.fr/
abc,FR,IAM Autocenter,Roady,Centre Roady Cabestany,7 Rue James Watt,Cabestany,66330,0481689741,,https://www.roady.fr/cabestany.html,,Carrying / Hitching | Gearbox | Air conditioning | Start / Battery | Electronic diagnostics | Direction / Suspension | Distribution | Exhaust | Lighting | Eco-cleaning | Engine parts | Clutch | Drain maintenance | Equipment / Accessories | Braking | Pneumatic | Pre-technical inspection | Roady Review | Sound / Multimedia | Puncture insurance | Funding | Tire storage | Vehicle loan | Roady Assistance | Equipment rental | Windshield / Impact Repair | Hybrid electric ,42.686911,2.922237,,https://www.roady.fr/
abc,FR,IAM Autocenter,Roady,Centre Roady Chadrac,Avenue des Champs Elysées,Chadrac,43770,0481689888,,https://www.roady.fr/chadrac.html,,Carrying / Hitching | Gearbox | Air conditioning | Start / Battery | Electronic diagnostics | Direction / Suspension | Distribution | Exhaust | Lighting | Eco-cleaning | Engine parts | Clutch | Drain maintenance | Equipment / Accessories | Braking | Hybrid electric | Pneumatic | Pre-technical inspection | Roady Review | Sound / Multimedia | Windshield / Impact Repair | Puncture insurance | Registration card | Funding | Vehicle loan | Roady Assistance ,45.052825,3.899079,,https://www.roady.fr/
abc,FR,IAM Autocenter,Roady,Centre Roady Orval,Route de Lignières,Orval,18200,0249886620,,https://www.roady.fr/orval.html,,Carrying / Hitching | Start / Battery | Direction / Suspension | Distribution | Exhaust | Engine parts | Drain maintenance | Equipment / Accessories | Braking | Pneumatic | Roady Review | Sound / Multimedia | Roady Assistance | Electronic diagnostics | Air conditioning | Clutch | Gearbox | Puncture insurance | Funding | Windshield / Impact Repair | Pre-technical inspection | Vehicle loan | Lighting ,46.723105,2.461836,,https://www.roady.fr/
abc,FR,IAM Autocenter,Roady,Centre Roady Juvignac - Montpellier Ouest,Route de Lodève,Juvignac,34990,0481689877,,https://www.roady.fr/juvignac-montpellier-ouest.html,,Carrying / Hitching | Start / Battery | Direction / Suspension | Distribution | Exhaust | Engine parts | Drainage maintenance | Equipment / Accessories | Braking | Pneumatic | Roady Review | Sound / Multimedia | Registration card | Roady Assistance | Funding | Air conditioning | Vehicle loan | Windshield / Impact Repair | Hybrid electric | Equipment rental | Clutch | Short term vehicle rental | Lighting | Puncture insurance | Pre-technical inspection | Electronic diagnostics ,43.613524,3.809491,,https://www.roady.fr/
abc,FR,IAM Autocenter,Roady,Centre Roady Saumur,Boulevard des Demoiselles,Saumur,49400,0249886612,,https://www.roady.fr/saumur.html,,Carrying / Hitching | Gearbox | Air conditioning | Start / Battery | Electronic diagnostics | Direction / Suspension | Distribution | Exhaust | Lighting | Eco-cleaning | Engine parts | Clutch | Drain maintenance | Equipment / Accessories | Braking | Hybrid electric | Pneumatic | Pre-technical inspection | Roady Review | Sound / Multimedia | Windshield / Impact Repair | Puncture insurance | Registration card | Funding | Tire guarding | Vehicle loan | Lavage | Roady Assistance ,47.276535,-0.061104,,https://www.roady.fr/
abc,FR,IAM Autocenter,Roady,Centre Roady Jacou,La Plaine Espace Bocaud,Jacou,34830,0481689873,,https://www.roady.fr/jacou.html,,Carrying / Hitching | Start / Battery | Direction / Suspension | Distribution | Exhaust | Engine parts | Drain maintenance | Equipment / Accessories | Braking | Pneumatic | Roady Review | Sound / Multimedia | Gray card | Roady Assistance | Pre-technical inspection | Short term vehicle rental | Lavage | Windshield / Impact Repair | Electronic diagnostics | Vehicle loan | Gearbox | Puncture insurance | Lighting | Clutch | Air conditioning ,43.659978,3.905983,,https://www.roady.fr/
abc,FR,IAM Autocenter,Roady,Centre Roady Alès,82 Avenue d Alsace,Alès,30100,0466566031,,https://www.roady.fr/ales.html,,Carrying / Hitching | Gearbox | Air conditioning | Start / Battery | Electronic diagnostics | Direction / Suspension | Distribution | Exhaust | Lighting | Eco-cleaning | Engine parts | Clutch | Drain maintenance | Equipment / Accessories | Braking | Pneumatic | Pre-technical inspection | Roady Review | Sound / Multimedia | Puncture insurance | Funding | Roady Assistance | Equipment rental | Hybrid electric ,44.138821,4.088279,,https://www.roady.fr/
abc,FR,IAM Autocenter,Roady,Centre Roady Argelès sur Mer,61 chemin de palau,Argelès sur Mer,66700,0481689740,,https://www.roady.fr/argeles-sur-mer.html,,Carrying / Hitching | Gearbox | Air conditioning | Start / Battery | Electronic diagnostics | Direction / Suspension | Distribution | Exhaust | Lighting | Eco-cleaning | Engine parts | Clutch | Drain maintenance | Equipment / Accessories | Braking | Pneumatic | Technical pre-inspection | Roady Review | Sound / Multimedia | Puncture insurance | Funding | Tire storage | Vehicle loan | Roady Assistance | Equipment rental | Short term vehicle rental | Windshield / Impact Repair | Registration card | Hybrid electric ,42.557905,3.008237,,https://www.roady.fr/
abc,FR,IAM Autocenter,Roady,Centre Roady Lunel,C.Cial des portes de la mer,Lunel,34400,0481689751,,https://www.roady.fr/lunel.html,,Carrying / Hitching | Start / Battery | Direction / Suspension | Distribution | Exhaust | Engine parts | Drainage maintenance | Equipment / Accessories | Braking | Pneumatic | Roady Review | Sound / Multimedia | Registration card | Short term vehicle rental | Roady Assistance | Air conditioning | Gearbox | Pre-technical inspection | Puncture insurance | Windshield / Impact Repair | Clutch | Hybrid electric | Electronic diagnostics | Funding | Lighting ,43.683857,4.152001,,https://www.roady.fr/
abc,FR,IAM Autocenter,Roady,Centre Roady Aubenas,14 rue de la bouche rouge,Aubenas,07200,0481689748,,https://www.roady.fr/aubenas.html,,Carrying / Hitching | Air conditioning | Start / Battery | Electronic diagnostics | Direction / Suspension | Distribution | Exhaust | Lighting | Eco-cleaning | Engine parts | Clutch | Drain maintenance | Equipment / Accessories | Braking | Hybrid electric | Pneumatic | Pre-technical inspection | Roady Review | Sound / Multimedia | Windshield / Impact Repair | Puncture insurance | Funding | Vehicle loan | Roady Assistance | Registration card | Tire storage ,44.616935,4.405807,,https://www.roady.fr/
abc,FR,IAM Autocenter,Roady,Centre Roady Pornic,ZAC de la Gentellerie Rte de Nantes,Pornic,44210,0249886621,,https://www.roady.fr/pornic.html,,Carrying / Hitching | Air conditioning | Start / Battery | Electronic diagnostics | Direction / Suspension | Distribution | Exhaust | Lighting | Eco-cleaning | Engine parts | Clutch | Drain maintenance | Equipment / Accessories | Braking | Pneumatic | Pre-technical inspection | Roady Review | Sound / Multimedia | Funding | Roady Assistance ,47.11055,-2.070842,,https://www.roady.fr/
abc,FR,IAM Autocenter,Roady,Centre Roady Bonson,Avenue de la Mairie,Bonson,42160,0481689739,,https://www.roady.fr/bonson.html,,Carrying / Hitching | Gearbox | Air conditioning | Start / Battery | Electronic diagnostics | Direction / Suspension | Distribution | Exhaust | Lighting | Engine parts | Clutch | Drain maintenance | Equipment / Accessories | Braking | Pneumatic | Roady Review | Sound / Multimedia | Windshield / Impact Repair | Puncture insurance | Funding | Tire storage | Vehicle loan | Roady Assistance ,45.526667,4.231228,,https://www.roady.fr/
abc,FR,IAM Autocenter,Roady,Centre Roady Le Lude,Rue de la Garenne - Parking Intermarché,Le Lude,72800,0249886486,,https://www.roady.fr/le-lude.html,,Carrying / Hitching | Start / Battery | Direction / Suspension | Distribution | Exhaust | Engine parts | Drain maintenance | Equipment / Accessories | Braking | Pneumatic | Roady Review | Sound / Multimedia | Roady Assistance | Electric hybrid | Air conditioning | Funding | Gray card | Lighting | Pre-technical inspection | Electronic diagnostics | Gearbox | Vehicle loan | Clutch ,47.64028,0.151588,,https://www.roady.fr/
abc,FR,IAM Autocenter,Roady,Centre Roady Perreux,ZA Les Plaines,Perreux,42120,0481689889,,https://www.roady.fr/perreux.html,,Carrying / Hitching | Gearbox | Air conditioning | Start / Battery | Electronic diagnostics | Direction / Suspension | Distribution | Exhaust | Lighting | Eco-cleaning | Engine parts | Clutch | Drain maintenance | Equipment / Accessories | Braking | Hybrid electric | Pneumatic | Pre-technical inspection | Roady Review | Sound / Multimedia | Windshield / Impact Repair | Puncture insurance | Registration card | Funding | Tire storage | Vehicle loan | Gas bottles | Roady Assistance | Equipment rental ,46.028854,4.095897,,https://www.roady.fr/
abc,FR,IAM Autocenter,Roady,Centre Roady Bagnols sur Ceze,CC La Garaud 897 Avenue A Daudet,Bagnols sur Ceze,30200,0481689742,,https://www.roady.fr/bagnols-sur-ceze.html,,Carrying / Hitching | Gearbox | Air conditioning | Start / Battery | Electronic diagnostics | Direction / Suspension | Distribution | Exhaust | Lighting | Eco-cleaning | Engine parts | Clutch | Drain maintenance | Equipment / Accessories | Braking | Hybrid electric | Pneumatic | Pre-technical inspection | Roady Review | Sound / Multimedia | Puncture insurance | Funding | Tire storage | Vehicle loan | Gas bottles | Roady Assistance | Registration card | Windshield / Impact Repair ,44.154195,4.613496,,https://www.roady.fr/
abc,FR,IAM Autocenter,Roady,Centre Roady La Fleche,Route de Sablé La Prée,La Fleche,72200,0249886623,,https://www.roady.fr/la-fleche.html,,Carrying / Hitching | Start / Battery | Direction / Suspension | Distribution | Exhaust | Engine parts | Drain maintenance | Equipment / Accessories | Braking | Pneumatic | Roady Review | Sound / Multimedia | Registration card | Roady Assistance ,47.705047,-0.092662,,https://www.roady.fr/
abc,FR,IAM Autocenter,Roady,Centre Roady Montpon Menesterol,Brion Nord,Montpon Menesterol,24700,0533523646,,https://www.roady.fr/montpon-menesterol.html,,Carrying / Hitching | Start / Battery | Direction / Suspension | Distribution | Exhaust | Engine parts | Drain maintenance | Equipment / Accessories | Braking | Pneumatic | Roady Review | Sound / Multimedia | Registration card | Roady Assistance | Tire storage | Funding | Air conditioning | Windshield / Impact repair | Eco-cleaning | Lavage | Gearbox | Puncture insurance | Clutch | Pre-technical inspection | Gas bottles | Lighting | Hybrid electric | Vehicle loan | Electronic diagnostics ,45.006109,0.142036,,https://www.roady.fr/
abc,FR,IAM Autocenter,Roady,Centre Roady Chateaubriant,4 rue du 8 mai 1945,Chateaubriant,44110,0249886476,,https://www.roady.fr/chateaubriant.html,,Equipment rental | Roady Assistance | Vehicle loan | Tire storage | Funding | Registration card | Puncture insurance | Windshield / Impact Repair | Sound / Multimedia | Roady Review | Pre-technical inspection | Pneumatic | Hybrid electric | Braking | Equipment / Accessories | Drain maintenance | Clutch | Engine parts | Eco-cleaning | Lighting | Exhaust | Distribution | Direction / Suspension | Electronic diagnostics | Start / Battery | Air conditioning | Gearbox | Carrying / Hitching ,47.710075,-1.381451,,https://www.roady.fr/
abc,FR,IAM Autocenter,Roady,Centre Roady Pornic,ZAC de la Gentellerie Rte de Nantes,Pornic,44210,0249886621,,https://www.roady.fr/pornic.html,,Carrying / Hitching | Air conditioning | Start / Battery | Electronic diagnostics | Direction / Suspension | Distribution | Exhaust | Lighting | Eco-cleaning | Engine parts | Clutch | Drain maintenance | Equipment / Accessories | Braking | Pneumatic | Pre-technical inspection | Roady Review | Sound / Multimedia | Funding | Roady Assistance ,47.11055,-2.070842,,https://www.roady.fr/
abc,FR,IAM Autocenter,Roady,Centre Roady Niort,Route d Aiffres,Niort,79000,0533523536,,https://www.roady.fr/niort.html,,Carrying / Hitching | Gearbox | Air conditioning | Starting / Battery | Electronic diagnostics | Direction / Suspension | Distribution | Exhaust | Lighting | Engine parts | Clutch | Drain maintenance | Equipment / Accessories | Braking | Hybrid electric | Pneumatic | Pre-technical inspection | Roady Review | Sound / Multimedia | Windshield / Impact Repair | Puncture insurance | Funding | Vehicle loan | Roady Assistance | Equipment rental | Short term vehicle rental | Eco-cleaning ,46.304838,-0.440024,,https://www.roady.fr/
abc,FR,IAM Autocenter,Roady,Centre Roady Les Sables d'Olonne,65 rue des Plesses,Les Sables d Olonne,85180,0249886481,,https://www.roady.fr/les-sables-d-olonne.html,,Carrying / Hitching | Gearbox | Air conditioning | Start / Battery | Electronic diagnostics | Direction / Suspension | Distribution | Exhaust | Lighting | Eco-cleaning | Engine parts | Clutch | Drain maintenance | Equipment / Accessories | Braking | Pneumatic | Pre-technical inspection | Roady Review | Sound / Multimedia | Windshield / Impact Repair | Puncture insurance | Registration card | Funding | Tire storage | Vehicle loan | Roady Assistance | Hybrid electric ,46.494866,-1.750334,,https://www.roady.fr/
abc,FR,IAM Autocenter,Roady,Centre Roady La Fleche,Route de Sablé La Prée,La Fleche,72200,0249886623,,https://www.roady.fr/la-fleche.html,,Carrying / Hitching | Start / Battery | Direction / Suspension | Distribution | Exhaust | Engine parts | Drain maintenance | Equipment / Accessories | Braking | Pneumatic | Roady Review | Sound / Multimedia | Registration card | Roady Assistance ,47.705047,-0.092662,,https://www.roady.fr/
abc,FR,IAM Autocenter,Roady,Centre Roady Le Lude,Rue de la Garenne - Parking Intermarché,Le Lude,72800,0249886486,,https://www.roady.fr/le-lude.html,,Carrying / Hitching | Start / Battery | Direction / Suspension | Distribution | Exhaust | Engine parts | Drain maintenance | Equipment / Accessories | Braking | Pneumatic | Roady Review | Sound / Multimedia | Roady Assistance | Hybrid electric | Air conditioning | Funding | Registration card | Lighting | Pre-technical inspection | Electronic diagnostics | Gearbox | Vehicle loan | Clutch ,47.64028,0.151588,,https://www.roady.fr/
abc,FR,IAM Autocenter,Roady,Centre Roady Poitiers,31 Route de Parthenay,Poitiers,86000,0533523528,,https://www.roady.fr/poitiers.html,,Electronic diagnostics | Direction / Suspension | Exhaust | Clutch | Equipment / Accessories | Braking | Carrying / Hitching | Air conditioning | Lighting | Engine parts | Drainage maintenance | Pneumatic | Roady Review | Sound / Multimedia | Start / Battery | Roady Assistance ,46.598155,0.324189,,https://www.roady.fr/
abc,FR,IAM Autocenter,Roady,Centre Roady Redon,CC Cap Nord Route de Rennes,Redon,35600,0249886622,,https://www.roady.fr/redon.html,,Carrying / Hitching | Gearbox | Air conditioning | Start / Battery | Electronic diagnostics | Direction / Suspension | Distribution | Exhaust | Lighting | Eco-cleaning | Engine parts | Clutch | Drain maintenance | Equipment / Accessories | Braking | Pneumatic | Pre-technical inspection | Roady Review | Sound / Multimedia | Puncture insurance | Registration card | Funding | Vehicle loan | Roady Assistance ,47.661457,-2.071745,,https://www.roady.fr/
abc,FR,IAM Autocenter,Roady,Centre Roady Nivillac,Zone commerciale du Rodoir - Boulevard de Bretagne,Nivillac,56130,0249886617,,https://www.roady.fr/nivillac.html,,Carrying / Hitching | Gearbox | Air conditioning | Start / Battery | Electronic diagnostics | Direction / Suspension | Distribution | Exhaust | Lighting | Eco-cleaning | Engine parts | Clutch | Drain maintenance | Equipment / Accessories | Braking | Pneumatic | Pre-technical inspection | Roady Review | Sound / Multimedia | Windshield / Impact Repair | Puncture insurance | Funding | Vehicle loan | Lavage | Gas bottles | Roady Assistance ,47.516967,-2.293849,,https://www.roady.fr/
abc,FR,IAM Autocenter,Roady,Centre Roady Vitre,1 rue de Domalain CC de la Valière,Vitre,35500,0249886611,,https://www.roady.fr/vitre.html,,Carrying / Hitching | Gearbox | Air conditioning | Start / Battery | Electronic diagnostics | Direction / Suspension | Distribution | Exhaust | Lighting | Eco-cleaning | Engine elements | Clutch | Drain maintenance | Equipment / Accessories | Braking | Hybrid electric | Pneumatic | Pre-technical inspection | Roady Review | Sound / Multimedia | Puncture insurance | Funding | Vehicle loan | Lavage | Roady Assistance ,48.109623,-1.212273,,https://www.roady.fr/
abc,FR,IAM Autocenter,Roady,Centre Roady Le Pouliguen,5 Rue du Pré Malenpogne - Parc d activités du Poull go,Le Pouliguen,44510,0249886480,,https://www.roady.fr/le-pouliguen.html,,Carrying / Hitching | Gearbox | Air conditioning | Start / Battery | Electronic diagnostics | Direction / Suspension | Distribution | Exhaust | Lighting | Eco-cleaning | Engine parts | Clutch | Drainage maintenance | Equipment / Accessories | Braking | Pneumatic | Technical pre-inspection | Roady Review | Sound / Multimedia | Puncture insurance | Registration card | Funding | Vehicle loan | Roady Assistance | Windshield / Impact Repair ,47.274501,-2.442886,,https://www.roady.fr/
abc,FR,IAM Autocenter,Roady,Centre Roady Saint Jean d'Angely,ZAC de l Aumonerie,Saint Jean d Angely,17400,0533523641,,https://www.roady.fr/saint-jean-d-angely.html,,Carrying / Hitching | Gearbox | Air conditioning | Start / Battery | Electronic diagnostics | Direction / Suspension | Distribution | Exhaust | Lighting | Eco-cleaning | Engine parts | Clutch | Drain maintenance | Equipment / Accessories | Braking | Electric hybrid | Pneumatic | Pre-technical inspection | Roady Review | Sound / Multimedia | Windshield / Impact Repair | Puncture insurance | Registration card | Funding | Vehicle loan | Roady Assistance ,45.9536,-0.531383,,https://www.roady.fr/
abc,FR,IAM Autocenter,Roady,Centre Roady Lecousse,Centre commercial La Pilais,Lécousse,35133,0249886477,,https://www.roady.fr/lecousse.html,,Carrying / Hitching | Gearbox | Air conditioning | Start / Battery | Electronic diagnostics | Direction / Suspension | Distribution | Exhaust | Lighting | Eco-cleaning | Engine parts | Clutch | Drain maintenance | Equipment / Accessories | Braking | Pneumatic | Technical pre-inspection | Roady Review | Sound / Multimedia | Puncture insurance | Funding | Vehicle loan | Roady Assistance | Lavage | Hybrid electric ,48.352711,-1.234688,,https://www.roady.fr/
abc,FR,IAM Autocenter,Roady,Centre Roady Saintes,11 Rue de Lamothe,Saintes,17100,0533523534,,https://www.roady.fr/saintes.html,,Carrying / Hitching | Gearbox | Air conditioning | Start / Battery | Electronic diagnostics | Direction / Suspension | Distribution | Exhaust | Lighting | Eco-cleaning | Engine parts | Clutch | Drain maintenance | Equipment / Accessories | Braking | Hybrid electric | Pneumatic | Pre-technical inspection | Roady Review | Sound / Multimedia | Windshield / Impact Repair | Puncture insurance | Funding | Vehicle loan | Lavage | Roady Assistance | Registration card ,45.740224,-0.603733,,https://www.roady.fr/
abc,FR,IAM Autocenter,Roady,Centre Roady Sene,ZC du Poulfanc,Sene,56860,0249886627,,https://www.roady.fr/sene.html,,Carrying / Hitching | Gearbox | Air conditioning | Start / Battery | Electronic diagnostics | Direction / Suspension | Distribution | Exhaust | Lighting | Eco-cleaning | Engine parts | Clutch | Drain maintenance | Equipment / Accessories | Braking | Pneumatic | Pre-technical inspection | Roady Review | Sound / Multimedia | Windshield / Impact Repair | Gray card | Vehicle loan | Gas bottles | Roady Assistance ,47.653072,-2.723188,,https://www.roady.fr/
abc,FR,IAM Autocenter,Roady,Centre Roady Cognac,18 avenue de Saintes,Cognac,16100,0533523650,,https://www.roady.fr/cognac.html,,Carrying / Hitching | Gearbox | Air conditioning | Start / Battery | Electronic diagnostics | Direction / Suspension | Distribution | Exhaust | Lighting | Engine parts | Clutch | Drain maintenance | Equipment / Accessories | Braking | Pneumatic | Roady Review | Sound / Multimedia | Puncture insurance | Funding | Vehicle loan | Lavage | Roady Assistance | Equipment rental | Registration card | Short term vehicle rental | Technical pre-inspection ,45.699271,-0.342947,,https://www.roady.fr/
abc,FR,IAM Autocenter,Roady,Centre Roady Arçonnay,"ZAC du petit Coudray, Rue de Maine Normandie",ARÇONNAY,72610,0221832316,,https://www.roady.fr/arconnay.html,,Air conditioning | Start / Battery | Electronic diagnostics | Direction / Suspension | Distribution | Exhaust | Lighting | Drain maintenance | Engine parts | Clutch | Equipment / Accessories | Braking | Hybrid electric | Pneumatic | Carrying / Hitching | Pre-technical inspection | Roady Review | Sound / Multimedia | Puncture insurance | Registration card | Funding | Vehicle loan | Windshield / Impact Repair ,48.407739,0.086828,,https://www.roady.fr/
abc,FR,IAM Autocenter,Roady,Centre Roady Pleurtuit,ZAC du Tertre Esnault - 3 rue du Cap Breton,Pleurtuit,35730,0249886482,,https://www.roady.fr/pleurtuit.html,,Portage / Hitch | Gearbox | Air conditioning | Start / Battery | Electronic diagnostics | Direction / Suspension | Distribution | Exhaust | Lighting | Eco-cleaning | Engine parts | Clutch | Drain maintenance | Equipment / Accessories | Braking | Hybrid electric | Pneumatic | Pre-technical inspection | Roady Review | Sound / Multimedia | Funding | Vehicle loan | Roady Assistance ,48.61043,-2.066752,,https://www.roady.fr/
abc,FR,IAM Autocenter,Roady,Centre Roady Argentan,75 avenue de la 2ème DB,Argentan,61200,0249886619,,https://www.roady.fr/argentan.html,,Gearbox | Carrying / Hitching | Air conditioning | Start / Battery | Electronic diagnostics | Direction / Suspension | Distribution | Exhaust | Lighting | Eco-cleaning | Engine parts | Clutch | Drain maintenance | Equipment / Accessories | Braking | Pneumatic | Pre-technical inspection | Roady Review | Sound / Multimedia | Puncture insurance | Funding | Short term vehicle rental | Vehicle loan ,48.733295,-0.033184,,https://www.roady.fr/
abc,FR,IAM Autocenter,Roady,Centre Roady Vire,"16 rue Alphonse Savey, Zone d'activité du Maupas",Vire,14500,0249886626,,https://www.roady.fr/vire.html,,Carrying / Hitching | Start / Battery | Direction / Suspension | Distribution | Exhaust | Engine parts | Drain maintenance | Equipment / Accessories | Braking | Pneumatic | Roady Review | Sound / Multimedia | Roady Assistance | Registration card | Gas bottles | Air conditioning | Electronic diagnostics | Windshield / Impact Repair | Pre-technical inspection | Lighting | Vehicle loan | Clutch ,48.855341,-0.865383,,https://www.roady.fr/
abc,FR,IAM Autocenter,Roady,Centre Roady Tavers,Route Nationale 152 - (près du Bricomarché),Tavers,45190,0249886485,,https://www.roady.fr/tavers.html,,Carrying / Hitching | Gearbox | Air conditioning | Starting / Battery | Electronic diagnostics | Direction / Suspension | Distribution | Exhaust | Lighting | Engine parts | Clutch | Drain maintenance | Equipment / Accessories | Braking | Pneumatic | Pre-technical inspection | Roady Review | Sound / Multimedia | Windshield / Impact Repair | Puncture insurance | Registration card | Vehicle loan | Roady Assistance | Funding ,47.766332,1.609256,,https://www.roady.fr/
abc,FR,IAM Autocenter,Roady,Centre Roady Limoges,1 rue Jean-baptiste Chastaing,Limoges,87000,0533523645,,https://www.roady.fr/limoges.html,,Carrying / Hitching | Start / Battery | Direction / Suspension | Distribution | Exhaust | Engine parts | Drain maintenance | Equipment / Accessories | Braking | Pneumatic | Roady Review | Sound / Multimedia | Roady Assistance | Eco-cleaning | Puncture insurance | Pre-technical inspection | Lighting | Air conditioning | Electronic diagnostics | Gearbox | Clutch ,45.842639,1.252742,,https://www.roady.fr/
abc,FR,IAM Autocenter,Roady,Centre Roady Mellac,ZAC De Kervidannou,Mellac,29300,0249886625,,https://www.roady.fr/mellac.html,,Carrying / Hitching | Gearbox | Air conditioning | Start / Battery | Electronic diagnostics | Direction / Suspension | Distribution | Exhaust | Lighting | Eco-cleaning | Engine parts | Clutch | Drain maintenance | Equipment / Accessories | Braking | Pneumatic | Pre-technical inspection | Roady Review | Sound / Multimedia | Windshield / Impact Repair | Puncture insurance | Vehicle loan | Lavage | Roady Assistance ,47.868625,-3.587036,,https://www.roady.fr/
abc,FR,IAM Autocenter,Roady,Centre Roady Coutances,67 Avenue de la division Leclerc - C.Cial Le Roqueret,Coutances,50200,0249886483,,https://www.roady.fr/coutances.html,,Carrying / Hitching | Gearbox | Air conditioning | Start / Battery | Electronic diagnostics | Direction / Suspension | Distribution | Exhaust | Lighting | Eco-cleaning | Engine parts | Clutch | Drain maintenance | Equipment / Accessories | Braking | Hybrid electric | Pneumatic | Pre-technical inspection | Roady Review | Sound / Multimedia | Windshield / Impact Repair | Puncture insurance | Registration card | Funding | Tire guarding | Short term vehicle rental | Vehicle loan | Roady Assistance ,49.062802,-1.43451,,https://www.roady.fr/
abc,FR,IAM Autocenter,Roady,Centre Roady Saint Lo,Chemin du Moulin de Baudre,Saint Lo,50000,0249886616,,https://www.roady.fr/saint-lo.html,,Carrying / Hitching | Start / Battery | Direction / Suspension | Distribution | Exhaust | Engine parts | Drain maintenance | Equipment / Accessories | Braking | Pneumatic | Roady Review | Sound / Multimedia | Roady Assistance | Lighting | Vehicle loan | Electronic diagnostics | Funding | Clutch | Pre-technical inspection ,49.100918,-1.080957,,https://www.roady.fr/
abc,FR,IAM Autocenter,Roady,Centre Roady Saint André de Cubzac,240 avenue Boucicaut,Saint André de Cubzac,33240,0533523644,,https://www.roady.fr/saint-andre-de-cubzac.html,,Carrying / Hitching | Gearbox | Air conditioning | Start / Battery | Electronic diagnostics | Direction / Suspension | Distribution | Exhaust | Lighting | Engine parts | Clutch | Drain maintenance | Equipment / Accessories | Braking | Pneumatic | Pre-technical inspection | Roady Review | Sound / Multimedia | Windshield / Impact Repair | Puncture insurance | Funding | Short term vehicle rental | Vehicle loan | Lavage | Gas bottles | Roady Assistance | Registration card | Hybrid electric ,45.011156,-0.437048,,https://www.roady.fr/
abc,FR,IAM Autocenter,Roady,Centre Roady Argences,Rue de la gare,Argences,14370,0249886487,,https://www.roady.fr/argences.html,,Portage / Hitch | Gearbox | Air conditioning | Start / Battery | Electronic diagnostics | Direction / Suspension | Distribution | Exhaust | Lighting | Engine parts | Clutch | Drainage maintenance | Equipment / Accessories | Braking | Pneumatic | Pre-technical inspection | Roady Review | Sound / Multimedia | Windshield / Impact Repair | Funding | Tire storage | Vehicle loan | Roady Assistance ,49.118855,-0.176286,,https://www.roady.fr/
abc,FR,IAM Autocenter,Roady,Centre Roady Saint Agathon,Espace commercial de Kerhollo,Saint Agathon,22200,0249886618,,https://www.roady.fr/saint-agathon.html,,Carrying / Hitching | Starting / Battery | Direction / Suspension | Distribution | Exhaust | Engine parts | Drain maintenance | Equipment / Accessories | Braking | Pneumatic | Roady Review | Sound / Multimedia | Roady Assistance | Funding | Electronic diagnostics | Windshield / Impact Repair | Clutch | Air conditioning | Gearbox | Lighting ,48.559508,-3.123567,,https://www.roady.fr/
abc,FR,IAM Autocenter,Roady,Centre Roady Montpon Menesterol,Brion Nord,Montpon Menesterol,24700,0533523646,,https://www.roady.fr/montpon-menesterol.html,,Carrying / Hitching | Start / Battery | Direction / Suspension | Distribution | Exhaust | Engine parts | Drain maintenance | Equipment / Accessories | Braking | Pneumatic | Roady Review | Sound / Multimedia | Registration card | Roady Assistance | Tire storage | Funding | Air conditioning | Windshield / Impact Repair | Eco-cleaning | Lavage | Gearbox | Puncture insurance | Clutch | Pre-technical inspection | Gas bottles | Lighting | Hybrid electric | Vehicle loan | Electronic diagnostics ,45.006109,0.142036,,https://www.roady.fr/
abc,FR,IAM Autocenter,Roady,Centre Roady Concarneau,5 parkleur - ZAC de Keransignour,Concarneau,29900,0298970680,,https://www.roady.fr/concarneau.html,,Portage / Hitch | Gearbox | Air conditioning | Start / Battery | Electronic diagnostics | Direction / Suspension | Distribution | Exhaust | Lighting | Engine elements | Clutch | Drainage maintenance | Equipment / Accessories | Braking | Pneumatic | Pre-technical inspection | Roady Review | Sound / Multimedia | Windshield / Impact Repair | Registration card | Funding | Tire storage | Vehicle loan | Gas bottles | Roady Assistance ,47.868661,-3.892658,,https://www.roady.fr/
abc,FR,IAM Autocenter,Roady,Centre Roady Mérignac,105 avenue des Frères Robinson,Mérignac,33700,0533523642,,https://www.roady.fr/merignac.html,,Carrying / Hitching | Start / Battery | Direction / Suspension | Distribution | Exhaust | Engine parts | Drain maintenance | Equipment / Accessories | Braking | Pneumatic | Roady Review | Lighting | Hybrid electric | Funding | Air conditioning | Pre-technical inspection | Electronic diagnostics | Windshield / Impact Repair | Gearbox | Clutch ,44.855827,-0.653574,,https://www.roady.fr/
abc,FR,IAM Autocenter,Roady,Centre Roady Paimpol,27 rue Raymond Pellier,Paimpol,22500,0249886479,,https://www.roady.fr/paimpol.html,,Carrying / Hitching | Gearbox | Air conditioning | Start / Battery | Electronic diagnostics | Direction / Suspension | Distribution | Exhaust | Lighting | Eco-cleaning | Engine parts | Clutch | Drain maintenance | Equipment / Accessories | Braking | Pneumatic | Pre-technical inspection | Roady Review | Sound / Multimedia | Puncture insurance | Registration card | Funding | Vehicle loan | Roady Assistance | Hybrid electric ,48.76896,-3.038627,,https://www.roady.fr/
abc,FR,IAM Autocenter,Roady,Centre Roady Bernay,Rue du 8 mai 1945 - La Couture,Bernay,27300,0249886615,,https://www.roady.fr/bernay.html,,Carrying / Hitching | Start / Battery | Direction / Suspension | Distribution | Exhaust | Engine parts | Drain maintenance | Equipment / Accessories | Braking | Pneumatic | Roady Review | Sound / Multimedia | Registration card | Clutch | Puncture insurance | Vehicle loan | Air conditioning | Windshield / Impact Repair | Funding | Short term vehicle rental | Lighting | Pre-technical inspection | Lavage ,49.084232,0.600455,,https://www.roady.fr/
abc,FR,IAM Autocenter,Roady,Centre Roady Cestas,CC Gazinet Nord Av de Verdun,Cestas,33610,0533523647,,https://www.roady.fr/cestas.html,,Carrying / Hitching | Start / Battery | Direction / Suspension | Distribution | Exhaust | Engine elements | Drain maintenance | Equipment / Accessories | Braking | Pneumatic | Roady Review | Sound / Multimedia | Electronic diagnostics | Gearbox | Funding | Air conditioning | Puncture insurance | Windshield / Impact Repair | Lighting | Clutch | Tire storage ,44.780137,-0.689204,,https://www.roady.fr/
abc,FR,IAM Autocenter,Roady,Centre Roady Orval,Route de Lignières,Orval,18200,0249886620,,https://www.roady.fr/orval.html,,Carrying / Hitching | Start / Battery | Direction / Suspension | Distribution | Exhaust | Engine parts | Drain maintenance | Equipment / Accessories | Braking | Pneumatic | Roady Review | Sound / Multimedia | Roady Assistance | Electronic diagnostics | Air conditioning | Clutch | Gearbox | Puncture insurance | Funding | Windshield / Impact Repair | Pre-technical inspection | Vehicle loan | Lighting ,46.723105,2.461836,,https://www.roady.fr/
abc,FR,IAM Autocenter,Roady,Centre Roady Maulette,Route de Gambais,Maulette,78550,0176381909,,https://www.roady.fr/maulette.html,,Portage / Hitch | Gearbox | Air conditioning | Start / Battery | Electronic diagnostics | Direction / Suspension | Distribution | Exhaust | Lighting | Eco-cleaning | Engine parts | Clutch | Drain maintenance | Equipment / Accessories | Braking | Hybrid electric | Pneumatic | Pre-technical inspection | Roady Review | Sound / Multimedia | Windshield / Impact Repair | Puncture insurance | Registration card | Funding | Vehicle loan | Lavage | Roady Assistance ,48.791542,1.628119,,https://www.roady.fr/
abc,FR,IAM Autocenter,Roady,Centre Roady Pont Audemer,Rue du Maquis Surcouf,Pont Audemer,27500,0249886484,,https://www.roady.fr/pont-audemer.html,,Carrying / Hitching | Start / Battery | Direction / Suspension | Distribution | Exhaust | Engine parts | Drainage maintenance | Equipment / Accessories | Braking | Pneumatic | Roady Review | Sound / Multimedia | Roady Assistance ,49.348741,0.521513,,https://www.roady.fr/
abc,FR,IAM Autocenter,Roady,Centre Roady Louviers,Centre commercial le Becquet - Avenue des Peupliers,Louviers,27400,0249886624,,https://www.roady.fr/louviers.html,,Carrying / Hitching | Gearbox | Air conditioning | Start / Battery | Electronic diagnostics | Direction / Suspension | Distribution | Exhaust | Lighting | Engine parts | Clutch | Drain maintenance | Equipment / Accessories | Braking | Hybrid electric | Pneumatic | Pre-technical inspection | Roady Review | Sound / Multimedia | Windshield / Impact Repair | Puncture insurance | Gray card | Funding | Tire storage | Short term vehicle rental | Vehicle loan | Lavage | Roady Assistance | Eco-cleaning ,49.208897,1.182843,,https://www.roady.fr/
abc,FR,IAM Autocenter,Roady,Centre Roady Saint Marcel,Rue de la Garenne,Saint Marcel,27950,0249886610,,https://www.roady.fr/saint-marcel.html,,Carrying / Hitching | Start / Battery | Direction / Suspension | Distribution | Exhaust | Engine parts | Drain maintenance | Equipment / Accessories | Braking | Pneumatic | Roady Review | Sound / Multimedia | Registration card | Short term vehicle rental | Roady Assistance | Equipment rental | Eco-cleaning | Funding | Pre-technical inspection | Gearbox | Air conditioning | Puncture insurance | Vehicle loan | Windshield / Impact Repair | Hybrid electric | Clutch | Electronic diagnostics | Lighting ,49.102821,1.455522,,https://www.roady.fr/
abc,FR,IAM Autocenter,Roady,Centre Roady Commentry,La Brande Malicorne,Commentry,03600,0481689899,,https://www.roady.fr/commentry.html,,Carrying / Hitching | Start / Battery | Direction / Suspension | Distribution | Exhaust | Engine parts | Drain maintenance | Equipment / Accessories | Braking | Pneumatic | Roady Review | Sound / Multimedia | Roady Assistance | Lighting | Clutch | Pre-technical inspection | Electronic diagnostics | Gas bottles | Gearbox ,46.30033,2.737338,,https://www.roady.fr/
abc,FR,IAM Autocenter,Roady,Centre Roady Longpont sur Orge,Centre Commercial Intermarché - ZAC les Grands Echassons RN20,Longpont sur Orge,91310,0176381904,,https://www.roady.fr/longpont-sur-orge.html,,Carrying / Hitching | Gearbox | Air conditioning | Start / Battery | Electronic diagnostics | Direction / Suspension | Distribution | Exhaust | Lighting | Engine parts | Clutch | Drain maintenance | Equipment / Accessories | Braking | Pneumatic | Pre-technical inspection | Roady Review | Windshield / Impact Repair | Registration card | Funding | Vehicle loan | Gas bottles | Roady Assistance | Puncture insurance | Equipment rental ,48.651662,2.273622,,https://www.roady.fr/
abc,FR,IAM Autocenter,Roady,Centre Roady Nemours,ZAC des hauteurs du Loing,Nemours,77140,0176381607,,https://www.roady.fr/nemours.html,,Carrying / Hitching | Gearbox | Air conditioning | Start / Battery | Electronic diagnostics | Direction / Suspension | Distribution | Exhaust | Lighting | Eco-cleaning | Engine parts | Clutch | Drain maintenance | Equipment / Accessories | Braking | Hybrid electric | Pneumatic | Pre-technical inspection | Roady Review | Sound / Multimedia | Windshield / Impact Repair | Registration card | Funding | Tire storage | Short term vehicle rental | Vehicle loan | Roady Assistance | Puncture insurance ,48.281676,2.700215,,https://www.roady.fr/
abc,FR,IAM Autocenter,Roady,Centre Roady Sotteville les Rouen,Rue Gaston Contremoulins,Sotteville les Rouens,76300,0249886609,,https://www.roady.fr/sotteville-les-rouen.html,,Carrying / Hitching | Start / Battery | Direction / Suspension | Distribution | Exhaust | Engine parts | Drain maintenance | Equipment / Accessories | Braking | Pneumatic | Roady Review | Sound / Multimedia | Roady Assistance | Puncture insurance | Lighting | Air conditioning | Pre-technical inspection | Gearbox | Tire storage | Electronic diagnostics | Funding | Clutch ,49.420905,1.097758,,https://www.roady.fr/
abc,FR,IAM Autocenter,Roady,Centre Roady Varennes-Vauzelles,3 Rue Léonard de Vinci,VARENNES VAUZELLES,58640,0353642105,,https://www.roady.fr/varennes-vauzelles.html,,Gearbox | Carrying / Hitching | Air conditioning | Start / Battery | Electronic diagnostics | Direction / Suspension | Distribution | Sound / Multimedia | Lighting | Exhaust | Engine parts | Eco-cleaning | Clutch | Drain maintenance | Equipment / Accessories | Braking | Puncture insurance | Funding ,47.025915,3.147283,,https://www.roady.fr/
abc,FR,IAM Autocenter,Roady,Centre Roady Gisors,Centre commercial des Templiers,Gisors,27140,0249886613,,https://www.roady.fr/gisors.html,,Carrying / Hitching | Start / Battery | Direction / Suspension | Distribution | Exhaust | Engine parts | Drain maintenance | Equipment / Accessories | Braking | Pneumatic | Roady Review | Sound / Multimedia | Roady Assistance ,49.275998,1.762171,,https://www.roady.fr/
abc,FR,IAM Autocenter,Roady,Centre Roady Drancy,82 rue Stenay,Drancy,93700,0176381907,,https://www.roady.fr/drancy.html,,Roady Assistance | Vehicle loan | Funding | Puncture insurance | Sound / Multimedia | Roady Review | Pre-technical inspection | Pneumatic | Braking | Equipment / Accessories | Drain maintenance | Clutch | Engine parts | Eco-cleaning | Lighting | Exhaust | Distribution | Direction / Suspension | Electronic diagnostics | Start / Battery | Air conditioning | Gearbox | Carrying / Hitching | Windshield / Impact Repair ,48.918234,2.419337,,https://www.roady.fr/
abc,FR,IAM Autocenter,Roady,Centre Roady Varennes sur Seine,Centre Commercial le Bréau,Varennes sur Seine,77130,0176381905,,https://www.roady.fr/varennes-sur-seine.html,,Carrying / Hitching | Gearbox | Air conditioning | Start / Battery | Electronic diagnostics | Direction / Suspension | Distribution | Exhaust | Lighting | Eco-cleaning | Engine parts | Clutch | Drain maintenance | Equipment / Accessories | Braking | Pneumatic | Pre-technical inspection | Roady Review | Sound / Multimedia | Windshield / Impact Repair | Registration card | Funding | Vehicle loan | Lavage | Roady Assistance | Puncture insurance ,48.3658,2.955427,,https://www.roady.fr/
abc,FR,IAM Autocenter,Roady,Centre Roady Gannat,12 Avenue des Portes Occitanes,Gannat,03800,0481689898,,https://www.roady.fr/gannat.html,,Carrying / Hitching | Gearbox | Air conditioning | Start / Battery | Electronic diagnostics | Direction / Suspension | Distribution | Exhaust | Lighting | Engine parts | Clutch | Drain maintenance | Equipment / Accessories | Braking | Pneumatic | Pre-technical inspection | Roady Review | Sound / Multimedia | Windshield / Impact Repair | Registration card | Funding | Short term vehicle rental | Vehicle loan | Lavage | Gas bottles | Roady Assistance | Equipment rental | Puncture insurance | Hybrid electric ,46.079378,3.200669,,https://www.roady.fr/
abc,FR,IAM Autocenter,Roady,Centre Roady Decize,Route de Champvert,Decize,58300,0366886719,,https://www.roady.fr/decize.html,,Carrying / Hitching | Gearbox | Air conditioning | Start / Battery | Electronic diagnostics | Direction / Suspension | Distribution | Exhaust | Lighting | Engine parts | Clutch | Drainage maintenance | Equipment / Accessories | Braking | Pneumatic | Pre-technical inspection | Roady Review | Sound / Multimedia | Windshield / Impact repair | Puncture insurance | Funding | Roady Assistance ,46.836475,3.47363,,https://www.roady.fr/
abc,FR,IAM Autocenter,Roady,Centre Roady Saumur,Boulevard des Demoiselles,Saumur,49400,0249886612,,https://www.roady.fr/saumur.html,,Carrying / Hitching | Gearbox | Air conditioning | Start / Battery | Electronic diagnostics | Direction / Suspension | Distribution | Exhaust | Lighting | Eco-cleaning | Engine parts | Clutch | Drain maintenance | Equipment / Accessories | Braking | Hybrid electric | Pneumatic | Pre-technical inspection | Roady Review | Sound / Multimedia | Windshield / Impact Repair | Puncture insurance | Registration card | Funding | Tire storage | Vehicle loan | Lavage | Roady Assistance ,47.276535,-0.061104,,https://www.roady.fr/
abc,FR,IAM Autocenter,Roady,Centre Roady Chauny,Boulevard de l Europe ZI de l univers,Chauny,02300,0366886814,,https://www.roady.fr/chauny.html,,Carrying / Hitching | Start / Battery | Direction / Suspension | Distribution | Exhaust | Engine parts | Drain maintenance | Equipment / Accessories | Braking | Pneumatic | Roady Review | Sound / Multimedia | Registration card | Roady Assistance | Clutch | Pre-technical inspection | Funding | Puncture insurance | Lighting | Eco-cleaning | Electronic diagnostics | Air conditioning | Lavage ,49.62624,3.217583,,https://www.roady.fr/
abc,FR,IAM Autocenter,Roady,Centre Roady Guise,Rue des docteurs Devillers - ZA de la briqueterie,Guise,02120,0366886815,,https://www.roady.fr/guise.html,,Carrying / Hitching | Start / Battery | Direction / Suspension | Distribution | Exhaust | Engine parts | Drain maintenance | Equipment / Accessories | Braking | Pneumatic | Roady Review | Sound / Multimedia | Registration card | Roady Assistance | Electronic diagnostics | Clutch | Vehicle loan | Lighting | Funding | Air conditioning | Lavage | Gearbox | Windshield / Impact Repair | Puncture insurance | Pre-technical inspection ,49.906085,3.645294,,https://www.roady.fr/
abc,FR,IAM Autocenter,Roady,Centre Roady Crépy en Valois,67 Bis Rue Henri Laroche,Crépy en Valois,60800,0978818440,,https://www.roady.fr/crepy-en-valois.html,,Carrying / Hitching | Gearbox | Air conditioning | Starting / Battery | Electronic diagnostics | Direction / Suspension | Distribution | Exhaust | Lighting | Eco-cleaning | Engine parts | Clutch | Drain maintenance | Equipment / Accessories | Braking | Electric hybrid | Pneumatic | Pre-technical inspection | Roady Review | Sound / Multimedia | Puncture insurance | Registration card | Tire storage | Vehicle loan | Lavage | Roady Assistance ,49.224615,2.906157,,https://www.roady.fr/
abc,FR,IAM Autocenter,Roady,Centre Roady Gauchy,Rue Auguste Delaune,Gauchy,02430,0366886716,,https://www.roady.fr/gauchy.html,,Carrying / Hitching | Start / Battery | Electronic diagnostics | Direction / Suspension | Distribution | Exhaust | Lighting | Engine parts | Clutch | Drainage maintenance | Equipment / Accessories | Braking | Pneumatic | Pre-technical inspection | Roady Review | Sound / Multimedia | Puncture insurance | Funding | Windshield / Impact Repair ,49.824943,3.280124,,https://www.roady.fr/
abc,FR,IAM Autocenter,Roady,Centre Roady Thorigny sur Marne,17 Allée des Rousselets,Thorigny sur Marne,77400,0188210570,,https://www.roady.fr/thorigny-sur-marne.html,,Vehicle loan | Short term vehicle rental | Funding | Puncture insurance | Sound / Multimedia | Roady Review | Technical pre-inspection | Pneumatic | Braking | Equipment / Accessories | Drain maintenance | Clutch | Engine parts | Eco-cleaning | Lighting | Exhaust | Distribution | Direction / Suspension | Electronic diagnostics | Start / Battery | Air conditioning | Gearbox | Carrying / Hitching | Windshield / Impact Repair | Lavage ,48.896215,2.716284,,https://www.roady.fr/
abc,FR,IAM Autocenter,Roady,Centre Roady Givet,5 route de Beauraing,GIVET,08600,0353641966,,https://www.roady.fr/givet.html,,Gearbox | Air conditioning | Start / Battery | Electronic diagnostics | Direction / Suspension | Distribution | Exhaust | Lighting | Eco-cleaning | Engine parts | Clutch | Drain maintenance | Equipment / Accessories | Braking | Hybrid electric | Pneumatic | Carrying / Hitching | Pre-technical inspection | Roady Review | Sound / Multimedia | Puncture insurance | Registration card | Funding | Tire storage | Short term vehicle rental | Vehicle loan | Roady Assistance | Equipment rental | Windshield / Impact Repair ,50.133289,4.852196,,https://www.roady.fr/
abc,FR,IAM Autocenter,Roady,Centre Roady Lamorlaye,ZA la Seigneurie,Lamorlaye,60260,0366886813,,https://www.roady.fr/lamorlaye.html,,Carrying / Hitching | Start / Battery | Direction / Suspension | Distribution | Exhaust | Engine parts | Drain maintenance | Equipment / Accessories | Braking | Pneumatic | Roady Review | Sound / Multimedia | Registration card | Roady Assistance | Pre-technical inspection | Air conditioning | Electronic diagnostics | Funding | Puncture insurance | Lighting | Clutch | Gearbox | Windshield / Impact Repair | Eco-cleaning ,49.149808,2.428129,,https://www.roady.fr/
abc,FR,IAM Autocenter,Roady,Centre Roady Drancy,82 rue Stenay,Drancy,93700,0176381907,,https://www.roady.fr/drancy.html,,Roady Assistance | Vehicle loan | Funding | Puncture insurance | Sound / Multimedia | Roady Review | Pre-technical inspection | Pneumatic | Braking | Equipment / Accessories | Drain maintenance | Clutch | Engine parts | Eco-cleaning | Lighting | Exhaust | Distribution | Direction / Suspension | Electronic diagnostics | Starting / Battery | Air conditioning | Gearbox | Carrying / Hitching | Windshield / Impact Repair ,48.918234,2.419337,,https://www.roady.fr/
abc,FR,IAM Autocenter,Roady,Centre Roady Varennes sur Seine,Centre Commercial le Bréau,Varennes sur Seine,77130,0176381905,,https://www.roady.fr/varennes-sur-seine.html,,Carrying / Hitching | Gearbox | Air conditioning | Start / Battery | Electronic diagnostics | Direction / Suspension | Distribution | Exhaust | Lighting | Eco-cleaning | Engine parts | Clutch | Drain maintenance | Equipment / Accessories | Braking | Pneumatic | Pre-technical inspection | Roady Review | Sound / Multimedia | Windshield / Impact Repair | Registration card | Funding | Vehicle loan | Lavage | Roady Assistance | Puncture insurance ,48.3658,2.955427,,https://www.roady.fr/
abc,FR,IAM Autocenter,Roady,Centre Roady Longwy haut,ZI du Pulventeux,Longwy haut,54400,0366886817,,https://www.roady.fr/longwy-haut.html,,Carrying / Hitching | Gearbox | Air conditioning | Starting / Battery | Electronic diagnostics | Direction / Suspension | Distribution | Exhaust | Lighting | Engine parts | Clutch | Drain maintenance | Equipment / Accessories | Braking | Pneumatic | Pre-technical inspection | Roady Review | Sound / Multimedia | Registration card | Funding | Roady Assistance | Windshield / Impact Repair | Hybrid electric ,49.515534,5.752845,,https://www.roady.fr/
abc,FR,IAM Autocenter,Roady,Centre Roady Beauvais Nord,40 avenue du 8 mai 1945,Beauvais Nord,60000,0366886819,,https://www.roady.fr/beauvais-nord.html,,Portage / Hitch | Gearbox | Air conditioning | Start / Battery | Electronic diagnostics | Direction / Suspension | Distribution | Exhaust | Lighting | Engine parts | Clutch | Drain maintenance | Equipment / Accessories | Braking | Electric hybrid | Pneumatic | Pre-technical inspection | Roady Review | Sound / Multimedia | Funding | Roady Assistance | Gas bottles | Lavage ,49.443153,2.093706,,https://www.roady.fr/
abc,FR,IAM Autocenter,Roady,Centre Roady Beaurains,4 Avenue des Coquelicots - Zone Boréal Parc,Beaurains,62217,0366886722,,https://www.roady.fr/beaurains.html,,Portage / Hitch | Air conditioning | Start / Battery | Electronic diagnostics | Direction / Suspension | Distribution | Exhaust | Lighting | Engine parts | Clutch | Drain maintenance | Equipment / Accessories | Braking | Pneumatic | Roady Review | Sound / Multimedia | Puncture insurance | Funding | Windshield / Impact Repair | Eco-cleaning ,50.266216,2.79969,,https://www.roady.fr/
abc,FR,IAM Autocenter,Roady,Centre Roady Homécourt,Les hauts des Tappes,Homécourt,54310,0366886818,,https://www.roady.fr/homecourt.html,,Carrying / Hitching | Gearbox | Air conditioning | Start / Battery | Electronic diagnostics | Direction / Suspension | Distribution | Lighting | Eco-cleaning | Engine parts | Clutch | Drain maintenance | Equipment / Accessories | Braking | Pneumatic | Pre-technical inspection | Roady Review | Sound / Multimedia | Windshield / Impact Repair | Funding | Roady Assistance ,49.223165,6.00216,,https://www.roady.fr/
abc,FR,IAM Autocenter,Roady,Centre Roady Longpont sur Orge,Centre Commercial Intermarché - ZAC les Grands Echassons RN20,Longpont sur Orge,91310,0176381904,,https://www.roady.fr/longpont-sur-orge.html,,Carrying / Hitching | Gearbox | Air conditioning | Start / Battery | Electronic diagnostics | Direction / Suspension | Distribution | Exhaust | Lighting | Engine parts | Clutch | Drainage maintenance | Equipment / Accessories | Braking | Pneumatic | Pre-technical inspection | Roady Review | Windshield / Impact Repair | Registration card | Funding | Vehicle loan | Gas bottles | Roady Assistance | Puncture insurance | Equipment rental ,48.651662,2.273622,,https://www.roady.fr/
abc,FR,IAM Autocenter,Roady,Centre Roady Nemours,ZAC des hauteurs du Loing,Nemours,77140,0176381607,,https://www.roady.fr/nemours.html,,Carrying / Hitching | Gearbox | Air conditioning | Start / Battery | Electronic diagnostics | Direction / Suspension | Distribution | Exhaust | Lighting | Eco-cleaning | Engine parts | Clutch | Drain maintenance | Equipment / Accessories | Braking | Hybrid electric | Pneumatic | Pre-technical inspection | Roady Review | Sound / Multimedia | Windshield / Impact Repair | Registration card | Funding | Tire storage | Short term vehicle rental | Vehicle loan | Roady Assistance | Puncture insurance ,48.281676,2.700215,,https://www.roady.fr/
abc,FR,IAM Autocenter,Roady,Centre Roady Joigny,Rue des entrepreneurs - Zone commerciale de la petite,Joigny,89300,0366886720,,https://www.roady.fr/joigny.html,,Carrying / Hitching | Start / Battery | Direction / Suspension | Distribution | Exhaust | Engine parts | Drain maintenance | Equipment / Accessories | Braking | Pneumatic | Roady Review | Sound / Multimedia | Registration card | Roady Assistance | Gearbox | Pre-technical inspection | Windshield / Impact Repair | Funding | Puncture insurance | Lighting | Air conditioning | Clutch ,47.979235,3.37969,,https://www.roady.fr/
abc,FR,IAM Autocenter,Roady,Centre Roady Pont à Mousson,ZAC Breuil - Rue Nicolas Pierson,Pont à  Mousson,54700,0366886721,,https://www.roady.fr/pont-a-mousson.html,,Carrying / Hitching | Air conditioning | Start / Battery | Electronic diagnostics | Direction / Suspension | Distribution | Exhaust | Lighting | Engine parts | Clutch | Drain maintenance | Equipment / Accessories | Braking | Pneumatic | Pre-technical inspection | Roady Review | Sound / Multimedia | Gas bottles ,48.920865,6.05698,,https://www.roady.fr/
abc,FR,IAM Autocenter,Roady,Centre Roady Gisors,Centre commercial des Templiers,Gisors,27140,0249886613,,https://www.roady.fr/gisors.html,,Carrying / Hitching | Starting / Battery | Direction / Suspension | Distribution | Exhaust | Engine parts | Drain maintenance | Equipment / Accessories | Braking | Pneumatic | Roady Review | Sound / Multimedia | Roady Assistance ,49.275998,1.762171,,https://www.roady.fr/
abc,FR,IAM Autocenter,Roady,Centre Roady Maulette,Route de Gambais,Maulette,78550,0176381909,,https://www.roady.fr/maulette.html,,Carrying / Hitching | Gearbox | Air conditioning | Start / Battery | Electronic diagnostics | Direction / Suspension | Distribution | Exhaust | Lighting | Eco-cleaning | Engine parts | Clutch | Drain maintenance | Equipment / Accessories | Braking | Hybrid electric | Pneumatic | Pre-technical inspection | Roady Review | Sound / Multimedia | Windshield / Impact Repair | Puncture insurance | Gray card | Funding | Vehicle loan | Lavage | Roady Assistance ,48.791542,1.628119,,https://www.roady.fr/
abc,FR,IAM Autocenter,Roady,Centre Roady Saint Marcel,Rue de la Garenne,Saint Marcel,27950,0249886610,,https://www.roady.fr/saint-marcel.html,,Carrying / Hitching | Start / Battery | Direction / Suspension | Distribution | Exhaust | Engine parts | Drainage maintenance | Equipment / Accessories | Braking | Pneumatic | Roady Review | Sound / Multimedia | Gray card | Short term vehicle rental | Roady Assistance | Equipment rental | Eco-cleaning | Funding | Pre-technical inspection | Gearbox | Air conditioning | Puncture insurance | Vehicle loan | Windshield / Impact Repair | Hybrid electric | Clutch | Electronic diagnostics | Lighting ,49.102821,1.455522,,https://www.roady.fr/
abc,FR,IAM Autocenter,Roady,Centre Roady Louviers,Centre commercial le Becquet - Avenue des Peupliers,Louviers,27400,0249886624,,https://www.roady.fr/louviers.html,,Carrying / Hitching | Gearbox | Air conditioning | Start / Battery | Electronic diagnostics | Direction / Suspension | Distribution | Exhaust | Lighting | Engine parts | Clutch | Drainage maintenance | Equipment / Accessories | Braking | Hybrid electric | Pneumatic | Technical pre-inspection | Roady Review | Sound / Multimedia | Windshield / Impact Repair | Puncture insurance | Registration card | Funding | Tire storage | Short term vehicle rental | Vehicle loan | Lavage | Roady Assistance | Eco-cleaning ,49.208897,1.182843,,https://www.roady.fr/
abc,FR,IAM Autocenter,Roady,Centre Roady Sotteville les Rouen,Rue Gaston Contremoulins,Sotteville les Rouens,76300,0249886609,,https://www.roady.fr/sotteville-les-rouen.html,,Carrying / Hitching | Starting / Battery | Direction / Suspension | Distribution | Exhaust | Engine elements | Drain maintenance | Equipment / Accessories | Braking | Pneumatic | Roady Review | Sound / Multimedia | Roady Assistance | Puncture insurance | Lighting | Air conditioning | Pre-technical inspection | Gearbox | Tire storage | Electronic diagnostics | Funding | Clutch ,49.420905,1.097758,,https://www.roady.fr/
abc,FR,IAM Autocenter,Roady,Centre Roady Rang du Fliers,CD 917 Lieu dit La Folie Du Nord,Rang du Fliers,62180,0366886726,,https://www.roady.fr/rang-du-fliers.html,,Carrying / Hitching | Gearbox | Air conditioning | Starting / Battery | Electronic diagnostics | Direction / Suspension | Distribution | Exhaust | Lighting | Engine parts | Clutch | Drain maintenance | Equipment / Accessories | Braking | Pneumatic | Pre-technical inspection | Roady Review | Sound / Multimedia | Windshield / Impact Repair | Puncture insurance | Registration card | Funding | Tire storage | Short term vehicle rental | Vehicle loan | Lavage | Gas bottles ,50.414412,1.608811,,https://www.roady.fr/
abc,FR,IAM Autocenter,Roady,Centre Roady Dieppe,18 avenue Normandie Sussex,Dieppe,76370,0249886478,,https://www.roady.fr/dieppe.html,,Carrying / Hitching | Gearbox | Air conditioning | Start / Battery | Electronic diagnostics | Direction / Suspension | Distribution | Exhaust | Lighting | Eco-cleaning | Engine parts | Clutch | Drain maintenance | Equipment / Accessories | Braking | Pneumatic | Technical pre-inspection | Roady Review | Sound / Multimedia | Puncture insurance | Funding | Vehicle loan | Short term vehicle rental | Windshield / Impact Repair | Lavage ,49.91713,1.0882,,https://www.roady.fr/
abc,FR,IAM Autocenter,Roady,Centre Roady Tavers,Route Nationale 152 - (près du Bricomarché),Tavers,45190,0249886485,,https://www.roady.fr/tavers.html,,Portage / Hitch | Gearbox | Air conditioning | Start / Battery | Electronic diagnostics | Direction / Suspension | Distribution | Exhaust | Lighting | Engine parts | Clutch | Drain maintenance | Equipment / Accessories | Braking | Pneumatic | Pre-technical inspection | Roady Review | Sound / Multimedia | Windshield / Impact Repair | Puncture insurance | Registration card | Vehicle loan | Roady Assistance | Funding ,47.766332,1.609256,,https://www.roady.fr/
abc,FR,IAM Autocenter,Roady,Centre Roady Bernay,Rue du 8 mai 1945 - La Couture,Bernay,27300,0249886615,,https://www.roady.fr/bernay.html,,Carrying / Hitching | Start / Battery | Direction / Suspension | Distribution | Exhaust | Engine parts | Drain maintenance | Equipment / Accessories | Braking | Pneumatic | Roady Review | Sound / Multimedia | Registration card | Clutch | Puncture insurance | Vehicle loan | Air conditioning | Windshield / Impact Repair | Funding | Short term vehicle rental | Lighting | Pre-technical inspection | Lavage ,49.084232,0.600455,,https://www.roady.fr/
abc,FR,IAM Autocenter,Roady,Centre Roady Pont Audemer,Rue du Maquis Surcouf,Pont Audemer,27500,0249886484,,https://www.roady.fr/pont-audemer.html,,Carrying / Hitching | Start / Battery | Direction / Suspension | Distribution | Exhaust | Engine parts | Drain maintenance | Equipment / Accessories | Braking | Pneumatic | Roady Review | Sound / Multimedia | Roady Assistance ,49.348741,0.521513,,https://www.roady.fr/
abc,FR,IAM Autocenter,Roady,Centre Roady Varennes-Vauzelles,3 Rue Léonard de Vinci,VARENNES VAUZELLES,58640,0353642105,,https://www.roady.fr/varennes-vauzelles.html,,Gearbox | Carrying / Hitching | Air conditioning | Start / Battery | Electronic diagnostics | Direction / Suspension | Distribution | Sound / Multimedia | Lighting | Exhaust | Engine parts | Eco-cleaning | Clutch | Drain maintenance | Equipment / Accessories | Braking | Puncture insurance | Funding ,47.025915,3.147283,,https://www.roady.fr/
abc,FR,IAM Autocenter,Roady,Centre Roady Decize,Route de Champvert,Decize,58300,0366886719,,https://www.roady.fr/decize.html,,Carrying / Hitching | Gearbox | Air conditioning | Start / Battery | Electronic diagnostics | Direction / Suspension | Distribution | Exhaust | Lighting | Engine parts | Clutch | Drain maintenance | Equipment / Accessories | Braking | Pneumatic | Pre-technical inspection | Roady Review | Sound / Multimedia | Windshield / Impact Repair | Puncture insurance | Funding | Roady Assistance ,46.836475,3.47363,,https://www.roady.fr/
abc,FR,IAM Autocenter,Roady,Centre Roady Argentan,75 avenue de la 2ème DB,Argentan,61200,0249886619,,https://www.roady.fr/argentan.html,,Gearbox | Carrying / Hitching | Air conditioning | Start / Battery | Electronic diagnostics | Direction / Suspension | Distribution | Exhaust | Lighting | Eco-cleaning | Engine parts | Clutch | Drain maintenance | Equipment / Accessories | Braking | Pneumatic | Technical pre-inspection | Roady Review | Sound / Multimedia | Puncture insurance | Funding | Short term vehicle rental | Vehicle loan ,48.733295,-0.033184,,https://www.roady.fr/
abc,FR,IAM Autocenter,Roady,Centre Roady Arçonnay,"ZAC du petit Coudray, Rue de Maine Normandie",ARÇONNAY,72610,0221832316,,https://www.roady.fr/arconnay.html,,Air conditioning | Start / Battery | Electronic diagnostics | Direction / Suspension | Distribution | Exhaust | Lighting | Drain maintenance | Engine parts | Clutch | Equipment / Accessories | Braking | Hybrid electric | Pneumatic | Carrying / Hitching | Pre-technical inspection | Roady Review | Sound / Multimedia | Puncture insurance | Registration card | Funding | Vehicle loan | Windshield / Impact Repair ,48.407739,0.086828,,https://www.roady.fr/
abc,FR,IAM Autocenter,Roady,Centre Roady Orval,Route de Lignières,Orval,18200,0249886620,,https://www.roady.fr/orval.html,,Carrying / Hitching | Start / Battery | Direction / Suspension | Distribution | Exhaust | Engine parts | Drainage maintenance | Equipment / Accessories | Braking | Pneumatic | Roady Review | Sound / Multimedia | Roady Assistance | Electronic diagnostics | Air conditioning | Clutch | Gearbox | Puncture insurance | Funding | Windshield / Impact Repair | Pre-technical inspection | Vehicle loan | Lighting ,46.723105,2.461836,,https://www.roady.fr/
abc,FR,IAM Autocenter,Roady,Centre Roady Argences,Rue de la gare,Argences,14370,0249886487,,https://www.roady.fr/argences.html,,Carrying / Hitching | Gearbox | Air conditioning | Start / Battery | Electronic diagnostics | Direction / Suspension | Distribution | Exhaust | Lighting | Engine parts | Clutch | Drainage maintenance | Equipment / Accessories | Braking | Pneumatic | Pre-technical inspection | Roady Review | Sound / Multimedia | Windshield / Impact Repair | Funding | Tire storage | Vehicle loan | Roady Assistance ,49.118855,-0.176286,,https://www.roady.fr/
abc,FR,IAM Autocenter,Roady,Centre Roady Le Lude,Rue de la Garenne - Parking Intermarché,Le Lude,72800,0249886486,,https://www.roady.fr/le-lude.html,,Carrying / Hitching | Start / Battery | Direction / Suspension | Distribution | Exhaust | Engine parts | Drain maintenance | Equipment / Accessories | Braking | Pneumatic | Roady Review | Sound / Multimedia | Roady Assistance | Hybrid electric | Air conditioning | Funding | Registration card | Lighting | Pre-technical inspection | Electronic diagnostics | Gearbox | Vehicle loan | Clutch ,47.64028,0.151588,,https://www.roady.fr/
abc,FR,IAM Autocenter,Roady,Centre Roady Commentry,La Brande Malicorne,Commentry,03600,0481689899,,https://www.roady.fr/commentry.html,,Carrying / Hitching | Start / Battery | Direction / Suspension | Distribution | Exhaust | Engine parts | Drain maintenance | Equipment / Accessories | Braking | Pneumatic | Roady Review | Sound / Multimedia | Roady Assistance | Lighting | Clutch | Technical pre-inspection | Electronic diagnostics | Gas bottles | Gearbox ,46.30033,2.737338,,https://www.roady.fr/
abc,FR,IAM Autocenter,Roady,Centre Roady Saint Nizier sous Charlieu,ZI le pont de Tigny,Saint Nizier sous Charlieu,42190,0481689875,,https://www.roady.fr/saint-nizier-sous-charlieu.html,,Carrying / Hitching | Start / Battery | Direction / Suspension | Distribution | Exhaust | Engine parts | Drain maintenance | Equipment / Accessories | Braking | Pneumatic | Roady Review | Sound / Multimedia | Roady Assistance | Tire storage | Vehicle loan | Registration card | Funding | Windshield / Impact Repair | Puncture insurance | Gearbox | Lighting | Electronic diagnostics | Clutch | Technical pre-inspection ,46.152613,4.156303,,https://www.roady.fr/
abc,FR,IAM Autocenter,Roady,Centre Roady La Fleche,Route de Sablé La Prée,La Fleche,72200,0249886623,,https://www.roady.fr/la-fleche.html,,Carrying / Hitching | Starting / Battery | Direction / Suspension | Distribution | Exhaust | Engine parts | Drain maintenance | Equipment / Accessories | Braking | Pneumatic | Roady Review | Sound / Multimedia | Registration card | Roady Assistance ,47.705047,-0.092662,,https://www.roady.fr/
abc,FR,IAM Autocenter,Roady,Centre Roady Bourg en Bresse,54 boulevard du 8 Mai 1945,Bourg en Bresse,01000,0481689747,,https://www.roady.fr/bourg-en-bresse.html,,Carrying / Hitching | Gearbox | Air conditioning | Start / Battery | Electronic diagnostics | Direction / Suspension | Distribution | Exhaust | Lighting | Eco-cleaning | Engine parts | Clutch | Drain maintenance | Equipment / Accessories | Braking | Pneumatic | Technical pre-inspection | Roady Review | Sound / Multimedia | Puncture insurance | Registration card | Funding | Tire storage | Vehicle loan | Roady Assistance | Hybrid electric ,46.194914,5.230709,,https://www.roady.fr/
abc,FR,IAM Autocenter,Roady,Centre Roady Belleville sur Saône,Le Péage,Belleville sur Saône,69220,0481689895,,https://www.roady.fr/belleville-sur-saone.html,,Carrying / Hitching | Gearbox | Air conditioning | Start / Battery | Electronic diagnostics | Direction / Suspension | Distribution | Exhaust | Lighting | Engine elements | Clutch | Drain maintenance | Equipment / Accessories | Braking | Pneumatic | Pre-technical inspection | Roady Review | Sound / Multimedia | Windshield / Impact Repair | Puncture insurance | Funding | Short term vehicle rental | Vehicle loan | Lavage | Gas bottles | Roady Assistance | Equipment rental | Hybrid electric | Tire storage | Registration card ,46.103902,4.749334,,https://www.roady.fr/
abc,FR,IAM Autocenter,Roady,Centre Roady Gannat,12 Avenue des Portes Occitanes,Gannat,03800,0481689898,,https://www.roady.fr/gannat.html,,Carrying / Hitching | Gearbox | Air conditioning | Start / Battery | Electronic diagnostics | Direction / Suspension | Distribution | Exhaust | Lighting | Engine parts | Clutch | Drain maintenance | Equipment / Accessories | Braking | Pneumatic | Pre-technical inspection | Roady Review | Sound / Multimedia | Windshield / Impact repair | Gray card | Funding | Short term vehicle rental | Vehicle loan | Lavage | Gas bottles | Roady Assistance | Equipment rental | Puncture insurance | Hybrid electric ,46.079378,3.200669,,https://www.roady.fr/
abc,FR,IAM Autocenter,Roady,Centre Roady Perreux,ZA Les Plaines,Perreux,42120,0481689889,,https://www.roady.fr/perreux.html,,Carrying / Hitching | Gearbox | Air conditioning | Start / Battery | Electronic diagnostics | Direction / Suspension | Distribution | Exhaust | Lighting | Eco-cleaning | Engine parts | Clutch | Drain maintenance | Equipment / Accessories | Braking | Hybrid electric | Pneumatic | Pre-technical inspection | Roady Review | Sound / Multimedia | Windshield / Impact Repair | Puncture insurance | Registration card | Funding | Tire guarding | Vehicle loan | Gas bottles | Roady Assistance | Equipment rental ,46.028854,4.095897,,https://www.roady.fr/
abc,FR,IAM Autocenter,Roady,Centre Roady Vire,"16 rue Alphonse Savey, Zone d'activité du Maupas",Vire,14500,0249886626,,https://www.roady.fr/vire.html,,Carrying / Hitching | Start / Battery | Direction / Suspension | Distribution | Exhaust | Engine parts | Drain maintenance | Equipment / Accessories | Braking | Pneumatic | Roady Review | Sound / Multimedia | Roady Assistance | Registration card | Gas bottles | Air conditioning | Electronic diagnostics | Windshield / Impact Repair | Pre-technical inspection | Lighting | Vehicle loan | Clutch ,48.855341,-0.865383,,https://www.roady.fr/
abc,FR,IAM Autocenter,Roady,Centre Roady Villefranche sur Saône,447 Rue Joseph Léon Jacquemaire,Villefranche sur Saône,69400,0481689744,,https://www.roady.fr/villefranche-sur-saone.html,,Carrying / Hitching | Gearbox | Air conditioning | Start / Battery | Electronic diagnostics | Direction / Suspension | Distribution | Exhaust | Lighting | Eco-cleaning | Engine parts | Clutch | Drainage maintenance | Equipment / Accessories | Braking | Pneumatic | Pre-technical inspection | Roady Review | Sound / Multimedia | Puncture insurance | Funding | Tire storage | Vehicle loan | Roady Assistance | Windshield / Impact Repair | Gas bottles | Hybrid electric | Gray card ,45.99338,4.742218,,https://www.roady.fr/
abc,FR,IAM Autocenter,Roady,Centre Roady Saint Lo,Chemin du Moulin de Baudre,Saint Lo,50000,0249886616,,https://www.roady.fr/saint-lo.html,,Carrying / Hitching | Start / Battery | Direction / Suspension | Distribution | Exhaust | Engine parts | Drain maintenance | Equipment / Accessories | Braking | Pneumatic | Roady Review | Sound / Multimedia | Roady Assistance | Lighting | Vehicle loan | Electronic diagnostics | Funding | Clutch | Pre-technical inspection ,49.100918,-1.080957,,https://www.roady.fr/
abc,FR,IAM Autocenter,Roady,Centre Roady Saumur,Boulevard des Demoiselles,Saumur,49400,0249886612,,https://www.roady.fr/saumur.html,,Carrying / Hitching | Gearbox | Air conditioning | Start / Battery | Electronic diagnostics | Direction / Suspension | Distribution | Exhaust | Lighting | Eco-cleaning | Engine parts | Clutch | Drain maintenance | Equipment / Accessories | Braking | Hybrid electric | Pneumatic | Pre-technical inspection | Roady Review | Sound / Multimedia | Windshield / Impact Repair | Puncture insurance | Registration card | Funding | Tire guarding | Vehicle loan | Lavage | Roady Assistance ,47.276535,-0.061104,,https://www.roady.fr/
abc,FR,IAM Autocenter,Roady,Centre Roady Amberieu en Bugey,Zone Commerciale Le Terreau du Marais,Amberieu en Bugey,01500,0481689750,,https://www.roady.fr/amberieu-en-bugey.html,,Carrying / Hitching | Gearbox | Air conditioning | Start / Battery | Electronic diagnostics | Direction / Suspension | Distribution | Exhaust | Lighting | Eco-cleaning | Engine parts | Clutch | Drain maintenance | Equipment / Accessories | Braking | Pneumatic | Pre-technical inspection | Roady Review | Sound / Multimedia | Puncture insurance | Gray card | Funding | Tire storage | Vehicle loan ,45.971246,5.339956,,https://www.roady.fr/
abc,FR,IAM Autocenter,Roady,Centre Roady Saint Julien en Genevois,6 avenue Louis Armand,Saint Julien en Genevois,74160,0481689883,,https://www.roady.fr/saint-julien-en-genevois.html,,Carrying / Hitching | Air conditioning | Start / Battery | Electronic diagnostics | Direction / Suspension | Distribution | Exhaust | Lighting | Engine parts | Clutch | Drain maintenance | Equipment / Accessories | Braking | Hybrid electric | Pneumatic | Roady Review | Sound / Multimedia | Windshield / Impact Repair | Puncture insurance | Registration card | Funding | Roady Assistance | Short term vehicle rental | Eco-cleaning ,46.14279,6.088759,,https://www.roady.fr/
abc,FR,IAM Autocenter,Roady,Centre Roady Riom,Route de Riom,Riom,63200,0481689897,,https://www.roady.fr/riom.html,,Carrying / Hitching | Gearbox | Air conditioning | Start / Battery | Electronic diagnostics | Direction / Suspension | Distribution | Exhaust | Lighting | Engine parts | Clutch | Drainage maintenance | Equipment / Accessories | Braking | Pneumatic | Pre-technical inspection | Roady Review | Sound / Multimedia | Windshield / Impact Repair | Funding | Short term vehicle rental | Vehicle loan | Roady Assistance | Tire storage | Puncture insurance | Registration card | Lavage | Eco-cleaning | Hybrid electric ,45.878118,3.118301,,https://www.roady.fr/
abc,FR,IAM Autocenter,Roady,Centre Roady Le Cendre,Rue Jean Mermoz,Le Cendre,63670,0481689896,,https://www.roady.fr/le-cendre.html,,Carrying / Hitching | Gearbox | Air conditioning | Starting / Battery | Electronic diagnostics | Direction / Suspension | Distribution | Exhaust | Lighting | Engine parts | Clutch | Drain maintenance | Equipment / Accessories | Braking | Pneumatic | Pre-technical inspection | Roady Review | Sound / Multimedia | Registration card | Funding | Vehicle loan | Roady Assistance | Puncture insurance | Hybrid electric ,45.728184,3.187215,,https://www.roady.fr/
abc,FR,IAM Autocenter,Roady,Centre Roady Crouy Soissons,7 rue du stade,Crouy Soissons,02880,0353640581,,https://www.roady.fr/crouy-soissons.html,,Carrying / Hitching | Gearbox | Air conditioning | Start / Battery | Electronic diagnostics | Direction / Suspension | Distribution | Exhaust | Lighting | Engine parts | Clutch | Drain maintenance | Equipment / Accessories | Braking | Pneumatic | Technical pre-inspection | Roady Review | Sound / Multimedia | Windshield / Impact Repair | Funding | Vehicle loan | Lavage | Gas bottles | Roady Assistance ,49.397332,3.354511,,https://www.roady.fr/
abc,FR,IAM Autocenter,Roady,Centre Roady Passins Morestel,ZA Le Lantey,Passins Morestel,38510,0481689890,,https://www.roady.fr/passins-morestel.html,,Portage / Hitch | Gearbox | Air conditioning | Start / Battery | Electronic diagnostics | Direction / Suspension | Distribution | Exhaust | Lighting | Engine parts | Clutch | Drain maintenance | Equipment / Accessories | Braking | Hybrid electric | Pneumatic | Pre-technical inspection | Roady Review | Sound / Multimedia | Windshield / Impact Repair | Puncture insurance | Registration card | Funding | Tire storage | Short term vehicle rental | Vehicle loan | Lavage | Roady Assistance ,45.682446,5.450442,,https://www.roady.fr/
abc,FR,IAM Autocenter,Roady,Centre Roady Chazey Bons,ZA de De Penaye Route d Ambérieu,Chazey Bons,01300,0481689882,,https://www.roady.fr/chazey-bons.html,,Carrying / Hitching | Gearbox | Air conditioning | Start / Battery | Electronic diagnostics | Direction / Suspension | Distribution | Exhaust | Lighting | Eco-cleaning | Engine parts | Clutch | Drain maintenance | Equipment / Accessories | Braking | Hybrid electric | Pneumatic | Pre-technical inspection | Roady Review | Sound / Multimedia | Windshield / Impact Repair | Puncture insurance | Registration card | Funding | Tire storage | Short term vehicle rental | Vehicle loan | Roady Assistance ,45.777865,5.688729,,https://www.roady.fr/
abc,FR,IAM Autocenter,Roady,Centre Roady Tain l'Hermitage,450 AVENUE DES LOTS,TAIN L'HERMITAGE,26600,0475069009,,https://www.roady.fr/tain-l-hermitage.html,,Carrying / Hitching | Gearbox | Air conditioning | Start / Battery | Electronic diagnostics | Direction / Suspension | Distribution | Exhaust | Lighting | Engine parts | Clutch | Drain maintenance | Equipment / Accessories | Braking | Hybrid electric | Pneumatic | Pre-technical inspection | Roady Review | Sound / Multimedia | Windshield / Impact Repair | Registration card | Funding | Tire storage | Vehicle loan | Roady Assistance | Lavage | Puncture insurance ,45.06874,4.867287,,https://www.roady.fr/
abc,FR,IAM Autocenter,Roady,Centre Roady Tournon,Carrefour des vallées,Tournon,73460,0481689892,,https://www.roady.fr/tournon.html,,Carrying / Hitching | Starting / Battery | Direction / Suspension | Distribution | Exhaust | Engine parts | Drain maintenance | Equipment / Accessories | Braking | Pneumatic | Roady Review | Sound / Multimedia | Roady Assistance | Funding | Clutch | Air conditioning | Lighting ,45.645204,6.330972,,https://www.roady.fr/
abc,FR,IAM Autocenter,Roady,Centre Roady Saint Jean de Muzols,7 chemin des iles,Saint Jean de Muzols,07300,0481689893,,https://www.roady.fr/saint-jean-de-muzols.html,,Carrying / Hitching | Gearbox | Air conditioning | Start / Battery | Electronic diagnostics | Direction / Suspension | Distribution | Exhaust | Lighting | Engine parts | Clutch | Drain maintenance | Equipment / Accessories | Braking | Hybrid electric | Pneumatic | Pre-technical inspection | Roady Review | Sound / Multimedia | Windshield / Impact Repair | Funding | Tire storage | Vehicle loan | Roady Assistance | Equipment rental | Lavage | Registration card | Puncture insurance ,45.076839,4.817634,,https://www.roady.fr/
abc,FR,IAM Autocenter,Roady,Centre Roady Chanas,Lot Parc du Soleil LD Les Etises,Chanas,38150,0481689884,,https://www.roady.fr/chanas.html,,Carrying / Hitching | Start / Battery | Direction / Suspension | Distribution | Exhaust | Engine parts | Drain maintenance | Equipment / Accessories | Braking | Pneumatic | Roady Review | Sound / Multimedia | Registration card | Roady Assistance ,45.325203,4.808318,,https://www.roady.fr/
abc,FR,IAM Autocenter,Roady,Centre Roady Aouste sur Sye,Quartier Mi-voie,Aouste sur Sye,26400,0481689885,,https://www.roady.fr/aouste-sur-sye.html,,Carrying / Hitching | Start / Battery | Direction / Suspension | Distribution | Exhaust | Engine parts | Drain maintenance | Equipment / Accessories | Braking | Pneumatic | Roady Review | Sound / Multimedia | Registration card | Roady Assistance ,44.722093,5.037017,,https://www.roady.fr/
abc,FR,IAM Autocenter,Roady,Centre Roady Amberieu en Bugey,Zone Commerciale Le Terreau du Marais,Amberieu en Bugey,01500,0481689750,,https://www.roady.fr/amberieu-en-bugey.html,,Portage / Hitch | Gearbox | Air conditioning | Start / Battery | Electronic diagnostics | Direction / Suspension | Distribution | Exhaust | Lighting | Eco-cleaning | Engine parts | Clutch | Drain maintenance | Equipment / Accessories | Braking | Pneumatic | Pre-technical inspection | Roady Review | Sound / Multimedia | Puncture insurance | Gray card | Funding | Tire storage | Vehicle loan ,45.971246,5.339956,,https://www.roady.fr/
abc,FR,IAM Autocenter,Roady,Centre Roady Saint Genis Laval,66 avenue Georges Clemenceau,Saint Genis Laval,69230,0481689900,,https://www.roady.fr/saint-genis-laval.html,,Carrying / Hitching | Gearbox | Air conditioning | Start / Battery | Electronic diagnostics | Direction / Suspension | Distribution | Exhaust | Lighting | Eco-cleaning | Engine parts | Clutch | Drain maintenance | Equipment / Accessories | Braking | Pneumatic | Pre-technical inspection | Roady Review | Sound / Multimedia | Windshield / Impact Repair | Puncture insurance | Gray card | Funding | Tire guarding | Vehicle loan | Roady Assistance | Equipment rental | Hybrid electric ,45.701937,4.7954,,https://www.roady.fr/
abc,FR,IAM Autocenter,Roady,Centre Roady Bourg saint Maurice,Route de Val d Isère,Bourg saint Maurice,73700,0481689881,,https://www.roady.fr/bourg-saint-maurice.html,,Carrying / Hitching | Start / Battery | Direction / Suspension | Distribution | Exhaust | Engine parts | Drain maintenance | Equipment / Accessories | Braking | Pneumatic | Roady Review | Sound / Multimedia | Electronic diagnostics | Lighting | Puncture insurance | Clutch | Air conditioning | Gearbox | Technical pre-inspection | Registration card ,45.624528,6.779884,,https://www.roady.fr/
abc,FR,IAM Autocenter,Roady,Centre Roady Saint Julien en Genevois,6 avenue Louis Armand,Saint Julien en Genevois,74160,0481689883,,https://www.roady.fr/saint-julien-en-genevois.html,,Carrying / Hitching | Air conditioning | Start / Battery | Electronic diagnostics | Direction / Suspension | Distribution | Exhaust | Lighting | Engine parts | Clutch | Drain maintenance | Equipment / Accessories | Braking | Hybrid electric | Pneumatic | Roady Review | Sound / Multimedia | Windshield / Impact Repair | Puncture insurance | Registration card | Funding | Roady Assistance | Short term vehicle rental | Eco-cleaning ,46.14279,6.088759,,https://www.roady.fr/
abc,FR,IAM Autocenter,Roady,Centre Roady Villefranche sur Saône,447 Rue Joseph Léon Jacquemaire,Villefranche sur Saône,69400,0481689744,,https://www.roady.fr/villefranche-sur-saone.html,,Carrying / Hitching | Gearbox | Air conditioning | Start / Battery | Electronic diagnostics | Direction / Suspension | Distribution | Exhaust | Lighting | Eco-cleaning | Engine parts | Clutch | Drainage maintenance | Equipment / Accessories | Braking | Pneumatic | Pre-technical inspection | Roady Review | Sound / Multimedia | Puncture insurance | Funding | Tire storage | Vehicle loan | Roady Assistance | Windshield / Impact Repair | Gas bottles | Hybrid electric | Registration card ,45.99338,4.742218,,https://www.roady.fr/
abc,FR,IAM Autocenter,Roady,Centre Roady Peipin,Route Nationale 85,Peipin,04200,0481689879,,https://www.roady.fr/peipin.html,,Portage / Hitch | Gearbox | Air conditioning | Starting / Battery | Electronic diagnostics | Direction / Suspension | Distribution | Exhaust | Lighting | Engine parts | Clutch | Drain maintenance | Equipment / Accessories | Braking | Pneumatic | Pre-technical inspection | Roady Review | Sound / Multimedia | Funding | Tire storage | Vehicle loan | Windshield / Impact Repair | Hybrid electric | Puncture insurance ,44.140007,5.968269,,https://www.roady.fr/
abc,FR,IAM Autocenter,Roady,Centre Roady Bourg en Bresse,54 boulevard du 8 Mai 1945,Bourg en Bresse,01000,0481689747,,https://www.roady.fr/bourg-en-bresse.html,,Carrying / Hitching | Gearbox | Air conditioning | Start / Battery | Electronic diagnostics | Direction / Suspension | Distribution | Exhaust | Lighting | Eco-cleaning | Engine parts | Clutch | Drain maintenance | Equipment / Accessories | Braking | Pneumatic | Pre-technical inspection | Roady Review | Sound / Multimedia | Puncture insurance | Registration card | Funding | Tire storage | Vehicle loan | Roady Assistance | Hybrid electric ,46.194914,5.230709,,https://www.roady.fr/
abc,FR,IAM Autocenter,Roady,Centre Roady Aubenas,14 rue de la bouche rouge,Aubenas,07200,0481689748,,https://www.roady.fr/aubenas.html,,Carrying / Hitching | Air conditioning | Start / Battery | Electronic diagnostics | Direction / Suspension | Distribution | Exhaust | Lighting | Eco-cleaning | Engine parts | Clutch | Drain maintenance | Equipment / Accessories | Braking | Hybrid electric | Pneumatic | Pre-technical inspection | Roady Review | Sound / Multimedia | Windshield / Impact Repair | Puncture insurance | Funding | Vehicle loan | Roady Assistance | Registration card | Tire storage ,44.616935,4.405807,,https://www.roady.fr/
abc,FR,IAM Autocenter,Roady,Centre Roady Bonson,Avenue de la Mairie,Bonson,42160,0481689739,,https://www.roady.fr/bonson.html,,Carrying / Hitching | Gearbox | Air conditioning | Start / Battery | Electronic diagnostics | Direction / Suspension | Distribution | Exhaust | Lighting | Engine parts | Clutch | Drain maintenance | Equipment / Accessories | Braking | Pneumatic | Roady Review | Sound / Multimedia | Windshield / Impact Repair | Puncture insurance | Funding | Tire storage | Vehicle loan | Roady Assistance ,45.526667,4.231228,,https://www.roady.fr/
abc,FR,IAM Autocenter,Roady,Centre Roady Belleville sur Saône,Le Péage,Belleville sur Saône,69220,0481689895,,https://www.roady.fr/belleville-sur-saone.html,,Carrying / Hitching | Gearbox | Air conditioning | Start / Battery | Electronic diagnostics | Direction / Suspension | Distribution | Exhaust | Lighting | Engine parts | Clutch | Drain maintenance | Equipment / Accessories | Braking | Pneumatic | Pre-technical inspection | Roady Review | Sound / Multimedia | Windshield / Impact Repair | Puncture insurance | Funding | Short term vehicle rental | Vehicle loan | Lavage | Gas bottles | Roady Assistance | Equipment rental | Hybrid electric | Tire storage | Registration card ,46.103902,4.749334,,https://www.roady.fr/
abc,FR,IAM Autocenter,Roady,Centre Roady Chadrac,Avenue des Champs Elysées,Chadrac,43770,0481689888,,https://www.roady.fr/chadrac.html,,Carrying / Hitching | Gearbox | Air conditioning | Start / Battery | Electronic diagnostics | Direction / Suspension | Distribution | Exhaust | Lighting | Eco-cleaning | Engine parts | Clutch | Drain maintenance | Equipment / Accessories | Braking | Hybrid electric | Pneumatic | Pre-technical inspection | Roady Review | Sound / Multimedia | Windshield / Impact Repair | Puncture insurance | Gray card | Funding | Vehicle loan | Roady Assistance ,45.052825,3.899079,,https://www.roady.fr/
abc,FR,IAM Autocenter,Roady,Centre Roady Bagnols sur Ceze,CC La Garaud 897 Avenue A Daudet,Bagnols sur Ceze,30200,0481689742,,https://www.roady.fr/bagnols-sur-ceze.html,,Carrying / Hitching | Gearbox | Air conditioning | Start / Battery | Electronic diagnostics | Direction / Suspension | Distribution | Exhaust | Lighting | Eco-cleaning | Engine elements | Clutch | Drain maintenance | Equipment / Accessories | Braking | Hybrid electric | Pneumatic | Pre-technical inspection | Roady Review | Sound / Multimedia | Puncture insurance | Funding | Tire storage | Vehicle loan | Gas bottles | Roady Assistance | Registration card | Windshield / Impact Repair ,44.154195,4.613496,,https://www.roady.fr/
abc,FR,IAM Autocenter,Roady,Centre Roady Isle sur la Sorgue,CD 938 Route de Carpentras,Isle sur la Sorgue,84800,0481689891,,https://www.roady.fr/isle-sur-la-sorgue.html,,Carrying / Hitching | Start / Battery | Direction / Suspension | Distribution | Exhaust | Engine parts | Drain maintenance | Equipment / Accessories | Braking | Pneumatic | Roady Review | Sound / Multimedia | Registration card | Roady Assistance | Gearbox | Clutch | Funding | Electronic diagnostics | Lighting | Air conditioning ,43.930021,5.063496,,https://www.roady.fr/
abc,FR,IAM Autocenter,Roady,Centre Roady Perreux,ZA Les Plaines,Perreux,42120,0481689889,,https://www.roady.fr/perreux.html,,Carrying / Hitching | Gearbox | Air conditioning | Start / Battery | Electronic diagnostics | Direction / Suspension | Distribution | Exhaust | Lighting | Eco-cleaning | Engine parts | Clutch | Drain maintenance | Equipment / Accessories | Braking | Hybrid electric | Pneumatic | Pre-technical inspection | Roady Review | Sound / Multimedia | Windshield / Impact Repair | Puncture insurance | Registration card | Funding | Tire storage | Vehicle loan | Gas bottles | Roady Assistance | Equipment rental ,46.028854,4.095897,,https://www.roady.fr/
abc,FR,IAM Autocenter,Roady,Centre Roady Saint Nizier sous Charlieu,ZI le pont de Tigny,Saint Nizier sous Charlieu,42190,0481689875,,https://www.roady.fr/saint-nizier-sous-charlieu.html,,Carrying / Hitching | Start / Battery | Direction / Suspension | Distribution | Exhaust | Engine parts | Drain maintenance | Equipment / Accessories | Braking | Pneumatic | Roady Review | Sound / Multimedia | Roady Assistance | Tire storage | Vehicle loan | Registration card | Funding | Windshield / Impact Repair | Puncture insurance | Gearbox | Lighting | Electronic diagnostics | Clutch | Pre-technical inspection ,46.152613,4.156303,,https://www.roady.fr/
abc,FR,IAM Autocenter,Roady,Centre Roady Pertuis,Route D Aix en Provence,Pertuis,84120,0481689876,,https://www.roady.fr/pertuis.html,,Carrying / Hitching | Start / Battery | Direction / Suspension | Distribution | Exhaust | Engine parts | Drain maintenance | Equipment / Accessories | Braking | Pneumatic | Roady Review | Sound / Multimedia | Gray card | Roady Assistance | Gearbox | Electronic diagnostics | Lighting | Pre-technical inspection | Air conditioning | Clutch | Funding ,43.679771,5.501522,,https://www.roady.fr/
abc,FR,IAM Autocenter,Roady,Centre Roady Alès,82 Avenue d Alsace,Alès,30100,0466566031,,https://www.roady.fr/ales.html,,Carrying / Hitching | Gearbox | Air conditioning | Start / Battery | Electronic diagnostics | Direction / Suspension | Distribution | Exhaust | Lighting | Eco-cleaning | Engine parts | Clutch | Drain maintenance | Equipment / Accessories | Braking | Pneumatic | Pre-technical inspection | Roady Review | Sound / Multimedia | Puncture insurance | Funding | Roady Assistance | Equipment rental | Hybrid electric ,44.138821,4.088279,,https://www.roady.fr/
abc,FR,IAM Autocenter,Roady,Centre Roady Salon de Provence,Bd de la Reine Jeanne,Salon de Provence,13300,0481689887,,https://www.roady.fr/salon-de-provence.html,,Carrying / Hitching | Start / Battery | Direction / Suspension | Distribution | Exhaust | Engine parts | Drain maintenance | Equipment / Accessories | Braking | Pneumatic | Roady Review | Sound / Multimedia | Registration card | Roady Assistance ,43.634301,5.091565,,https://www.roady.fr/
abc,FR,IAM Autocenter,Roady,Centre Roady Issoire,Rte de Perrier,Issoire,63500,0481689749,,https://www.roady.fr/issoire.html,,Carrying / Hitching | Gearbox | Air conditioning | Start / Battery | Electronic diagnostics | Direction / Suspension | Distribution | Exhaust | Lighting | Engine parts | Clutch | Drain maintenance | Equipment / Accessories | Braking | Pneumatic | Pre-technical inspection | Roady Review | Sound / Multimedia | Windshield / Impact Repair | Vehicle loan | Gas bottles | Roady Assistance | Funding | Hybrid electric ,45.543806,3.231617,,https://www.roady.fr/
abc,FR,IAM Autocenter,Roady,Centre Roady Le Cendre,Rue Jean Mermoz,Le Cendre,63670,0481689896,,https://www.roady.fr/le-cendre.html,,Carrying / Hitching | Gearbox | Air conditioning | Start / Battery | Electronic diagnostics | Direction / Suspension | Distribution | Exhaust | Lighting | Engine parts | Clutch | Drain maintenance | Equipment / Accessories | Braking | Pneumatic | Pre-technical inspection | Roady Review | Sound / Multimedia | Registration card | Funding | Vehicle loan | Roady Assistance | Puncture insurance | Hybrid electric ,45.728184,3.187215,,https://www.roady.fr/
abc,FR,IAM Autocenter,Roady,Centre Roady Lunel,C.Cial des portes de la mer,Lunel,34400,0481689751,,https://www.roady.fr/lunel.html,,Carrying / Hitching | Start / Battery | Direction / Suspension | Distribution | Exhaust | Engine parts | Drain maintenance | Equipment / Accessories | Braking | Pneumatic | Roady Review | Sound / Multimedia | Registration card | Short term vehicle rental | Roady Assistance | Air conditioning | Gearbox | Technical pre-inspection | Puncture insurance | Windshield / Impact Repair | Clutch | Hybrid electric | Electronic diagnostics | Funding | Lighting ,43.683857,4.152001,,https://www.roady.fr/
abc,FR,IAM Autocenter,Roady,Centre Roady Riom,Route de Riom,Riom,63200,0481689897,,https://www.roady.fr/riom.html,,Carrying / Hitching | Gearbox | Air conditioning | Start / Battery | Electronic diagnostics | Direction / Suspension | Distribution | Exhaust | Lighting | Engine parts | Clutch | Drain maintenance | Equipment / Accessories | Braking | Pneumatic | Pre-technical inspection | Roady Review | Sound / Multimedia | Windshield / Impact repair | Funding | Short term vehicle rental | Vehicle loan | Roady Assistance | Tire storage | Puncture insurance | Registration card | Lavage | Eco-cleaning | Hybrid electric ,45.878118,3.118301,,https://www.roady.fr/
abc,FR,IAM Autocenter,Roady,Centre Roady Gannat,12 Avenue des Portes Occitanes,Gannat,03800,0481689898,,https://www.roady.fr/gannat.html,,Carrying / Hitching | Gearbox | Air conditioning | Starting / Battery | Electronic diagnostics | Direction / Suspension | Distribution | Exhaust | Lighting | Engine parts | Clutch | Drain maintenance | Equipment / Accessories | Braking | Pneumatic | Pre-technical inspection | Roady Review | Sound / Multimedia | Windshield / Impact Repair | Registration card | Funding | Short term vehicle rental | Vehicle loan | Lavage | Gas bottles | Roady Assistance | Equipment rental | Puncture insurance | Hybrid electric ,46.079378,3.200669,,https://www.roady.fr/
abc,FR,IAM Autocenter,Roady,Centre Roady Sollies Pont,ZAC de la Poulasse,Sollies Pont,83210,0481689874,,https://www.roady.fr/sollies-pont.html,,Portage / Hitch | Start / Battery | Direction / Suspension | Distribution | Exhaust | Engine parts | Drain maintenance | Equipment / Accessories | Braking | Pneumatic | Roady Review | Sound / Multimedia | Roady Assistance | Clutch | Gearbox | Electronic diagnostics | Windshield / Impact Repair | Air conditioning | Lighting ,43.202521,6.050725,,https://www.roady.fr/
abc,FR,IAM Autocenter,Roady,Centre Roady Jacou,La Plaine Espace Bocaud,Jacou,34830,0481689873,,https://www.roady.fr/jacou.html,,Carrying / Hitching | Start / Battery | Direction / Suspension | Distribution | Exhaust | Engine parts | Drain maintenance | Equipment / Accessories | Braking | Pneumatic | Roady Review | Sound / Multimedia | Registration card | Roady Assistance | Pre-technical inspection | Short term vehicle rental | Lavage | Windshield / Impact Repair | Electronic diagnostics | Vehicle loan | Gearbox | Puncture insurance | Lighting | Clutch | Air conditioning ,43.659978,3.905983,,https://www.roady.fr/
